name,telephone,adress,gps,lattitude,longitude
 Acaciavale Clinic,+27 36 637 6833,"92 Centenary Road, Acaciavale, Ladysmith, KwaZulu-Natal, 3370","-28.58683, 29.79619",-32.92419,27.42365
 Adams Mission Clinic,+27 31 900 2144,"D995, Sheleni Road, Adams Mission, Amanzimtoti, KwaZulu-Natal, 4126","-30.01497, 30.81313",-32.92419,27.42365
 Addington Gateway Clinic,+27 31 327 2796,"16 Erskine Terrace, South Beach, Durban, KwaZulu-Natal, 4001","-29.86379, 31.04305",-32.92419,27.42365
 Addington Hospital,+27 31 327 2000,"16 Erskine Terrace, South Beach, Durban, KwaZulu-Natal, 4001","-29.86225, 31.04123",-32.92419,27.42365
 Addington Hospital - Department of Social Work,+27 31 327 2861,"16 Erskine Terrace, South Beach, Durban, KwaZulu-Natal, 4001","-29.86579, 31.04375",-32.92419,27.42365
 Addington Hospital - Poly Clinic,+27 31 327 2227,"16 Erskine Terrace, South Beach, Durban, KwaZulu-Natal, 4001","-29.86379, 31.04305",-32.92419,27.42365
 Advice Desk for the Abused,+27 31 262 9673,"PO Box 65227, Reservoir Hills, Durban, KwaZulu-Natal, 4090","-29.79366, 30.93600",-32.92419,27.42365
 AE Haviland Clinic,+27 36 354 1872,"Near to the Social Welfare Office, Bell Street, Weenen, Estcourt, KwaZulu-Natal, 3325","-28.85445, 30.09293",-32.92419,27.42365
 Africa Cares for Life,+27 31 903 2340,"10 Nelson Road, Amanzimtoti, Durban, KwaZulu-Natal, 4141","-30.04788, 30.88155",-32.92419,27.42365
" Age-in-Action - Eshowe, KwaZulu-Natal",+27 35 772 1033,"Suite 21B, 11 Mangosuthu Buthulezi Drive, Eshowe, KwaZulu-Natal, 3815","-28.88986, 31.47366",-32.92419,27.42365
 Age-in-Action - KwaZulu-Natal Provincial Office,+27 31 309 2012,"Flat 207, Wheeler House, 12 De Mazenod Road, Greyville, KwaZulu-Natal, 4001","-29.83798, 31.02169",-32.92419,27.42365
 AIDS Healthcare Foundation - Ithembalabantu Clinic,+27 31 906 0452,"162 Zwe Madlala Drive, Umlazi W Section, Umlazi, KwaZulu-Natal, 4066","-29.96101, 30.89672",-32.92419,27.42365
 AIDS Resource Centre - Murchison Hospital,+27 39 687 7311,"Main Building Road, Paddock, Port Shepstone, KwaZulu-Natal, 4240","-30.74811, 30.43041",-32.92419,27.42365
 Airport Medical Centre,+27 31 902 6220,"11 Jadwats Street, Isipingo Rail, Isipingo, KwaZulu-Natal, 4133","-29.98224, 30.92598",-32.92419,27.42365
 Altona Clinic,+27 34 413 1707,"Ground Floor, Ministerial Suite, King Dinuzulu Highway, Ulundi, KwaZulu-Natal, 3838","-27.39877, 31.26791",-32.92419,27.42365
 AM Moolla Special Nova School,+27 31 500 3801,"313 Lenham Drive, Lenham, Phoenix, KwaZulu-Natal, 4068","-29.69099, 30.99288",-32.92419,27.42365
 Amadiba Clinic,+27 39 305 2815,"Madiba Location, Banners Rest, Port Edward, KwaZulu-Natal, 4295","-31.07309, 30.17901",-32.92419,27.42365
 Amantimatolo Clinic,+27 33 445 9319,"Next to Matimatolo Police Station, Matimatolo, Greytown, KwaZulu-Natal, 3250","-29.06507, 30.57773",-32.92419,27.42365
 Amanzimtoti Clinic,+27 31 311 5601,"2 Ross Street, Adams Mission, Amanzimtoti, KwaZulu-Natal, 4100","-30.05438, 30.88075",-32.92419,27.42365
 Amanzimtoti Trauma Unit,+27 31 903 7777,"1 Queens Terrace, Doonside, Amanzimtoti, KwaZulu-Natal, 4126","-30.06938, 30.87373",-32.92419,27.42365
 Angel Liht,+27 61 088 7234,"House J1715, Mdoni Avenue, Umlazi J Section, Umlazi, Durban, KwaZulu-Natal, 4031","-29.95541, 30.86205",-32.92419,27.42365
" Anglican Church of Southern Africa, St Paul's Anglican Church - Durban",+27 31 305 4666,"161 Monty Naicker Road, Durban, KwaZulu-Natal, 4001","-29.85705, 31.02603",-32.92419,27.42365
 Appelsbosch Hospital,+27 32 294 8000,"R614 Wartburg Road, Ozwatini, Dalton, KwaZulu-Natal, 3242","-29.38985, 30.84270",-32.92419,27.42365
 Appelsbosch Mobile 1 Clinic,+27 32 294 8000,"R614 Wartburg Road, Ozwatini, Dalton, KwaZulu-Natal, 3242","-29.38985, 30.84270",-32.92419,27.42365
 Appelsbosch Mobile 2 Clinic,+27 32 294 8000,"R614 Wartburg Road, Ozwatini, Dalton, KwaZulu-Natal, 3242","-26.41282, 27.90024",-32.92419,27.42365
 Assisi Centre,+27 73 549 6070,"Next to Assisi Mission, St Faith's Road, Port Shepstone, KwaZulu-Natal, 4240","-30.74391, 30.45156",-32.92419,27.42365
 Assisi Clinic,+27 39 695 9476,"St Faith's Road, Port Shepstone, KwaZulu-Natal, 4240","-30.60645, 30.34957",-32.92419,27.42365
 Athlone Park Clinic,+27 31 904 1091,"4 Warner Road, Athlone Park, Amanzimtoti, KwaZulu-Natal, 4126","-30.01812, 30.91928",-32.92419,27.42365
 Austerville Halfway House,+27 31 468 6429,"24 Tuin Road, Austerville, KwaZulu-Natal, 4052","-29.94437, 30.97463",-32.92419,27.42365
 Austerville Occupational Clinic,+27 31 468 5961,"Tafta Hall, Austerville Drive, Austerville, Durban, KwaZulu-Natal, 4052","-29.94270, 30.97563",-32.92419,27.42365
 Azalea Clinic,+27 33 323 0006,"Azalea Sports Complex, Pietermaritzburg, KwaZulu-Natal, 3201","-29.60384, 30.37961",-32.92419,27.42365
 Azalea House,+27 31 201 9039,"39 Noble Road, Bulwer, Berea, KwaZulu-Natal, 4083","-29.85664, 31.00259",-32.92419,27.42365
 Balgowan Clinic,+27 33 234 4573,"Next to Michaelhouse, Balgowan, Howick, KwaZulu-Natal, 3275","-29.39500, 30.05583",-32.92419,27.42365
 Baniyena Clinic,+27 39 973 0922,"Next to the Police Station, Mobeni, Durban, KwaZulu-Natal, 4052","-30.11872, 30.58766",-32.92419,27.42365
 Baphumile Clinic,+27 39 684 7000,"Near to Baphumile School, Baphumile Location, Umzumbe, KwaZulu-Natal, 4225","-30.55292, 30.35442",-32.92419,27.42365
 Bay Cross Clinic,+27 35 787 0631,"Alumina Allee Street, Alton, Richards Bay, KwaZulu-Natal, 3900","-28.76640, 32.03362",-32.92419,27.42365
 Bayview Clinic,+27 31 400 5258,"224 Turnstone Avenue, Bayview, Chatsworth, KwaZulu-Natal, 4092","-29.92332, 30.91358",-32.92419,27.42365
 Beatrice Street Clinic,+27 31 309 6222,"23 Charlotte Maxeke Street, Durban, KwaZulu-Natal, 4001","-29.85170, 31.01798",-32.92419,27.42365
 Behold Your God Ministries,+27 82 398 0341,"51 Lahore Road, Northdale, Pietermaritzburg, KwaZulu-Natal, 3201","-29.56945, 30.39381",-32.92419,27.42365
 Belgrade Clinic,+27 83 490 4628,"Bizabonke, Pongola, KwaZulu-Natal, 3170","-27.26715, 31.28297",-32.92419,27.42365
 Benedictine Hospital,+27 35 831 7000,"Near to the Police Station, Main Road, Nongoma, KwaZulu-Natal, 3950","-27.89269, 31.63951",-32.92419,27.42365
 Bester Clinic,+27 31 503 1165,"Behind Bridge City Mall, Vezi Road, Ntuzuma, KwaMashu, KwaZulu-Natal, 4309","-29.72534, 30.98598",-32.92419,27.42365
 Betania Love in Action,+27 78 781 3407,"Next to Zamazama Tuck Shop, Betania Location, Port Shepstone, KwaZulu-Natal, 4240","-30.75032, 30.43336",-32.92419,27.42365
 Bethesda Hospital,+27 35 595 1004,"Ubombo Main Road, Ubombo, KwaZulu-Natal, 3970","-27.57411, 32.08210",-32.92419,27.42365
 Bethesda Mobile 1 Clinic,+27 35 595 1004,"Near to Ubombo Primary School, Ubombo Main Road, Ubombo, KwaZulu-Natal, 3970","-28.74574, 31.89127",-32.92419,27.42365
 Bethesda Mobile 2 Clinic,+27 79 316 5749,"Near to Ubombo Primary School, Ubombo Main Road, Ubombo, KwaZulu-Natal, 3970","-28.74574, 31.89127",-32.92419,27.42365
 Bethesda Mobile 3 Clinic,+27 76 989 0795,"Near to Ubombo Primary School, Ubombo Main Road, Ubombo, KwaZulu-Natal, 3970","-28.74574, 31.89127",-32.92419,27.42365
 Bhekabantu Clinic,+27 35 592 8010,"Next to Bhekabantu Primary School, Bhekabantu Location, Kwangwanase, KwaZulu-Natal, 3973","-26.51106, 27.86822",-32.92419,27.42365
 Bhekimindeni Multipurpose Community Centre,+27 72 631 5862,"2452 Kwadinabakubo, Molweni, KwaZulu-Natal, 3653","-29.73675, 30.86940",-32.92419,27.42365
 Bhekimpilo Health and Social Project,+27 73 077 4010,"Xolo Area, Mahlabathini, Ulundi, KwaZulu-Natal, 3938","-28.30076, 31.42906",-32.92419,27.42365
 Bhekumthetho Clinic,+27 34 933 0162,"Next to the Tribal Court, Bhekumthetho Location, Emondlo, Vryheid, KwaZulu-Natal, 3105","-27.97981, 30.71913",-32.92419,27.42365
 Bhekuzulu Clinic,+27 34 981 4892,"2625 Gama Street, Bhekuzulu, Vryheid, KwaZulu-Natal, 3100","-27.77656, 30.82191",-32.92419,27.42365
 Bhobhoyi Clinic,+27 39 687 7831,"Near to Mganka Primary School, Mganka, Port Shepstone, KwaZulu-Natal, 4240","-30.74127, 30.38568",-32.92419,27.42365
 Bhomela Clinic,+27 39 685 0176,"Opposite the Taxi Rank, Bhomela Location, Gamalakhe, Port Shepstone, KwaZulu-Natal, 4249","-30.76862, 30.33912",-32.92419,27.42365
 Blue Roof Clinic,+27 31 461 3101,"74 Lubbe Road, Austerville, Durban, KwaZulu-Natal, 4052","-29.94069, 30.98513",-32.92419,27.42365
 Bluff Clinic,+27 31 466 1970,"1302 Bluff Road, Fynnlands, Bluff, Durban, KwaZulu-Natal, 4052","-29.90042, 31.02605",-32.92419,27.42365
 Boyi Simelane Clinic,+27 31 909 0633,"1290 Ngcede Grove, Umlazi AA, Umlazi, KwaZulu-Natal, 4031","-29.97863, 30.86688",-32.92419,27.42365
 Brackenham Mobile Clinic,+27 35 798 1670,"Brackenham Community Centre, Brackenham, Richards Bay, KwaZulu-Natal, 3900","-28.72290, 32.04224",-32.92419,27.42365
 Braemar Clinic,+27 39 313 8009,"Nzimakwe Location, D1095 Road, Port Edward, KwaZulu-Natal, 4295","-31.05428, 30.22607",-32.92419,27.42365
 Bramhill Building Clinic,+27 33 394 6973,"140 Longmarket Street, Pietermaritzburg, KwaZulu-Natal, 3201","-29.60384, 30.37961",-32.92419,27.42365
 Bright Future for African Children and Women,+27 31 836 6634,"Office 404, Senton House, 22 Senton Road, Durban, KwaZulu-Natal, 4001","-29.86097, 31.02062",-32.92419,27.42365
 Brighton Beach and Bluff Victim Friendly Facility,+27 31 451 8060,"Situated within Brighton Beach Police Station, Dr Hoosen Haffajee Road, Brighton Beach, Durban, KwaZulu-Natal, 4052","-29.93548, 31.00659",-32.92419,27.42365
 Buchanana Clinic,+27 35 792 7046,"Next to Buchanana Municipality, Obuka Area, Empangeni, KwaZulu-Natal, 3880","-28.59237, 31.75950",-32.92419,27.42365
 Burlington Youth Development Organisation,+27 31 829 1466,"387 Burlington Drive, Burlington Heights, Queensburgh, KwaZulu-Natal, 4093","-29.89617, 30.88620",-32.92419,27.42365
 Busingatha Clinic,+27 36 438 9997,"Ebusingatha Area, Dukuza, Bergville, KwaZulu-Natal, 3350","-28.70648, 28.99807",-32.92419,27.42365
 Buxedene Clinic,+27 35 838 0296,"R618, Nongoma, KwaZulu-Natal, 3950","-28.00432, 31.85108",-32.92419,27.42365
 C'sters in Action,+27 78 195 5763,"14 Samson Place, Woodlands, KwaZulu-Natal, 4004","-29.91956, 30.95687",-32.92419,27.42365
 Caluza Clinic,+27 33 399 4362,"Near to Edendale Hospital, Caluza, Edendale, KwaZulu-Natal, 3217","-29.64548, 30.31143",-32.92419,27.42365
 Caluza Mobile 1 Clinic,+27 33 342 9252,"Iris Marwick College, Town Hill, Pietermaritzburg, KwaZulu-Natal, 3201","-29.58667, 30.37409",-32.92419,27.42365
 Caluza Mobile 2 Clinic,+27 33 342 9252,"Iris Marwick College, Town Hill, Pietermaritzburg, KwaZulu-Natal, 3201","-29.58667, 30.37409",-32.92419,27.42365
 Caluza Mobile 3 Clinic,+27 33 342 9252,"Iris Marwick College, Town Hill, Pietermaritzburg, KwaZulu-Natal, 3201","-29.58667, 30.37409",-32.92419,27.42365
 Caluza Mobile 4 Clinic,+27 33 342 9252,"Iris Marwick College, Town Hill, Pietermaritzburg, KwaZulu-Natal, 3201","-29.58667, 30.37409",-32.92419,27.42365
 Caneside Clinic,+27 31 505 1268,"175 Canehaven Drive, Caneside, Phoenix, KwaZulu-Natal, 4068","-29.68622, 31.01692",-32.92419,27.42365
 Care Network International,+27 31 500 2336,"2 Welham Place, Phoenix, Durban, KwaZulu-Natal, 4068","-29.70166, 30.98310",-32.92419,27.42365
 Careline Crises and Trauma Centre,+27 31 765 1314,"36 Assagay Road, Hillcrest, Pinetown, KwaZulu-Natal, 3610","-29.77428, 30.74909",-32.92419,27.42365
 Catherine Booth District Hospital,+27 35 474 8407,"KhwaKhoza Reserve, Amatikulu, KwaZulu-Natal, 3801","-28.99767, 31.47471",-32.92419,27.42365
 Catherine Booth Mobile Clinic,+27 35 474 8403,"Near to Amatikulu Sugar Mill, KwaKhoza Reserve, Amatikulu, KwaZulu-Natal, 3801","-29.12730, 31.56925",-32.92419,27.42365
 Cato Manor Community Health Centre,+27 31 261 4260,"25 Kalenden Road, Cato Manor, Durban, KwaZulu-Natal, 4001","-29.86151, 30.96857",-32.92419,27.42365
 Cato Manor Masibambisane - Keeping a Promise,+27 74 704 8053,"Off Wiggins Road, Cato Manor, Mayville, Durban, KwaZulu-Natal, 4091","-29.85080, 30.97289",-32.92419,27.42365
 Celimpilo Care and Gender Network,+27 33 330 3552,"35 Kwela Street, Howick, KwaZulu-Natal, 3290","-29.48563, 30.23467",-32.92419,27.42365
 Celukuthula Community Aid and Counselling Community Development,+27 83 756 3777,"Dube Village, Esikhawini, KwaZulu-Natal, 3887","-28.86905, 31.91456",-32.92419,27.42365
 Central City Clinic - Durban,+27 33 395 1390,"9 KE Masinga Road, Durban, KwaZulu-Natal, 4001","-29.60181, 30.38321",-32.92419,27.42365
 Centre of Hope Clinic - eThekwini Community Church,+27 31 304 3734,"78 Sylvester Ntuli Road, Durban, KwaZulu-Natal, 4001","-29.85230, 31.03459",-32.92419,27.42365
 Ceza Gateway Clinic,+27 35 832 0018,"Ceza Hospital, Echibini Road, Ceza, Nongoma, KwaZulu-Natal, 3866","-27.99713, 31.37694",-32.92419,27.42365
 Ceza Hospital,+27 35 832 5000,"Chibini Reserve, Ceza, KwaZulu-Natal, 3866","-27.97165, 31.40446",-32.92419,27.42365
 Charles James Hospital,+27 31 905 4222,"6 Sampukane Road, Ezimbokodweni, Umbogintwini, KwaZulu-Natal, 4126","-30.01382, 30.88147",-32.92419,27.42365
 Chatsworth and District Partnership Against AIDS,+27 31 401 6482,"18 Asteroid Avenue, Woodhurst, Chatsworth, KwaZulu-Natal, 4092","-29.90873, 30.90698",-32.92419,27.42365
 Chatsworth Clinic - Township Centre,+27 31 401 3180,"Unit 6, Main Street, Chatsworth Circle, Arena Park, Chatsworth, KwaZulu-Natal, 4092","-29.91094, 30.87953",-32.92419,27.42365
 Cheshire Homes South Africa - Chatsworth,+27 31 401 8281,"10 Equality Avenue, Croftdene, Chatsworth, KwaZulu-Natal, 4092","-29.91974, 30.88391",-32.92419,27.42365
 Cheshire Homes South Africa - Cheshire Village,+27 31 400 5303,"34 Turnstone Avenue, Bayview, Chatsworth, KwaZulu-Natal, 4036","-29.92268, 30.91363",-32.92419,27.42365
 Cheshire Homes South Africa - KwaZulu-Natal,+27 31 400 3477,"3436 Turnstone Avenue, Bayview, Chatsworth, KwaZulu-Natal, 4036","-29.92222, 30.91290",-32.92419,27.42365
 Cheshire Homes South Africa - Merewent,+27 31 468 1667,"15 Eksteen Road, Austerville, Merewent, KwaZulu-Natal, 4052","-29.94209, 30.97166",-32.92419,27.42365
 Cheshire Homes South Africa - Sparks Estate,+27 31 209 2852,"145 Mary Road, Sydenham, Durban, KwaZulu-Natal, 4091","-29.83707, 30.97755",-32.92419,27.42365
 Chesterville Clinic,+27 31 264 0090,"Corner of Road 3 and Booth Road, Chesterville, Durban, KwaZulu-Natal, 4091","-29.85772, 30.94992",-32.92419,27.42365
 Child Welfare South Africa - Amanzimtoti,+27 31 903 5171,"Corner of Khotha Mkhunya Road and Lewis Drive, Amanzimtoti, KwaZulu-Natal, 4126","-30.04445, 30.88343",-32.92419,27.42365
 Child Welfare South Africa - Chatsworth,+27 31 403 1256,"10 Rose Heights Road, Arena Park, Chatsworth, KwaZulu-Natal, 4092","-29.91549, 30.87658",-32.92419,27.42365
 Child Welfare South Africa - Dalton,+27 33 501 1110,"Old Main Road, Dalton, Greytown, KwaZulu-Natal, 3236","-29.64123, 30.34935",-32.92419,27.42365
 Child Welfare South Africa - Duffs Road/Inanda,+27 31 565 1622,"1 Falcon Road, Duffs Road, Durban North, KwaZulu-Natal, 4051","-29.74272, 31.00779",-32.92419,27.42365
 Child Welfare South Africa - Durban Children's Society,+27 31 312 9313,"20 Clarence Road, Greyville, Durban, KwaZulu-Natal, 4001","-29.83841, 31.01726",-32.92419,27.42365
 Child Welfare South Africa - Empangeni,+27 35 792 5358,"3 Jenner Road, Empangeni, KwaZulu-Natal, 3880","-26.51398, 27.87451",-32.92419,27.42365
 Child Welfare South Africa - Eshowe,+27 35 474 5673,"15 Patrick Street, Eshowe, KwaZulu-Natal, 3815","-28.89364, 31.46988",-32.92419,27.42365
 Child Welfare South Africa - Impendle,+27 33 996 0055,"Lopeni Road, Impendle, KwaZulu-Natal, 3228","-26.41282, 27.90024",-32.92419,27.42365
 Child Welfare South Africa - Inanda Satellite Office,+27 31 519 1547,"Plot 1, Uhlange Township Unit B, Inanda, Durban, KwaZulu-Natal, 4309","-29.80505, 31.00115",-32.92419,27.42365
 Child Welfare South Africa - KwaDukuza,+27 32 551 1922,"Corner of Cato and Jacaranda Streets, Stanger, KwaZulu-Natal, 4449","-29.34012, 31.29527",-32.92419,27.42365
 Child Welfare South Africa - KwaMashu,+27 31 503 1206,"House E768, Malandela Road, KwaMashu, KwaZulu-Natal, 4360","-29.74475, 30.98895",-32.92419,27.42365
 Child Welfare South Africa - KwaZulu-Natal,+27 31 577 2002,"9 Centre Road, Newlands, Marble Ray, KwaZulu-Natal, 4037","-29.79112, 30.99029",-32.92419,27.42365
 Child Welfare South Africa - Ladysmith,+27 36 631 4426,"362 Murchison Street, Ladysmith, KwaZulu-Natal, 3370","-28.55965, 29.78083",-32.92419,27.42365
 Child Welfare South Africa - Margate,+27 39 312 2015,"18 Uplands Road, Margate, KwaZulu-Natal, 4275","-30.86377, 30.36363",-32.92419,27.42365
 Child Welfare South Africa - Newcastle,+27 34 312 6228,"57 Paterson Street, Newcastle, KwaZulu-Natal, 2940","-27.76310, 29.93052",-32.92419,27.42365
 Child Welfare South Africa - Phoenix,+27 31 500 3671,"10 Featherstone Place, Whetstone, Phoenix, KwaZulu-Natal, 4068","-29.70695, 30.98904",-32.92419,27.42365
 Child Welfare South Africa - Pinetown/Highway,+27 31 701 3288,"35 Livingstone Road, Pinetown, KwaZulu-Natal, 3610","-29.81022, 30.86616",-32.92419,27.42365
 Child Welfare South Africa - Port Shepstone,+27 39 682 0073,"23 Connor Street, Port Shepstone, KwaZulu-Natal, 4240","-30.74088, 30.44996",-32.92419,27.42365
 Child Welfare South Africa - Richards Bay,+27 35 789 2640,"12 Weigelia Street, Richards Bay, KwaZulu-Natal, 3900","-28.74144, 32.06209",-32.92419,27.42365
 Child Welfare South Africa - Sibusiswe/Clermont,+27 31 707 1121,"House B124, Minkner Road, Clermont, Pinetown, KwaZulu-Natal, 3610","-28.74146, 30.89561",-32.92419,27.42365
 Child Welfare South Africa - Stanger,+27 32 551 2129,"Corner of Cato and Jacaranda Streets, KwaDukuza, KwaZulu-Natal, 4449","-29.34012, 31.29527",-32.92419,27.42365
 Child Welfare South Africa - Tongaat,+27 32 944 1514,"12 Tesco Drive, Potgieters Hill, Tongaat, KwaZulu-Natal, 4399","-29.56629, 31.11828",-32.92419,27.42365
 Child Welfare South Africa - Umzinto,+27 39 974 1872,"344 Minaret Road, Umzinto, KwaZulu-Natal, 4200","-30.30900, 30.66920",-32.92419,27.42365
 Child Welfare South Africa - Umzumbe,+27 39 972 1552,"Close to Gobhela Primary School, Sphofu Road, Hibberdene, KwaZulu-Natal, 4220","-26.50736, 27.86218",-32.92419,27.42365
 Child Welfare South Africa - Verulam,+27 32 533 1046,"5-7 Church Street, Mount Moreland, Verulam, KwaZulu-Natal, 4339","-29.63658, 31.08867",-32.92419,27.42365
 Child Welfare South Africa - Vryheid,+27 34 982 1197,"166 Landdrost Street, Vryheid, KwaZulu-Natal, 3100","-27.77142, 30.79747",-32.92419,27.42365
 Childline - KwaZulu-Natal Provincial Office,+27 31 312 0904,"123 Percy Osborne Road, Morningside, Durban, KwaZulu-Natal, 4001","-29.81862, 31.02447",-32.92419,27.42365
" Childline - National Head Office, KwaZulu-Natal",+27 31 201 2059,"24 Stephen Dlamini Road, Musgrave, Durban, KwaZulu-Natal, 4001","-29.84746, 30.99832",-32.92419,27.42365
 Childline - Pietermaritzburg,+27 33 394 5177,"383 Bulwer Street, Pietermaritzburg, KwaZulu-Natal, 3201","-29.60289, 30.38968",-32.92419,27.42365
 Childline - Umlazi,+27 31 907 8496,"Prince Mshiyeni Hospital, Comfort Zone, Mangosuthu Highway, Umlazi, KwaZulu-Natal, 4066","-29.95513, 30.93377",-32.92419,27.42365
 Children in Distress Network - Pietermaritzburg,+27 33 345 7994,"55 Jabu Ndlovu Street, Pietermaritzburg, KwaZulu-Natal, 3201","-29.60985, 30.37495",-32.92419,27.42365
 Choices for Life,+27 31 903 7359,"10 Nelson Road, Amanzimtoti, KwaZulu-Natal, 4126","-30.04897, 30.88056",-32.92419,27.42365
 Christ the King Hospital,+27 39 834 7500,"Peter Hauff Drive, Ixopo, KwaZulu-Natal, 3276","-30.16275, 30.07793",-32.92419,27.42365
 Christelike Maatskaplike Diens - Pinetown,+27 31 701 9988,"54 Mariannhill Road, Mariannhill, Pinetown, KwaZulu-Natal, 3610","-29.82053, 30.84815",-32.92419,27.42365
 Christelike Maatskaplike Diens - Vryheid,+27 34 981 3509,"180 Utrecht Street, Bhekuzulu, Vryheid, KwaZulu-Natal, 3100","-27.76075, 30.81103",-32.92419,27.42365
 Church of Scotland Hospital,+27 33 493 1000,"R33, Dundee Road, Tugela Ferry, KwaZulu-Natal, 3010","-28.74667, 30.45009",-32.92419,27.42365
 Chwezi Clinic,+27 35 835 0705,"Next to Mnqandi School, Chwezi Area, Nkandla, KwaZulu-Natal, 3855","-28.44757, 30.98991",-32.92419,27.42365
 Cinci Clinic,+27 35 551 0290,"Near to the Library, KwaMfolozi, KwaZulu-Natal, 3915","-28.47760, 32.11540",-32.92419,27.42365
 City Hospital,+27 31 314 3000,"83 Ismail C Meer Street, Durban, KwaZulu-Natal, 4001","-29.85119, 31.01490",-32.92419,27.42365
 Clairwood Hospital,+27 31 451 5000,"1 Higginson Highway, Mobeni, Durban, KwaZulu-Natal, 4060","-29.93579, 30.96076",-32.92419,27.42365
 Clairwood Mobile Clinic,+27 31 468 4308,"Sevsamaj Hall, Corner of Cherry and Persadh Roads, 140 Cherry Road, Clairwood, Durban, KwaZulu-Natal, 4052","-29.91482, 30.98510",-32.92419,27.42365
 Clermont Clinic,+27 31 707 5482,"1106 Twelfth Street, Clermont, Pinetown, KwaZulu-Natal, 3610","-29.79493, 30.89278",-32.92419,27.42365
 COCA - Creating Opportunities for Community Advancement,+27 31 700 5503,"90 Seventh Avenue, Ashley, Durban, KwaZulu-Natal, 3610","-29.83105, 30.83649",-32.92419,27.42365
 Commercial City Family Planning Clinic,+27 31 304 4836,"Shop 14, Commercial City, Dr AB Xuma Street, Durban, KwaZulu-Natal, 4001","-29.85681, 31.02208",-32.92419,27.42365
 Community Care Project Trust,+27 33 394 3350,"Opposite Russel High, 83 Chapel Street, Pietermaritzburg, KwaZulu-Natal, 3201","-29.60727, 30.37807",-32.92419,27.42365
 Community Law and Rural Development Centre - Adams Mission,+27 78 095 4874,"Adams Mission Huskin Community Hall, D995 Sheleni Road, Adams Mission, Amanzimtoti, KwaZulu-Natal, 4100","-30.03391, 30.82485",-32.92419,27.42365
 Community Law and Rural Development Centre - Amaoti,+27 78 095 4870,"Next to Amaoti Clinic and Tafta, Amaoti, Inanda, KwaZulu-Natal, 4110","-29.70279, 31.00484",-32.92419,27.42365
 Community Law and Rural Development Centre - Dondotha,+27 78 809 5486,"Kwambonambi, KwaZulu-Natal, 3915","-28.60382, 32.08659",-32.92419,27.42365
 Community Law and Rural Development Centre - Kwadlangezwa,+27 78 095 4840,"Empangeni, KwaZulu-Natal, 3880","-28.75322, 31.89351",-32.92419,27.42365
 Community Law and Rural Development Centre - KwaXimba,+27 78 095 4851,"Next to the Police Station, situated within KwaXimbal Tribal Court, Cato Ridge, KwaZulu-Natal, 3680","-29.66427, 30.62574",-32.92419,27.42365
 Community Law and Rural Development Centre - Limehill,+27 78 095 4853,"Limehill, Wasbank, KwaZulu-Natal, 2920","-28.43654, 30.24262",-32.92419,27.42365
 Community Law and Rural Development Centre - Madadeni,+27 78 095 4869,"Madadeni, Newcastle, KwaZulu-Natal, 2951","-27.74851, 30.03614",-32.92419,27.42365
 Community Law and Rural Development Centre - Mpukunyoni,+27 78 095 4879,"Mtubatuba, KwaZulu-Natal, 3935","-28.40593, 32.21433",-32.92419,27.42365
 Community Law and Rural Development Centre - Muden,+27 78 095 4868,"Muden, KwaZulu-Natal, 3251","-28.96667, 30.38333",-32.92419,27.42365
 Community Law and Rural Development Centre - Nkandla,+27 78 095 4856,"Situated within Nkandla Municipality, Maree Road, Nkandla, KwaZulu-Natal, 3855","-28.62228, 31.08940",-32.92419,27.42365
 Community Law and Rural Development Centre - Nongoma,+27 83 757 1932,"46 Star Place, Mariann Heights, KwaZulu-Natal, 3950","-29.85821, 30.82830",-32.92419,27.42365
 Community Law and Rural Development Centre - Nyathikazi,+27 78 095 4872,"KwaDukuza, Stanger, KwaZulu-Natal, 4450","-29.36697, 31.26600",-32.92419,27.42365
 Community Law and Rural Development Centre - Okhahlamba,+27 78 095 4880,"Bergville, KwaZulu-Natal, 3350","-28.73048, 29.35117",-32.92419,27.42365
 Community Law and Rural Development Centre - Port Dunford,+27 31 310 3579,"Next to the Community Hall, Port Dunford, KwaZulu-Natal, 3887","-28.92402, 31.83139",-32.92419,27.42365
 Community Law and Rural Development Centre - Qiko,+27 78 095 4875,"Scottburgh, Kwazulu-Natal, 4180","-30.32161, 30.68900",-32.92419,27.42365
 Community Law and Rural Development Centre - Rietvlei,+27 78 095 4863,"Staffords Post, Rietvlei, KwaZulu-Natal, 4686","-30.48689, 29.83195",-32.92419,27.42365
 Community Law and Rural Development Centre - Utrecht,+27 78 095 4837,"Utrecht, KwaZulu-Natal, 2980","-27.67117, 30.30895",-32.92419,27.42365
 Community Law and Rural Development Centre - Vryheid,+27 78 095 4842,"Vryheid, KwaZulu-Natal, 3100","-27.76542, 30.79246",-32.92419,27.42365
 Community Outreach Centre - St Mary's Hospital,+27 31 717 1024,"St Mary's Hospital, 1 Hospital Road, Mariannhill, Pinetown, KwaZulu-Natal, 3610","-29.84746, 30.82584",-32.92419,27.42365
 Community Policing Forum - Bellair Cluster,+27 31 451 2807,"18 Addison Road, Hillary, Durban, KwaZulu-Natal, 4094","-29.93650, 31.00579",-32.92419,27.42365
 Community Policing Forum - Inanda Cluster,+27 31 303 2761,"Next to Build It and Inanda Shopping Centre, M25 Curnick Ndlovu Highway, Inanda, KwaZulu-Natal, 4310","-29.70791, 30.95663",-32.92419,27.42365
 Community Policing Forum - Pinetown Cluster,+27 31 325 5003,"133 Josiah Gumede Road, Pinetown, Durban, KwaZulu-Natal, 3610","-29.70173, 31.00798",-32.92419,27.42365
 Cotlands - KwaZulu-Natal,+27 35 838 1948,"55 Sunder Street, Hlabisa, KwaZulu-Natal, 3937","-28.95769, 29.86633",-32.92419,27.42365
 Craigieburn Clinic,+27 31 311 5402,"1 Civic Street, Craigieburn, Umkomaas, KwaZulu-Natal, 4170","-30.19887, 30.75441",-32.92419,27.42365
 Cramond Clinic,+27 33 569 1881,"Cramond Location, Greytown Road, Greytown, KwaZulu-Natal, 3200","-29.41576, 30.42937",-32.92419,27.42365
 Cwaka Clinic,+27 34 662 1235,"Next to Nyandu School, Nyandu Area, Tugela Ferry, KwaZulu-Natal, 3010","-28.65777, 30.46397",-32.92419,27.42365
 Damaseku Congregational Apostolic Church of Zion,+27 72 951 8784,"House F447, Ntuzuma, KwaMashu, KwaZulu-Natal, 4359","-29.72556, 30.96111",-32.92419,27.42365
 Danganya Clinic,+27 39 973 0136,"R102 South Coast Road, Illfra Combe, Umkomaas, KwaZulu-Natal, 4170","-30.17172, 30.81697",-32.92419,27.42365
 Dayanand Gardens,+27 31 404 9523,"Road 601, Arena Park, Chatsworth, KwaZulu-Natal, 4092","-29.91714, 30.87717",-32.92419,27.42365
 Dengeni Clinic,+27 73 089 3333,"Near to Celulwazi Primary School, Dengeni, Nongoma, KwaZulu-Natal, 3950","-27.89346, 31.64697",-32.92419,27.42365
" Department of Health District Surgeon - South Beach, Durban",+27 31 337 9612,"Addington Hospital, Erskine Terrace, South Beach, Durban, KwaZulu-Natal, 4001","-29.86225, 31.04123",-32.92419,27.42365
" Department of Justice and Constitutional Development, Office of the Family Advocate - Durban",+27 31 310 6500,"15th Floor, Maritime House, 143 Margaret Mncade Avenue, Durban, KwaZulu-Natal, 4001","-29.86197, 31.02025",-32.92419,27.42365
" Department of Justice and Constitutional Development, Office of the Family Advocate - Newcastle",+27 34 326 4932,"37 Murchison Street, Newcastle, KwaZulu-Natal, 2940","-27.75514, 29.93200",-32.92419,27.42365
" Department of Justice and Constitutional Development, Office of the Family Advocate - Pietermaritzburg",+27 33 342 0616,"239 Church Street, Pietermaritzburg, KwaZulu-Natal, 3201","-29.60217, 30.37829",-32.92419,27.42365
 Department of Social Development - Empangeni,+27 35 787 6340,"10 Bronze Street Empangeni Rail, KwaZulu-Natal, 3880","-28.77861, 31.89394",-32.92419,27.42365
 Department of Social Development - Ezinqoleni,+27 39 534 7000,"Ezinqoleni Magistrate Court, 37 Main Harding Road, Ezinqoleni, KwaZulu-Natal, 4260","-30.75194, 30.42245",-32.92419,27.42365
 Department of Social Development - Hammarsdale,+27 31 771 1341,"Plot S33, Buthelezi Road, Hammarsdale Unit 6, Hammarsdale, KwaZulu-Natal, 3699","-29.80923, 30.64702",-32.92419,27.42365
 Department of Social Development - Harding,+27 39 433 1010,"17 Field Street, Harding, Kokstad, KwaZulu-Natal, 4680","-30.57250, 29.88392",-32.92419,27.42365
 Department of Social Development - Pinetown,+27 31 716 2600,"43 Union Lane, Pinetown, KwaZulu-Natal, 3600","-29.81346, 30.85978",-32.92419,27.42365
 Department of Social Development - Umlazi,+27 31 918 8800,"W200 Zwemadlala Road, Umlazi, KwaZulu-Natal, 4031","-29.95761, 30.89411",-32.92419,27.42365
 Diakonia Council of Churches,+27 31 310 3500,"Diakonia Centre, 20 Diakonia Avenue, Durban, KwaZulu-Natal, 4001","-29.86324, 31.01492",-32.92419,27.42365
 Dinintuli Clinic,+27 35 834 6010,"Near to Makhwabe Primary School, Ngowo Tribal Authority, Nkandla, KwaZulu-Natal, 3855","-28.70489, 30.67266",-32.92419,27.42365
 Dlangezwa Clinic,+27 39 979 6057,"Crowders Location, Umkomaas, KwaZulu-Natal, 4170","-30.17947, 30.67767",-32.92419,27.42365
 Dokodweni Clinic,+27 35 337 4578,"Near to Dokodweni Primary School, Dokodweni, KwaZulu-Natal, 3807","-29.07289, 31.62387",-32.92419,27.42365
 Don McKenzie Centre TB Hospital,+27 31 777 1155,"10 Zulu Reserve Road, Bothas Hill, Hillcrest, KwaZulu-Natal, 3660","-29.74073, 30.73781",-32.92419,27.42365
 Dondotha Clinic,+27 35 796 9008,"Amanzimtoti Road, KwaMfolozi, KwaZulu-Natal, 3915","-28.54391, 31.94573",-32.92419,27.42365
 Doris Goodwin Hospital,+27 33 398 1038,"Edendale Road, Pietermaritzburg, KwaZulu-Natal, 3201","-29.64759, 30.34161",-32.92419,27.42365
 Driefontein Clinic,+27 36 631 9255,"Next to the Tribal Court, Driefontein, Ladysmith, KwaZulu-Natal, 3370","-28.34324, 29.70243",-32.92419,27.42365
 Dududu Clinic,+27 39 974 0172,"Near to Dududu Police Station, Dududu Road 21483, Dududu, Scottburgh, KwaZulu-Natal, 4192","-30.19445, 30.60341",-32.92419,27.42365
 Dumbe HIV and AIDS Action Group,+27 78 638 0210,"219, eDumbe Municipality Location, Paulpietersburg, KwaZulu-Natal, 3180","-27.42474, 30.81806",-32.92419,27.42365
 Dundee Gateway Clinic,+27 34 212 1111,"121 McKenzie Street, Dundee, KwaZulu-Natal, 3000","-28.17472, 30.22588",-32.92419,27.42365
 Dundee Hospital,+27 34 212 1111,"121 McKenzie Street, Dundee, KwaZulu-Natal, 3000","-28.17472, 30.22588",-32.92419,27.42365
 Dundee Mobile 1 Clinic,+27 34 218 1081,"121 McKenzie Street, Dundee, KwaZulu-Natal, 3000","-28.17472, 30.22588",-32.92419,27.42365
 Dundee Mobile 2 Clinic,+27 34 218 1081,"121 McKenzie Street, Dundee, KwaZulu-Natal, 3000","-28.17472, 30.22588",-32.92419,27.42365
 Durban Family Court,+27 31 302 4114,"Corner of Stalwart Simelane Street and Somtseu Road, Durban, KwaZulu-Natal, 4001","-29.84481, 31.02593",-32.92419,27.42365
 Durban Hospice for Women - Kerr House,+27 31 303 2912,"201 Mathews Meyiwa Road, Greyville, Durban, KwaZulu-Natal, 4001","-29.83080, 31.02273",-32.92419,27.42365
 Durban Lesbian and Gay Community and Health Centre,+27 31 312 7402,"42 Mckenzie Road, Windermere, Berea, KwaZulu-Natal, 4001","-29.83245, 31.02156",-32.92419,27.42365
 Durdoc Hospital,+27 31 301 8531,"460 Anton Lembede Street, Durban, KwaZulu-Natal, 4001","-29.86026, 31.01728",-32.92419,27.42365
 Dweshula Vulnerable Children's Care Project,+27 72 712 0238,"Next to Ntimbankulu Clinic, Dweshula, Port Shepstone, KwaZulu-Natal, 4247","-30.75032, 30.43336",-32.92419,27.42365
 E24/7 Emergency Medical Rescue Services,+27 32 533 0305,"2 Heron Street, Verulam, Durban, KwaZulu-Natal, 4339","-29.89268, 30.90739",-32.92419,27.42365
 East Boom Community Health Centre,+27 33 264 4901,"541 Boom Street, Pietermaritzburg, KwaZulu-Natal, 3201","-29.59728, 30.37658",-32.92419,27.42365
 East Griqualand and Usher Memorial Hospital - Kokstad,+27 39 797 8100,"Corner of Elliot Street and The Avenue, Kokstad, KwaZulu-Natal, 4700","-30.54282, 29.42038",-32.92419,27.42365
 Ebuhleni Clinic,+27 72 147 9835,"Manyameni Village, Mthunzini, Empangeni, KwaZulu-Natal, 3880","-28.74471, 31.89099",-32.92419,27.42365
 Edendale Gateway Clinic,+27 33 395 4150,"Situated within Edendale Hospital, Main Road, Pietermaritzburg, KwaZulu-Natal, 3201","-29.64701, 30.33181",-32.92419,27.42365
 Edi Training and Community Development,+27 35 550 1112,"Office 10, Aloe Business Centre, Corner of Aloe and Jan Smuts Avenues, Mtubatuba, KwaZulu-Natal, 3935","-28.41647, 32.18916",-32.92419,27.42365
 eDumbe Community Health Centre,+27 34 995 8500,"Stand 463, Main Street, Paulpietersburg, KwaZulu-Natal, 3180","-27.41007, 30.82456",-32.92419,27.42365
 Efaye Clinic,+27 33 594 9048,"Ward 3, D348-L677, Fawn Leas, Dalton, KwaZulu-Natal, 3238","-29.44737, 30.72430",-32.92419,27.42365
 Ehlanzeni Clinic,+27 33 413 1860,"Next to Ehlanzeni Primary School, Greytown, KwaZulu-Natal, 3250","-28.86110, 30.69705",-32.92419,27.42365
 Ekhombe Hospital,+27 35 834 8600,"Qhudeni Area, Nkandla, KwaZulu-Natal, 3855","-28.64135, 30.89321",-32.92419,27.42365
 Ekombe Gateway Clinic,+27 35 834 8123,"Ekombe Hospital, Qhudeni, KwaZulu-Natal, 3872","-26.51106, 27.86822",-32.92419,27.42365
 Ekombe Mobile Clinic,+27 35 834 8040,"Next to the Police Station, Ekhombe Area, Nkandla, KwaZulu-Natal, 3855","-28.62122, 31.09215",-32.92419,27.42365
 Ekubungazeleni Clinic,+27 35 831 2210,"Next to Ngxongwane Primary School, Ekubungazeleni Location, Nongoma, KwaZulu-Natal, 3950","-27.87535, 31.76750",-32.92419,27.42365
 Ekuhlehleni Clinic,+27 35 591 0627,"Next to Langeni Tuckshop, Ingwavuma, KwaZulu-Natal, 3968","-26.85419, 32.04265",-32.92419,27.42365
 Ekuphileni Africa General Practice Surgery,+27 82 809 0909,"178 Umgeni Road, Durban, KwaZulu-Natal, 4001","-29.80791, 31.01233",-32.92419,27.42365
 Ekuphileni L Clinic,+27 31 908 1212,"Stand 1221, Umlazi L Section, Umlazi, KwaZulu-Natal, 4066","-29.96927, 30.86332",-32.92419,27.42365
 Ekuphumuleni Clinic,+27 35 799 9113,"Next to Nteneshane Higher Primary School, Ekuphumuleni Area, Empangeni, KwaZulu-Natal, 3880","-28.74471, 31.89099",-32.92419,27.42365
 Ekuvukeni Health Care Centre,+27 31 503 1676,"P33 Bhejane Road, KwaMashu, Durban, KwaZulu-Natal, 4359","-29.74171, 30.97728",-32.92419,27.42365
 Elim Clinic - KwaZulu-Natal,+27 39 543 0262,"Mbangweni Location, Enqabeni, Harding, KwaZulu-Natal, 4682","-30.58122, 29.90682",-32.92419,27.42365
 Embo Community Health Centre,+27 31 781 1115,"Next to Nsikakazi High School, Mid Illovo, KwaZulu-Natal, 3750","-30.07814, 30.55259",-32.92419,27.42365
 Emkhwakhweni Clinic,+27 34 413 7044,"Near to, Khulumeluzulu High School, Pongola, KwaZulu-Natal, 3170","-27.34978, 31.52314",-32.92419,27.42365
 Empangeni Clinic,+27 35 907 5684,"Corner of Turnbull and Pierce Streets, Empangeni, KwaZulu-Natal, 3880","-28.74490, 31.89161",-32.92419,27.42365
 Empangeni Mobile 1 Clinic,+27 35 787 0019,"10 Bronze Street, Empangeni, KwaZulu-Natal, 3880","-28.77885, 31.89453",-32.92419,27.42365
 Empangeni Mobile 3 Clinic,+27 35 787 0019,"10 Bronze Street, Empangeni, KwaZulu-Natal, 3880","-28.77885, 31.89453",-32.92419,27.42365
 Empangeni Mobile 4 Clinic,+27 35 787 0019,"10 Bronze Street, Empangeni, KwaZulu-Natal, 3880","-28.77885, 31.89453",-32.92419,27.42365
 Empangeni Mobile 5 Clinic,+27 35 787 0019,"10 Bronze Street, Empangeni, KwaZulu-Natal, 3880","-28.77885, 31.89453",-32.92419,27.42365
 Ensingweni Clinic,+27 35 337 4324,"Next to Uphindo High School, Esingweni Village, KwaGingindlovu, KwaZulu-Natal, 3800","-28.95688, 31.63970",-32.92419,27.42365
 Entembisweni Clinic,+27 33 414 4596,"262 Langalibalele Street, Pietermaritzburg, KwaZulu-Natal, 3201","-29.61110, 30.37020",-32.92419,27.42365
 Eshane Clinic,+27 33 445 9595,"Bell Street, Eshane, Greytown, KwaZulu-Natal, 3250","-29.06152, 30.59430",-32.92419,27.42365
 Eshowe Community Health Centre,+27 35 474 2092,"Eshowe Hospital, 40 Kangela Street, Eshowe, KwaZulu-Natal, 3815","-28.88958, 31.46633",-32.92419,27.42365
 Eshowe Hospital,+27 35 473 4500,"40 Kangela Street, Eshowe, KwaZulu-Natal, 3815","-28.88868, 31.46666",-32.92419,27.42365
 Eshowe Mobile 1 Clinic,+27 35 473 4500,"Eshowe Hospital, 40 Kangela Street, Eshowe, KwaZulu-Natal, 3815","-28.88868, 31.46666",-32.92419,27.42365
 Eshowe Mobile 2 Clinic,+27 35 474 2092,"Eshowe Hospital, 40 Kangela Street, Eshowe, KwaZulu-Natal, 3815","-28.88868, 31.46666",-32.92419,27.42365
 Esibhudeni Clinic,+27 35 476 1003,"Near to Nkandla Forest, Nkandla, KwaZulu-Natal, 3855","-28.75514, 31.16619",-32.92419,27.42365
 Esidakeni Clinic,+27 35 832 9001,"Near to Phophomeni Primary School, Esidakeni Location, Ceza, Nongoma, KwaZulu-Natal, 3866","-28.01487, 31.34506",-32.92419,27.42365
 Esiyembeni Clinic,+27 35 550 8095,"Next to Nkonjeni Primary School, Esiyembeni Location, Hlabisa, KwaZulu-Natal, 3937","-28.14532, 31.87633",-32.92419,27.42365
 Espanini Health Services,+27 31 701 3136,"C1-4, Ashley Centre, 84 Mariannhill Road, Westmead, Pinetown, KwaZulu-Natal, 3610","-29.82212, 30.84245",-32.92419,27.42365
 Ethelbert Child and Youth Centre,+27 31 464 6555,"93 Ethelbert Road, Malvern, KwaZulu-Natal, 4093","-29.88415, 30.92207",-32.92419,27.42365
 Ethembeni Care Centre,+27 35 580 1080,"Mapelane turnoff, KwaMfolozi, KwaZulu-Natal, 3915","-26.51106, 27.86822",-32.92419,27.42365
 Ethembeni Clinic - KwaZulu-Natal,+27 33 482 0003,"Tugela Road, Tugela Ferry, KwaZulu-Natal, 3010","-28.85671, 30.49773",-32.92419,27.42365
 Ethembeni Crisis Care Centre,+27 31 704 6860,"4714 Mzwilili Crescent, Kwandengezi, Pinetown, KwaZulu-Natal, 3607","-29.84279, 30.77184",-32.92419,27.42365
 Ethembeni Place of Hope,+27 33 330 5943,"120 Mpunzi Road, Mpophomeni, KwaZulu-Natal, 3290","-29.73516, 30.87259",-32.92419,27.42365
 Everfelt Spiritual Life Network,+27 31 825 0105,"1366 Siyanda Road, Cato Manor, Mayville, Durban, KwaZulu-Natal, 4091","-29.85444, 30.96132",-32.92419,27.42365
 Every Nation Durban,+27 31 309 1630,"369 Umgeni Road, Greyville, KwaZulu-Natal, 4001","-29.84038, 31.02254",-32.92419,27.42365
 Ewangu Clinic,+27 35 476 1002,"Next to Ewangu Primary School, Mangidini Area, Nkandla, KwaZulu-Natal, 3855","-28.78994, 31.29055",-32.92419,27.42365
 Ezimfabeni Clinic,+27 35 873 9003,"Near to Khayalethu Supermarket, Ezimfabeni, Mahlabatini, KwaZulu-Natal, 3865","-28.10519, 31.43037",-32.92419,27.42365
 Ezimpondweni Clinic,+27 35 562 9050,"Next to Ezimpondweni Store, Ezimpondweni Village, Hluhluwe, KwaZulu-Natal, 3960","-27.79844, 32.45963",-32.92419,27.42365
 Ezingwenya Youth Development Organisation,+27 82 954 3969,"Next to Lindelani Primary, Ezingwenya Reserve, Mtunzini, KwaZulu-Natal, 3867","-28.95929, 31.75230",-32.92419,27.42365
 Ezwenelisha Clinic,+27 35 550 7906,"Next to Monzi School, Mtubatuba Road, Mtubatuba, KwaZulu-Natal, 3935","-28.41667, 32.18333",-32.92419,27.42365
 Faith on Fire Ministries,+27 31 463 3160,"36 Greendale Road, Silver Glen, Chatsworth, Durban, KwaZulu-Natal,","-29.91834, 30.90578",-32.92419,27.42365
 Faith Worship Centre,+27 39 682 2185,"23 Valley Road, Port Shepstone, KwaZulu-Natal, 4240","-30.73888, 30.43971",-32.92419,27.42365
 Families South Africa - KwaMashu / Ntuzuma,+27 82 787 5962,"Ntuzuma Magistrate Court, Ntuzuma, KwaMashu, KwaZulu-Natal, 4359","-29.74928, 30.93950",-32.92419,27.42365
 Families South Africa - Pietermaritzburg,+27 33 342 4945,"188A Victoria Road, Pietermaritzburg, KwaZulu-Natal, 3201","-29.59708, 30.37176",-32.92419,27.42365
 Families South Africa - Port Shepstone,+27 39 684 3045,"3 Bazely Street, Port Shepstone, KwaZulu-Natal, 4240","-30.75032, 30.43336",-32.92419,27.42365
 Families South Africa - Umlazi,+27 71 473 0811,"Situated within Umlazi Magistrate Court, Themba Thabethe Road, Umlazi E, Umlazi, KwaZulu-Natal, 4089","-29.94650, 30.91833",-32.92419,27.42365
 Family Care Ministries,+27 31 764 7764,"8 Josiah Gumede Road, New Germany, Pinetown, KwaZulu-Natal, 3603","-29.81326, 30.85552",-32.92419,27.42365
 Felani Clinic,+27 34 271 8319,"Near to Mgombane Primary School, Nquthu, KwaZulu-Natal, 3135","-28.41207, 30.77684",-32.92419,27.42365
 Focus on iThemba,+27 31 766 8300,"111 Ngwele Road, Hillcrest, Pinetown, KwaZulu-Natal, 3650","-29.74432, 30.79221",-32.92419,27.42365
 Folweni Clinic,+27 31 900 0501,"B559 Manqina Road, Folweni, Ispingo, KwaZulu-Natal, 4110","-29.98894, 30.82258",-32.92419,27.42365
 Folweni Community Resource Centre,+27 31 900 3454,"House A1100, Mdulosi Street, Folweni, KwaZulu-Natal, 4110","-29.99522, 30.82604",-32.92419,27.42365
 Fredville Clinic,+27 31 783 9002,"Old Main Road, Inchanga, Hammarsdale, KwaZulu-Natal, 3670","-29.70676, 30.66698",-32.92419,27.42365
 Friesgewaacht Clinic,+27 34 996 0024,"Stand 1835, Bilanyoni Township, Paulpietersburg, KwaZulu-Natal, 3180","-27.39105, 30.95320",-32.92419,27.42365
 Gamalakhe Community Health Centre,+27 39 318 1113,"Corner of Michael Ntsimbi and Reverend Sithole Roads, Gamalakhe, Port Shepstone, KwaZulu-Natal, 4249","-30.81067, 30.33360",-32.92419,27.42365
 Gay and Lesbian Network,+27 33 342 6165,"19 Connaught Road, Scottsville, Pietermaritzburg, KwaZulu-Natal, 3201","-29.61467, 30.39511",-32.92419,27.42365
 Gcilima Clinic,+27 39 313 9208,"Next to Phathwa High School, Gcilima, Port Shepstone, KwaZulu-Natal, 4240","-30.91044, 30.24526",-32.92419,27.42365
 Gcinokuhle Clinic,+27 39 835 0253,"Next to Fairfield Store and Roman Catholic Church, Emazabekweni, Highflats, KwaZulu-Natal, 3306","-30.25732, 30.10782",-32.92419,27.42365
 Gedleza Clinic,+27 35 595 8111,"Near to Njula High School, Ubombo, Empangeni, KwaZulu-Natal, 3970","-27.48284, 32.21283",-32.92419,27.42365
 Gingindlovu Clinic,+27 35 337 0198,"Corner of Cheeseman and McCallum Streets, Gingindlovu, KwaZulu-Natal, 3800","-30.06229, 30.82681",-32.92419,27.42365
 Girls and Boys Town South Africa - Glenwood,+27 31 201 6161,"187 Clark Road, Glenwood, Durban, KwaZulu-Natal, 4001","-29.85809, 30.99882",-32.92419,27.42365
 Girls and Boys Town South Africa - Verulam,+27 32 533 6063,"39 Larkspur Drive, Brindhaven, Verulam, KwaZulu-Natal, 4339","-29.64996, 31.03568",-32.92419,27.42365
 Give a Child a Family - Margate,+27 39 317 2761,"Lot 32, Alexandra Road, Gayridge, Margate, KwaZulu-Natal, 4275","-29.64013, 30.38377",-32.92419,27.42365
 GJ Crookes District Hospital,+27 39 978 7000,"Hospital Road, Scottburgh, KwaZulu-Natal, 4180","-30.28932, 30.74498",-32.92419,27.42365
 GJ Crookes Gateway Clinic,+27 39 978 7000,"1 Hospital Road, Scottburgh, KwaZulu-Natal, 4180","-30.28932, 30.74498",-32.92419,27.42365
 Glen Earle Clinic,+27 31 577 6950,"260 John Dory Drive, Newlands East, Durban, KwaZulu-Natal, 4037","-29.78021, 30.97930",-32.92419,27.42365
 Gluckstadt Clinic,+27 34 952 1681,"Next to Gluckstadt Police Station, Bethel Mission, Bhekuzulu, Vryheid, KwaZulu-Natal, 3100","-27.97413, 31.03921",-32.92419,27.42365
 Goodwins Clinic,+27 31 503 2230,"942 Sidiya Road, KwaMashu, Durban, KwaZulu-Natal, 4359","-29.73612, 30.99389",-32.92419,27.42365
 Gozololo Centre for Needy Children,+27 31 503 1032,"Stand G120, Nokhenke Road, KwaMashu, Durban, KwaZulu-Natal, 4359","-29.74457, 30.98448",-32.92419,27.42365
 Gqayinyaga Clinic,+27 39 684 7022,"Near to Mtumaseli High School, Hibberdene, KwaZulu-Natal, 4220","-30.56695, 30.46637",-32.92419,27.42365
 Grange Clinic,+27 33 346 0215,"45 White Road, Grange, Pietermaritzburg, KwaZulu-Natal, 3201","-29.64405, 30.37307",-32.92419,27.42365
 Greenfields Place of Safety,+27 33 501 1620,"90 Tibouchina Drive, Dalton, Greytown, KwaZulu-Natal, 3236","-29.34212, 30.63006",-32.92419,27.42365
 Greenock Clinic,+27 34 366 5599,"Near to the School, Osizweni, KwaZulu-Natal, 2952","-27.78828, 30.13958",-32.92419,27.42365
 Grey's Hospital,+27 33 897 3000,"Town Bush Road, Azalea, Pietermaritzburg, KwaZulu-Natal, 3200","-29.57961, 30.36378",-32.92419,27.42365
 Greytown Clinic,+27 33 413 9120,"100 Pine Street, Greytown, KwaZulu-Natal, 3250","-29.06648, 30.57961",-32.92419,27.42365
 Greytown Hospital,+27 33 413 9400,"Bell Street, Greytown, KwaZulu-Natal, 3250","-29.06152, 30.59430",-32.92419,27.42365
 Grove End Clinic,+27 31 502 3582,"68 Elfgrove Way, Stanmore, Phoenix, KwaZulu-Natal, 4068","-29.69746, 31.02350",-32.92419,27.42365
 Gugwini Clinic,+27 39 260 5100,"Near to Gugwini Junior Secondary School, Gugwini Location, uMzimkhulu, KwaZulu-Natal, 3297","-30.50299, 29.87327",-32.92419,27.42365
 Gunjane Clinic,+27 34 642 1650,"Next to Scelinfunu Primary School, Emzweni Location, Tugela Ferry, KwaZulu-Natal, 3010","-28.74734, 30.44535",-32.92419,27.42365
 Gunjaneni Clinic,+27 35 550 7912,"Next to Xulu Store, Hlabisa, KwaZulu-Natal, 3937","-28.24489, 32.08803",-32.92419,27.42365
 Gwaliweni Clinic,+27 35 591 8003,"Next to the Tribal Authority Court, Ingwavuma, KwaZulu-Natal, 3968","-27.30716, 31.97787",-32.92419,27.42365
 Halambu Clinic,+27 35 476 1001,"Near to Halambu Primary School, Halambu Area, Nkandla Village, Nkandla, KwaZulu-Natal, 3855","-28.77339, 31.10468",-32.92419,27.42365
 Halleystott Clinic,+27 31 716 6840,"Next to Mpilsweni Primary School, Nyuswa Reserve, Bothas Hill, Hillcrest, KwaZulu-Natal, 3610","-29.75432, 30.74331",-32.92419,27.42365
 Halleystott Mobile 1 Clinic,+27 31 716 6886,"Next to Mpilsweni Primary School, Nyuswa Reserve, Bothas Hill, Hillcrest, KwaZulu-Natal, 3610","-29.75432, 30.74331",-32.92419,27.42365
 Happy Hour Day-Care Centre - Phoenix,+27 31 502 6471,"39 Clayfield Drive, Phoenix, KwaZulu-Natal, 4068","-29.71746, 31.02261",-32.92419,27.42365
 Happy Hours - Amoati,+27 31 518 5126,"Brookes Farm, Amaoti, Inanda, KwaZulu-Natal, 4310","-29.70279, 31.00484",-32.92419,27.42365
 Happy Hours - Durban North,+27 31 563 7813,"Next to Pick 'n Pay Hypermarket, 29 Uitsig Road, Prospect Hall, Durban North, 4051","-29.79915, 31.03677",-32.92419,27.42365
 Harding Christian Centre International,+27 78 915 6513,"422 Shepstone Road, Harding, KwaZulu-Natal, 4680","-30.01528, 30.91548",-32.92419,27.42365
 Harding Youth Society,+27 73 901 5706,"Harding Sports Field, Harding, KwaZulu-Natal, 4680","-30.57262, 29.88012",-32.92419,27.42365
 Hartland Clinic,+27 34 996 8105,"eBhadeni Location, Paulpietersburg, KwaZulu-Natal, 3180","-27.41667, 30.81667",-32.92419,27.42365
 Highway Hospice Association,+27 31 208 6110,"59 Locksley Drive, Sherwood, Durban, KwaZulu-Natal, 4091","-29.83199, 30.97116",-32.92419,27.42365
 Hillcrest Hospital,+27 31 765 1316,"50 Hospital Road, Hillcrest, Pinetown, KwaZulu-Natal, 3610","-29.78974, 30.76121",-32.92419,27.42365
 HIV and AIDS Non-Clinical Programme,+27 39 688 3000,"Ugu District Health, 41 Bisset Street, Port Shepstone, KwaZulu-Natal, 4240","-30.74034, 30.45469",-32.92419,27.42365
 Hlabane Clinic,+27 83 387 6294,"2 Lood Street, Empangeni, KwaZulu-Natal, 3800","-28.77502, 31.89755",-32.92419,27.42365
 Hlabisa Gateway Clinic,+27 35 838 1003,"Hlabisa Hospital, 6 Saunder Street, Hlabisa, KwaZulu-Natal, 3937","-28.14357, 31.87893",-32.92419,27.42365
 Hlabisa Hospital,+27 35 838 1003,"6 Saunder Street, Hlabisa Mission, Hlabisa, KwaZulu-Natal, 3937","-28.14555, 31.88070",-32.92419,27.42365
 Hlabisa Mobile 2 Clinic,+27 35 838 1003,"Hlabisa Hospital, 6 Saunder Street, Hlabisa, KwaZulu-Natal, 3937","-28.90299, 31.45650",-32.92419,27.42365
 Hlabisa Mobile 3 Clinic,+27 35 838 1003,"Hlabisa Hospital, 6 Saunder Street, Hlabisa, KwaZulu-Natal, 3937","-28.90299, 31.45650",-32.92419,27.42365
 Hlabisa Mobile 4 Clinic,+27 35 838 1003,"Hlabisa Hospital, 6 Saunder Street, Hlabisa, KwaZulu-Natal, 3937","-28.90299, 31.45650",-32.92419,27.42365
 Hlanga Benza Home-Based Care,+27 73 250 6309,"Near to Umnini Old Clinic, Amagcino Area, Umnini Tribal Authority, Umgababa, Amanzimtoti, KwaZulu-Natal, 4126","-30.04584, 30.88023",-32.92419,27.42365
 Hlengimpilo Clinic,+27 35 831 5096,"Hlengimpilo Location, Nongoma, KwaZulu-Natal, 3950","-28.11180, 31.67229",-32.92419,27.42365
 Hlengisizwe Community Health Centre,+27 31 774 0084,"Sibisi Road, Mpumalanga, Hammarsdale, KwaZulu-Natal, 3699","-29.82285, 30.65475",-32.92419,27.42365
 Hlobane Clinic,+27 34 967 1319,"Hlobane, Vryheid, KwaZulu-Natal, 3145","-27.72022, 31.00125",-32.92419,27.42365
 Hlokozi Clinic,+27 39 835 0345,"Next to Sibakhulu High School, Jolivet, Highflats, KwaZulu-Natal, 3305","-30.36116, 30.29353",-32.92419,27.42365
 Hlomendlini Clinic - KwaZulu-Natal,+27 32 454 7074,"Next to Ark Primary School, Hlomendlini, Tugela, KwaZulu-Natal, 4490","-26.51398, 27.87451",-32.92419,27.42365
 Hope HIV and AIDS 7,+27 31 400 1067,"22 Imperial Road, Havenside, Chatsworth, KwaZulu-Natal, 4092","-29.92075, 30.92474",-32.92419,27.42365
 Hope Trust,+27 33 343 5413,"4 Azalea Drive, Hilton, KwaZulu-Natal, 3245","-29.55599, 30.30296",-32.92419,27.42365
 House of Hope Community Centre,+27 82 470 0196,"12 John Ross Drive, Mariannheights, Pinetown, KwaZulu-Natal, 3610","-29.86337, 30.82685",-32.92419,27.42365
 House of Life Community Project,+27 74 666 8304,"45 Pickering Street, Durban, KwaZulu-Natal, 4001","-29.85960, 31.03516",-32.92419,27.42365
 House of Salvation,+27 83 769 0065,"Stand G142, Umbonambi Road, KwaMashu, Durban, KwaZulu-Natal, 4359","-29.74336, 30.98578",-32.92419,27.42365
 Howick Clinic,+27 33 330 6124,"24 Morling Street, Howick, KwaZulu-Natal, 3290","-29.48701, 30.23161",-32.92419,27.42365
 Howick Hospice,+27 33 330 5257,"7 Mansfield Road, Howick, KwaZulu-Natal, 3290","-29.48033, 30.21647",-32.92419,27.42365
 Idlebe Clinic,+27 34 984 7001,"Next to Idlebe Primary School, Mahlabathini, Ulundi, KwaZulu-Natal, 3655","-28.30076, 31.42906",-32.92419,27.42365
 Ihlabathi Care Centre,+27 83 484 2049,"Next to Emseni Primary School, Emakhaya Reserve, Gingindlovu, KwaZulu-Natal, 3800","-29.02669, 31.58380",-32.92419,27.42365
 Ikhayalethemba Community Care Centre,+27 35 773 0717,"Next to Nzalabantu Primary School, Mzingazi, Richards Bay, KwaZulu-Natal, 3900","-28.75148, 32.07655",-32.92419,27.42365
 Ikhayalethu Child and Youth Care Centre,+27 35 798 2193,"6 Gibbum Grove, Brackenham, Richards Bay, KwaZulu-Natal, 3900","-28.71714, 32.04211",-32.92419,27.42365
 Ikhenani MT Zion Church and Research Centre,+27 83 717 2793,"Stand 2511, Indlovu Village, Mtubatuba, KwaZulu-Natal, 3935","-28.41911, 32.18669",-32.92419,27.42365
 Illovu Clinic,+27 31 322 9016,"R603, Estone Road, Illovu, KwaZulu-Natal, 4126","-30.06236, 30.82676",-32.92419,27.42365
 Illovu Family Church,+27 83 728 4869,"A2021 Illovo Township, Winklespruit, Amanzimtoti, KwaZulu-Natal, 4126","-30.09395, 30.85530",-32.92419,27.42365
 Inanda C Community Health Care Centre,+27 31 519 0455,"C135 Mabaso Road, Inanda, Durban, KwaZulu-Natal, 4309","-29.71164, 30.97270",-32.92419,27.42365
 Inanda Seminary Clinic,+27 31 510 1900,"Plot 699, Inanda Glebe, Inanda, KwaZulu-Natal, 4309","-29.70824, 30.92326",-32.92419,27.42365
 Ingwavuma Mobile A Clinic,+27 35 591 0122,"Ingwavuma Main Road, Ingwavuma, KwaZulu-Natal, 3968","-29.98543, 30.76015",-32.92419,27.42365
 Ingwavuma Mobile B Clinic,+27 35 591 0122,"Ingwavuma Main Road, Ingwavuma, KwaZulu-Natal, 3968","-29.98543, 30.76015",-32.92419,27.42365
 Ingwavuma Mobile C Clinic,+27 35 591 0122,"Ingwavuma Main Road, Ingwavuma, KwaZulu-Natal, 3968","-29.98543, 30.76015",-32.92419,27.42365
 Inhlwathi Clinic,+27 82 656 4917,"Next to Mlambozana Lower Primary School, Nhlwathi, Hlabisa, KwaZulu-Natal, 3937","-28.01706, 31.97459",-32.92419,27.42365
 Injabula Clinic,+27 31 782 8078,"Near to Phangindawo School, Nagle Dam Road, Cato Ridge, Hammarsdale, KwaZulu-Natal, 3680","-29.60278, 30.63203",-32.92419,27.42365
 Injisuthi Clinic,+27 36 431 8133,"Near to Bata Shoe Factory, Loskop Road, Loskop, Estcourt, KwaZulu-Natal, 3330","-28.93030, 29.61454",-32.92419,27.42365
 Inkosi Albert Luthuli Hospital,+27 31 240 1000,"800 Vusi Mzimela Road, Mayville, Durban, KwaZulu-Natal, 4091","-29.87294, 30.96167",-32.92419,27.42365
 Inkwali Clinic,+27 31 916 6198,"Inkwali Location, Illovo, Amanzimtoti, KwaZulu-Natal, 4126","-30.11150, 30.84930",-32.92419,27.42365
 Inqubeko Projects,+27 31 902 1829,"16 Nwabi Road, Isipingo, KwaZulu-Natal, 4110","-29.97947, 30.92804",-32.92419,27.42365
 Isibani Community Centre - Winterton,+27 36 488 1547,"Next to NG Kerk, 1 Mayors Walk, Winterton, KwaZulu-Natal, 3340","-28.81216, 29.54375",-32.92419,27.42365
 Isiboniso Clinic,+27 35 796 9008,"Near to Mpembeni Primary School, Empangeni, KwaZulu-Natal, 3880","-28.82685, 32.01516",-32.92419,27.42365
 Isikhondlakhondla Community Development Organisation,+27 72 850 7046,"Mpukunyoni Traditional Authority, Tholokuhle Area, Mtubatuba, KwaZulu-Natal, 3935","-28.41911, 32.18669",-32.92419,27.42365
" Isiphephelo Sejuba HIV, AIDS and Orphan Support Project",+27 83 756 3632,"Next to Ogazini Primary School, Ubombo Main Street, Ubombo, KwaZulu-Natal, 3970","-29.91122, 30.87835",-32.92419,27.42365
 Isipingo Clinic,+27 31 902 1328,"3 Orient Drive, Isipingo, KwaZulu-Natal, 4133","-29.99601, 30.92049",-32.92419,27.42365
 Isipingo Hospital,+27 31 913 7058,"162 Old Main Road, Isipingo, KwaZulu-Natal, 4133","-29.98638, 30.92673",-32.92419,27.42365
 Isiqalo Community Project,+27 78 989 3364,"Ward 2, Amandawe, Gqayinyanga, Scottburgh, KwaZulu-Natal, 4180","-30.29825, 30.74858",-32.92419,27.42365
 Isithebe Clinic,+27 32 459 6500,"Nyoni Road, Mandeni, KwaZulu-Natal, 4490","-29.07884, 31.40994",-32.92419,27.42365
 Isithebe Medical Centre,+27 32 459 1748,"Near to Lindayiphi School, Nyoni Road, Mandeni, KwaZulu-Natal, 4490","-30.17206, 30.75764",-32.92419,27.42365
 Isiza Health Care Centre,+27 31 909 7009,"BB68, 54 Nomgalaza Road, Umlazi, KwaZulu-Natal, 4066","-29.97967, 30.86286",-32.92419,27.42365
 Islamic Centre,+27 31 823 7867,"40 Dr AB Xuma Street, Durban, KwaZulu-Natal, 4001","-29.85645, 31.02616",-32.92419,27.42365
 Isolomusa Home-Based Care Organisation,+27 83 714 9353,"H3143 Mabonambi Walk, Ntuzuma, KwaMashu, KwaZulu-Natal, 4359","-29.72535, 30.96538",-32.92419,27.42365
 Ithemba Lethu - I have a Destiny,+27 31 261 7723,"26 Archer Crescent, Manor Gardens, Durban, KwaZulu-Natal, 4001","-29.86237, 30.97911",-32.92419,27.42365
 Itsheleljuba Hospital,+27 34 413 2542,"N2 North, Kwa Mpopoli, Pongola, KwaZulu-Natal, 3170","-27.38098, 31.63119",-32.92419,27.42365
 Itulo Vulnerable and Victims Organisation,+27 84 612 9277,"Stand K308, Nkonjane Road, KwaMashu, Durban, KwaZulu-Natal, 4359","-29.66043, 30.35398",-32.92419,27.42365
 Ixopo Clinic,+27 39 834 1415,"19 Main Road, Ixopo, KwaZulu-Natal, 3276","-30.14758, 30.06725",-32.92419,27.42365
 Ixopo Mobile 1 Clinic,+27 39 834 1415,"19 Main Road, Ixopo, KwaZulu-Natal, 3276","-30.01924, 30.80924",-32.92419,27.42365
 Izimbali Zesizwe - Flowers of the Nation,+27 79 517 3713,"Unit 1505, RDP Houses, Edendale Extension J, Imbali, Pietermaritzburg, KwaZulu-Natal, 3201","-29.66120, 30.33338",-32.92419,27.42365
 Izimbali ZoThukela,+27 82 394 7210,"Near to Roman Catholic Church, Burford, Ladysmith, KwaZulu-Natal, 3370","-28.54145, 29.81217",-32.92419,27.42365
 Izingolweni Clinic,+27 39 534 1013,"Opposite the Library, Izingolweni, KwaZulu-Natal, 4260","-30.78288, 30.13460",-32.92419,27.42365
 Jona Vaughan Residential Facility,+27 31 903 2112,"119 Bowen Street, Amanzimtoti, KwaZulu-Natal, 4126","-30.03702, 30.89096",-32.92419,27.42365
 Jozini Community Health Centre,+27 35 572 1162,"Near to the Library, Main Street, Jozini, KwaZulu-Natal, 3969","-27.42573, 32.07264",-32.92419,27.42365
 Justice and Women - Melmoth,+27 35 450 3295,"3 Symmonds Street, Melmoth, KwaZulu-Natal, 3835","-28.58705, 31.39878",-32.92419,27.42365
 Kahhemulana Clinic,+27 35 831 9031,"Next to Mbimbini Clinic, Mantungwini, Ceza, KwaZulu-Natal, 3866","-26.51106, 27.86822",-32.92419,27.42365
 Kathleen Voysey Clinic - Berea Methodist Church,+27 31 312 7967,"24 Sonia Road, Umbilo, Durban, KwaZulu-Natal, 4000","-29.85694, 31.00519",-32.92419,27.42365
 Kenilworth Respite Centre,+27 31 207 6483,"89 Kenilworth Road, Overport, Durban, KwaZulu-Natal, 4091","-29.84205, 30.99292",-32.92419,27.42365
 Kenosis Community Trust,+27 33 390 2746,"Gate E15, Ekukhanyeni Road, Bishopstowe, Scottsville, KwaZulu-Natal, 3252","-26.30947, 28.38035",-32.92419,27.42365
 Khambi Clinic,+27 83 387 5886,"Near to Khambi Tribal Authority, Ngezetsheni Reserve, Bhekuzulu, Vryheid, KwaZulu-Natal, 3100","-27.77848, 31.31442",-32.92419,27.42365
 Khan Road Clinic,+27 33 391 4921,"Truro Centre, Khan Road, Pietermaritzburg, KwaZulu-Natal, 3201","-29.54919, 30.40523",-32.92419,27.42365
 Khandisa Clinic,+27 35 793 3642,"176 Mfundo Street, Vulindlela Heights, KwaZulu-Natal, 5143","-28.86003, 31.83252",-32.92419,27.42365
 Khanyiselani Development Trust,+27 39 727 2255,"Old Municipal Building, 295 Nkqubela Road, Bhongweni, Kokstad, KwaZulu-Natal, 4693","-29.65227, 31.01534",-32.92419,27.42365
 Khayalani Children's Village,+27 33 413 1824,"601 Dr Elliot Street, Greytown, KwaZulu-Natal, 3250","-29.07103, 30.59446",-32.92419,27.42365
 Khayelihle Clinic,+27 39 977 9125,"Qololo Location, Hibberdene, KwaZulu-Natal, 4200","-30.45197, 30.53470",-32.92419,27.42365
 Khayelisha Centre,+27 33 493 0078,"Mbhono Road, Sidakeni, Tugela Ferry, KwaZulu-Natal, 3010","-28.74155, 30.46169",-32.92419,27.42365
 Kheth'Impilo - Pietermaritzburg,+27 33 394 7807,"208 Boom Street, Pietermaritzburg, KwaZulu-Natal, 3201","-29.59653, 30.37743",-32.92419,27.42365
 Kheth'Impilo - Stanger,+27 32 552 5176,"Narain Singh Building, 181 Mahatma Gandhi Street, Stanger, KwaZulu-Natal, 4449","-29.33802, 31.29275",-32.92419,27.42365
 King Dinizulu Clinic,+27 35 473 4500,"Next to Community Hall, 911 Ndlela Road, Gezinsila, Eshowe, KwaZulu-Natal, 3815","-27.78369, 30.82014",-32.92419,27.42365
 King Dinuzulu Hospital,+27 31 242 6000,"65 Dr RD Naidu Drive, Sydenham, Durban, KwaZulu-Natal, 4091","-29.82124, 30.98907",-32.92419,27.42365
 King Edward VIII Hospital,+27 31 360 3111,"Corner of Sydney and Rick Turner Roads, Congella, Durban, KwaZulu-Natal, 4001","-29.88151, 30.99047",-32.92419,27.42365
 Kingsburgh Clinic,+27 31 311 5857,"31 Mayors Mews, Winklespruit, Amanzimtoti, KwaZulu-Natal, 4126","-30.09609, 30.85520",-32.92419,27.42365
 Kloof Medical Centre,+27 31 764 0945,"12 Lyngarth Road, Kloof, KwaZulu-Natal, 3610","-29.79427, 30.82164",-32.92419,27.42365
 KwaCare,+27 31 705 1322,"10 Freese Road, New Germany, KwaZulu-Natal, 3617","-29.79608, 30.88813",-32.92419,27.42365
 KwaDabeka Community Health Centre,+27 31 714 3703,"4 Harry Gwala Road, Clernaville, Pinetown, KwaZulu-Natal, 3610","-29.86049, 30.95909",-32.92419,27.42365
 KwaDukuza Clinic,+27 32 551 3707,"5 Theunissen Road, Stanger, KwaZulu-Natal, 4449","-29.34538, 31.28715",-32.92419,27.42365
 KwaMagwaza Hospital,+27 35 450 8200,"4 KwaMagwaza Road, Melmoth, KwaZulu-Natal, 3835","-28.62933, 31.34105",-32.92419,27.42365
 KwaMagwaza NAFCI Clinic,+27 35 450 8024,"KwaMagwaza Road, Melmoth, KwaZulu-Natal, 3835","-29.73651, 30.98332",-32.92419,27.42365
 KwaMakhutha Clinic,+27 31 905 1358,"Plot 1364, Nana Gumede Lane, KwaMakhutha, Amanzimtoti, KwaZulu-Natal, 4126","-30.02487, 30.86533",-32.92419,27.42365
 KwaMame Clinic,+27 35 870 0576,"Near to Nkonjeni Hospital, Mahlabatini, KwaZulu-Natal, 3865","-28.22670, 31.41584",-32.92419,27.42365
 KwaMashu B Clinic,+27 31 504 1480,"Corner of Qhino and Isinaka Roads, KwaMashu B Section, Durban, KwaZulu-Natal, 4359","-29.73533, 30.97821",-32.92419,27.42365
 KwaMashu Community Health Centre,+27 31 503 1236,"67 Mkhiwane Road, KwaMashu, KwaZulu-Natal, 4360","-29.74670, 30.96723",-32.92419,27.42365
 KwaMashu Poly Community Health Centre,+27 31 503 1236,"P67 Mkhiwane Road, KwaMashu, KwaZulu-Natal, 4359","-29.74553, 30.97376",-32.92419,27.42365
 Kwambiza Clinic,+27 35 879 9011,"Next to Dumanikahle High School, Empangeni, KwaZulu-Natal, 3880","-28.55324, 31.64372",-32.92419,27.42365
 KwaMbonambi Clinic (Sappi Clinic),+27 35 580 1730,"KwaMbonambi Road, Empangeni, KwaZulu-Natal, 3880","-28.59456, 32.09045",-32.92419,27.42365
 KwaMbuzi Clinic,+27 35 591 0216,"Near to Mosvold Hospital, KwaMbuzi Location, Ingwavuma, KwaZulu-Natal, 3968","-27.18156, 32.19022",-32.92419,27.42365
 KwaMfolozi Clinic,+27 35 773 0455,"Close to RBM Crossroads, KwaMfolozi, KwaZulu-Natal, 3915","-26.51106, 27.86822",-32.92419,27.42365
 KwaMsane Clinic,+27 35 551 1038,"Next to KwaMsane Police Station, Nala Street, KwaMsane, Mtubatuba, KwaZulu-Natal, 3940","-28.42785, 32.14819",-32.92419,27.42365
 KwaNdaba Clinic,+27 35 591 0339,"Near to the Malaria Camp, Khemelele Location, Kwangwanase, KwaZulu-Natal, 3973","-27.02172, 32.30583",-32.92419,27.42365
 KwaNdengezi Clinic,+27 31 704 6269,"6023 Maviyo Road, Kwandengezi, Pinetown, KwaZulu-Natal, 3607","-29.85096, 30.76826",-32.92419,27.42365
 KwaNele Home-Based Care,+27 72 963 7894,"Next to Masotsheni Primary School, Masotsheni Area, Nquthu, KwaZulu-Natal, 3135","-26.51398, 27.87451",-32.92419,27.42365
 Kwangwanase Mobile A Clinic,+27 35 592 0150,"Manguzi Main Road, Kwangwanase, KwaZulu-Natal, 3973","-29.51222, 31.22914",-32.92419,27.42365
 Kwangwanase Mobile B Clinic,+27 35 592 0150,"Manguzi Main Road, Kwangwanase, KwaZulu-Natal, 3973","-29.51222, 31.22914",-32.92419,27.42365
 Kwangwanase Mobile C Clinic,+27 35 592 0150,"Manguzi Main Road, Kwangwanase, KwaZulu-Natal, 3973","-29.51222, 31.22914",-32.92419,27.42365
 KwaPata Clinic,+27 33 323 8157,"Next to Pata High School, Pata Main Road, Plessislaer, Pietermaritzburg, KwaZulu-Natal, 3201","-29.66195, 30.32601",-32.92419,27.42365
 Kwaphumphele Organisation,+27 72 877 8079,"Stand 1726, Kubheka, Verdriet, Dannhauser, KwaZulu-Natal, 3080","-26.41282, 27.90024",-32.92419,27.42365
 KwaSenge Clinic,+27 35 773 0455,"Next to Emakhabeleni Primary School, Emakhabeleni Village, Greytown, KwaZulu-Natal, 3438","-28.84733, 30.85283",-32.92419,27.42365
 KwaXimba Happy Hours,+27 31 207 2707,"Near to Msunduzi Clinic, Portion 12, KwaXimba, Cato Ridge, KwaZulu-Natal, 3680",,-32.92419,27.42365
 KwaYanguye Clinic,+27 35 450 0972,"Near to Nqaba Primary School, Kwayanguye Reserve, Melmoth, KwaZulu-Natal, 3835","-28.48874, 31.55076",-32.92419,27.42365
 KwaZibi Clinic,+27 35 574 8160,"Near to Langelihle High School, KwaZibi, Jozini, KwaZulu-Natal, 3982","-27.14578, 32.75479",-32.92419,27.42365
 KwaZulu-Natal Deaf Association,+27 31 201 2261,"180 Steve Biko Road, Berea, Durban, KwaZulu-Natal, 4001","-29.48010, 30.21621",-32.92419,27.42365
 KwaZulu-Natal Regional Christian Council,+27 35 474 1058,"Office 1, 114 Osborne Road, Nkanini, Eshowe, KwaZulu-Natal, 3815","-28.89079, 31.47167",-32.92419,27.42365
 KZN Network on Violence Against Women,+27 31 261 3471,"Bencorrum, 181 Prince Street, South Beach, Durban, KwaZulu-Natal, 4001","-29.86121, 31.03987",-32.92419,27.42365
 La Lucia Clinic,+27 31 572 3547,"1 Library Lane, La Lucia, Durban North, KwaZulu-Natal, 4051","-29.75436, 31.06231",-32.92419,27.42365
 Ladam Clinic,+27 72 294 9453,"Near to Ladam High School, Ndzelu Location, uMzimkhulu, KwaZulu-Natal, 3297","-26.51106, 27.86822",-32.92419,27.42365
 Ladybank Clinic,+27 34 366 9401,"Stand 240207, Thwala Stand, Dannhauser, KwaZulu-Natal, 2940","-27.96416, 30.21540",-32.92419,27.42365
 Ladysmith Hospital,+27 36 637 2111,"36 Malcolm Road, Ladysmith, KwaZulu-Natal, 3370","-28.55855, 29.76653",-32.92419,27.42365
 Lamontville Clinic,+27 31 469 2367,"Corner of Gwala and Msizi Dube Road, Lamontville, Chatsworth, KwaZulu-Natal, 4027","-29.94297, 30.94796",-32.92419,27.42365
 Lancers Road Clinic,+27 31 307 7574,"90 Lancers Road, Warwick Triangle, Durban, KwaZulu-Natal, 4001","-29.85838, 31.00894",-32.92419,27.42365
 Lelithemba Clinic,+27 35 833 5026,"Nkandla Hospital, Umbatha Lane, Nkandla Village, Nkandla, KwaZulu-Natal, 3855","-28.62122, 31.09215",-32.92419,27.42365
 Lethimpilo Community-Based Organisation,+27 33 997 0005,"Near to Songonzima Primary School, Songonzima Area, Elandskop, Pietermaritzburg, KwaZulu-Natal, 3226","-29.60384, 30.37961",-32.92419,27.42365
 Lethithemba Foundation,+27 34 413 3655,"Nctoshane Township, 223 Main Street, Pongola, KwaZulu-Natal, 3170","-28.90108, 31.45762",-32.92419,27.42365
 Lethithemba Youth Organisation,+27 72 691 6531,"B815, Emondlo, Vryheid, KwaZulu-Natal, 3105","-27.97981, 30.71913",-32.92419,27.42365
 LHC Foundation,+27 31 572 6870,"57 Hambridge Road, Somerset Park, Umhlanga, KwaZulu-Natal, 4019","-29.73008, 31.05881",-32.92419,27.42365
 Life Empangeni Garden Clinic,+27 35 902 8000,"Corner of Ukula and Biyela Streets, Empangeni, KwaZulu-Natal, 3880","-28.74123, 31.88869",-32.92419,27.42365
 LifeLine - Zululand,+27 35 789 2472,"14 Bauhinia Bend, Arboretum, Richards Bay, KwaZulu-Natal, 3900","-28.74759, 32.05916",-32.92419,27.42365
 LifeLine and Rape Crisis Centre - Pietermaritzburg,+27 86 132 2322,"14 Princess Street, Pietermaritzburg, KwaZulu-Natal, 3201","-29.60115, 30.37697",-32.92419,27.42365
 LifeLine Centre - Durban,+27 31 717 1024,"38 Adrain Road, Stamford Hill, Durban, KwaZulu-Natal, 4001","-29.82868, 31.02457",-32.92419,27.42365
 LifeLine Centre - Warwick Junction,+27 31 303 1344,"23 Stratford Road, Warwick Junction, Durban, KwaZulu-Natal, 4001","-29.85613, 31.00967",-32.92419,27.42365
 Limehill Clinic,+27 34 261 0595,"Next to Mafusini Primary School, Limehill, Wasbank, KwaZulu-Natal, 2920","-28.43840, 30.24382",-32.92419,27.42365
 Limit Hill Clinic,+27 36 637 4012,"15 Second Street, Limit Hill, Ladysmith, KwaZulu-Natal, 3370","-28.53481, 29.80905",-32.92419,27.42365
 Lindelani Community Health Centre,+27 31 509 1064,"A2047 Dukuza Street, Lindelani, Ntuzuma, Durban, KwaZulu-Natal, 4359","-29.74324, 30.93026",-32.92419,27.42365
 Lomo Clinic,+27 35 879 9014,"Near to Muhakelwa Primary School, Lomo Location, Mahlabatini, KwaZulu-Natal, 3865","-28.21684, 31.63445",-32.92419,27.42365
 Lourdes Clinic,+27 39 260 5000,"Bird Street, uMzimkhulu, KwaZulu-Natal, 3297","-30.20015, 29.68099",-32.92419,27.42365
 Louwsburg Clinic,+27 34 907 5948,"275 Market Street, Louwsburg, Vryheid, KwaZulu-Natal, 3150","-27.57789, 31.29459",-32.92419,27.42365
 Lovu Clinic,+27 31 240 5300,"Stand K29, Umlazi, KwaZulu-Natal, 4066","-29.95835, 30.91631",-32.92419,27.42365
 Lower Umfolozi District War Memorial Hospital,+27 35 907 7000,"29 Union Street, Empangeni, KwaZulu-Natal, 3880","-28.74133, 31.89356",-32.92419,27.42365
 Ludimala Clinic,+27 39 314 9594,"Stand B1091, Lamont Location, Ramsgate, KwaZulu-Natal, 4258","-30.88563, 30.35305",-32.92419,27.42365
 Lulisandla Social Outreach Project,+27 31 775 1069,"D210 Road, Ntshongweni, Hammarsdale, KwaZulu-Natal, 3690","-29.81524, 30.67152",-32.92419,27.42365
 Luneburg Clinic,+27 34 995 0053,"Next to Luneburg Store, Paul Pietersburg, KwaZulu-Natal, 3180","-27.32985, 30.63093",-32.92419,27.42365
 Luwamba Clinic,+27 35 792 8246,"Near to Heatonville Store, Empangeni, KwaZulu-Natal, 3880","-28.62923, 31.69477",-32.92419,27.42365
 Lwazi Clinic,+27 31 327 2339,"Addington Hospital, Erskine Terrace, South Beach, Durban, KwaZulu-Natal, 4001","-29.86225, 31.04123",-32.92419,27.42365
 Mabedlana Clinic,+27 35 879 9007,"Mabedlana, Ulundi, KwaZulu-Natal, 3838","-28.29981, 31.38390",-32.92419,27.42365
 Mabheleni Clinic,+27 39 699 9082,"Sipofu Road, Mabheleni, Hibberdene, KwaZulu-Natal, 4220","-30.44209, 30.32103",-32.92419,27.42365
 Mabhuqweni Clinic,+27 35 833 8006,"Next to Ntanyeni Primary School, Mabhuqweni Location, Kranskop, Greytown, KwaZulu-Natal, 3268","-28.51014, 30.83555",-32.92419,27.42365
 Mabibi Clinic,+27 35 592 8088,"Mabibi, Sibhayi, Mkuze, KwaZulu-Natal, 3967","-27.32839, 32.73092",-32.92419,27.42365
 Macabuzela Clinic,+27 35 562 0529,"Macabuzela Reserve, Hlabisa, KwaZulu-Natal, 3937","-28.02811, 32.15997",-32.92419,27.42365
 Madadeni Clinic 1,+27 34 329 2122,"Stand 1045A, Madadeni Section 1, Madadeni, KwaZulu-Natal, 2951","-27.75218, 30.02397",-32.92419,27.42365
 Madadeni Clinic 5,+27 34 329 2123,"Near to the Old Age Home and Ntobeko School, Madadeni, KwaZulu-Natal, 2951","-27.75173, 30.04650",-32.92419,27.42365
 Madadeni Gateway Clinic,+27 34 328 8134,"Section 6, Foo 01, Mandini, KwaZulu-Natal, 2951","-27.76360, 30.05080",-32.92419,27.42365
 Madadeni Hospital,+27 34 328 8001,"Corner of Madadeni 3 and Madadeni 7 Roads, Madadeni Section 5, Madadeni, KwaZulu-Natal, 2951","-27.76440, 30.05086",-32.92419,27.42365
 Madlala Clinic,+27 39 695 9003,"Next to Mbusomusha Primary School, Port Shepstone, KwaZulu-Natal, 4240","-30.63114, 30.42725",-32.92419,27.42365
 Madonela Clinic,+27 35 572 1090,"Near to D1834 Road, Madonela, Sibhayi, Mkuze, KwaZulu-Natal, 3967","-27.61784, 32.03402",-32.92419,27.42365
 Madwaleni Clinic,+27 35 550 9228,"Madwaleni, Mtubatuba, KwaZulu-Natal, 3935","-28.26372, 32.22208",-32.92419,27.42365
 Magagadolo Clinic,+27 35 832 9000,"Next to Sawoti Primary School, Ceza, Ulundi, KwaZulu-Natal, 3866","-28.30076, 31.42906",-32.92419,27.42365
 Maguzu Clinic,+27 33 390 9031,"Main Road, Plessislaer, Pietermaritzburg, KwaZulu-Natal, 3201","-29.58151, 30.56462",-32.92419,27.42365
 Mahashini Clinic,+27 35 831 6150,"Next to King Goodwill Zwelithini's Office, Mahashini, Nongoma, KwaZulu-Natal, 3950","-27.89346, 31.64697",-32.92419,27.42365
 Mahatma Gandhi Memorial Hospital,+27 31 502 1719,"100 Phoenix Highway, Phoenix, Durban, KwaZulu-Natal, 4068","-29.71775, 31.02888",-32.92419,27.42365
 Majeki Missions,+27 79 019 5771,"Road D247, Marburg, KwaZulu-Natal, 4240","-30.73712, 30.41635",-32.92419,27.42365
 Makhathini Clinic,+27 35 572 5590,"Next to Gugulesizwe High School, Makhathini, Cezwane, Mkuze, KwaZulu-Natal, 3969","-27.44383, 32.16026",-32.92419,27.42365
 Makhosini Clinic,+27 35 450 0914,"Mahlabatini, KwaZulu-Natal, 3865","-28.37904, 31.27149",-32.92419,27.42365
 Makhowe Clinic,+27 35 562 7006,"Next to the Post Office, Jozini Main Road, Jozini, KwaZulu-Natal, 3969","-27.42611, 32.05667",-32.92419,27.42365
 Makhwela Clinic,+27 34 907 5289,"Bhekuzulu, Vryheid, KwaZulu-Natal, 3100","-27.78143, 30.82405",-32.92419,27.42365
 Malunga Clinic,+27 35 833 8005,"Next to Mashinga Secondary School, Malunga Area, Nkandla, KwaZulu-Natal, 3855","-28.53697, 30.90192",-32.92419,27.42365
 Manaba Clinic,+27 35 574 8161,"Mseleni Hospital, Mseleni, Mbazwana, KwaZulu-Natal, 3952","-27.28726, 32.43432",-32.92419,27.42365
 Mandaba Clinic,+27 35 833 8007,"Next to Sibhakabhaka High School, Mandaba Reserve, Nkandla, KwaZulu-Natal, 3855","-28.68024, 31.21569",-32.92419,27.42365
 Mandeni Municipality,+27 32 456 8200,"2 Kingfisher Road, Mandeni, Stanger, KwaZulu-Natal, 4490","-30.72573, 30.44434",-32.92419,27.42365
 Mandlazini Clinic,+27 35 786 0929,"Near to Richards Bay Airport, Richards Bay, KwaZulu-Natal, 3900","-28.75148, 32.07655",-32.92419,27.42365
 Mangeni Clinic,+27 34 271 8114,"Next to the Police Station, Mangeni, Nquthu, KwaZulu-Natal, 3135","-26.51106, 27.86822",-32.92419,27.42365
 Manguzi Hospital,+27 35 592 0150,"Near to Manguzi Main Road, Ithala Centre, Manguzi, Kwangwanase, KwaZulu-Natal, 3973","-26.98403, 32.75637",-32.92419,27.42365
 Manyane Clinic,+27 35 834 6000,"Next to Tugela Bridge, Manyane Village, Nkandla, KwaZulu-Natal, 3855","-28.77522, 30.90356",-32.92419,27.42365
 Maphepheteni Clinic,+27 31 777 7707,"Next to the Courthouse, Maphepheteni Location, Inanda, KwaZulu-Natal, 4310","-29.64530, 30.79216",-32.92419,27.42365
 Maphophoma Clinic,+27 35 831 9014,"Maphophoma Primary School, Main Road, Nongoma, KwaZulu-Natal, 3950","-28.03767, 31.68025",-32.92419,27.42365
 Maputa Clinic,+27 74 402 6819,"Near to Tukuzeni Reserve, Kwangwanase, KwaZulu-Natal, 3973","-26.99444, 32.75556",-32.92419,27.42365
 Marburg Clinic,+27 39 688 2182,"Protea Road, Port Shepstone, KwaZulu-Natal, 4240","-30.74114, 30.44319",-32.92419,27.42365
 Margate Clinic,+27 39 312 0713,"465 Erasmus Road, Margate, KwaZulu-Natal, 4275","-30.86546, 30.36732",-32.92419,27.42365
 Mariannridge Clinic,+27 31 703 1625,"8 Leo Place, Mariannridge, Pinetown, KwaZulu-Natal, 3610","-29.86280, 30.82116",-32.92419,27.42365
 Marie Stopes Clinic South Africa - Durban,+27 80 011 7785,"36 Botanic Gardens Road, Musgrave, Durban, KwaZulu-Natal, 4001","-29.85026, 31.00399",-32.92419,27.42365
 Marie Stopes Clinic South Africa - Isipingo,+27 80 011 7785,"Mahomed Medical Centre, 8 Pardy Road, Isipingo, KwaZulu-Natal, 4133","-29.98343, 30.92404",-32.92419,27.42365
 Masakhane Community Care,+27 79 429 0638,"Near to the Taxi Rank, before Entabeni Clinic, P69 Bhambula, Kwanzimakwe, Munster, KwaZulu-Natal, 4278","-26.41282, 27.90024",-32.92419,27.42365
 Masibambane Community Development,+27 72 088 2387,"Edubeni Reserve, Melmoth, KwaZulu-Natal, 3835","-28.58428, 31.39522",-32.92419,27.42365
 Masibambisane Community Project,+27 78 285 7133,"Pangweni Mission, Draycott, Estcourt, KwaZulu-Natal, 3312","-29.00386, 29.87712",-32.92419,27.42365
 Masibambisane Lamontville Disability Peoples Organisation,+27 73 255 7777,"1 Gwala Street, Lamontville, KwaZulu-Natal, 4027","-29.94335, 30.94955",-32.92419,27.42365
 Masibumbane HIV and AIDS Mission,+27 33 238 1763,"2089 Nsindane Street, Mpophomeni, Merrivale, KwaZulu-Natal, 3290","-29.56897, 30.19002",-32.92419,27.42365
 Masibumbane Nursery and Pre-Primary School,+27 31 905 1008,"3150 Bongani Zama Road, Amanzimtoti, KwaZulu-Natal, 4126","-30.02424, 30.86487",-32.92419,27.42365
 Maskey Health Services,+27 31 906 2343,"Near to the R Section Shop, Vusi Mtshali Road, Umlazi, KwaZulu-Natal, 4066","-29.96743, 30.88291",-32.92419,27.42365
 Mason Clinic,+27 34 982 1972,"Corner of Church and Mason Streets, Vryheid, KwaZulu-Natal, 3100","-27.76942, 30.78852",-32.92419,27.42365
 Mathungela Clinic,+27 35 476 1008,"2 Lood Street, Empangeni, KwaZulu-Natal, 3800","-28.77566, 31.89897",-32.92419,27.42365
 Matikwe Clinic,+27 31 518 2067,"84 Inanda Road, Amatikwe, Inanda, KwaZulu-Natal, 4310","-29.70897, 30.95744",-32.92419,27.42365
 Mawele Clinic,+27 34 662 7008,"Next to Mawele High School, Msinga Area, Tugela Ferry, KwaZulu-Natal, 3010","-28.69442, 30.55625",-32.92419,27.42365
 Maxwell Clinic,+27 34 662 7008,"Maxwell Centre, Ismail C Meer Street, Durban, KwaZulu-Natal, 4001","-29.85138, 31.01534",-32.92419,27.42365
 Mayibuye Life Organisation,+27 35 838 1866,"Next to Mmiso High School, Matshamyama Area, Hlabisa, KwaZulu-Natal, 3937","-28.14532, 31.87633",-32.92419,27.42365
 Mayizekane Clinic,+27 33 503 0155,"Next to Mayizekanye High School, D599, Wartburg, KwaZulu-Natal, 3233","-29.53120, 30.62518",-32.92419,27.42365
 Mbadleni Clinic,+27 35 591 0249,"Next to Mbadleni Primary School, Mbadleni, Ingwavuma, KwaZulu-Natal, 3968","-26.96269, 32.13522",-32.92419,27.42365
 Mbhekaphansi Clinic,+27 32 481 7776,"Next to Umxhosa Bus Stop, Ndukende Location, Maphumulo, Stanger, KwaZulu-Natal, 4470","-29.34024, 31.29309",-32.92419,27.42365
 Mbongolwane Hospital,+27 35 476 6242,"Mbongolwane Reserve, Kwa-Pett, Eshowe, KwaZulu-Natal, 3820","-28.93543, 31.19541",-32.92419,27.42365
 Mbongolwane Mobile 1 Clinic,+27 35 476 6242,"Mbongolwane Hospital, Mbongolwane Reserve, Kwa-Pett, Eshowe, KwaZulu-Natal, 3820","-26.30947, 28.38035",-32.92419,27.42365
 Mbongolwane Mobile 2 Clinic,+27 35 476 6242,"Mbongolwane Hospital, Mbongolwane Reserve, Kwa-Pett, Eshowe, KwaZulu-Natal, 3820","-26.30947, 28.38035",-32.92419,27.42365
 Mbotho Clinic,+27 39 433 9969,"KwaMbotho Area, Harding, KwaZulu-Natal, 4680","-30.58122, 29.90682",-32.92419,27.42365
 Mboza Clinic,+27 35 591 8013,"Next to Mboza Primary School, Mboza, Kwangwanase, KwaZulu-Natal, 3973","-27.18032, 32.26986",-32.92419,27.42365
 MCC Mariann Co-ordinating Committee - Mariannridge,+27 31 703 2009,"Situated within the Community Centre, 1-7 John Rose Drive, Mariannridge, Pinetown, KwaZulu-Natal, 3610","-29.86354, 30.82708",-32.92419,27.42365
 Mdoniville Clinic,+27 32 437 3600,"Situated within Stanger Primary Health Care, 15 Gizenga Street, Stanger, KwaZulu-Natal, 4449","-29.33878, 31.28904",-32.92419,27.42365
 Mduku Clinic,+27 35 562 0048,"Next to the Deaf Centre, Makhasa Tribal Area, Hluhluwe, KwaZulu-Natal, 3960","-27.82810, 32.38807",-32.92419,27.42365
 Mdumezulu Clinic,+27 35 870 1025,"Near to the Police Station, Mdumezulu Rural Area, Mahlabatini, KwaZulu-Natal, 3865","-28.28497, 31.42811",-32.92419,27.42365
 Meadow Sweet Clinic,+27 39 433 0299,"14 Moodie Street, Harding, KwaZulu-Natal, 4680","-30.63891, 30.03213",-32.92419,27.42365
 Melmoth Mobile Clinic,+27 35 450 8221,"Kwa-Magwaza Hospital, Kwa-Magwaza Road, Melmoth, KwaZulu-Natal, 3835","-28.58926, 31.39795",-32.92419,27.42365
 Merebank Clinic,+27 31 468 4308,"2 Bombay Walk, Merebank, Durban, KwaZulu-Natal, 4052","-29.95314, 30.96956",-32.92419,27.42365
 Mfongosi Clinic,+27 35 834 6001,"Near to Kwangona High School, Kwangono Area, Nkandla, KwaZulu-Natal, 3855","-28.71533, 30.80672",-32.92419,27.42365
 Mfume Clinic,+27 31 976 9203,"Next to Vumandaba High School, Mfume Mission, Amanzimtoti, KwaZulu-Natal, 4126","-30.11986, 30.74404",-32.92419,27.42365
 Mgangeni Clinic,+27 39 971 9142,"Near to Ndukebandla Store, Mgangeni Location, Scottburgh, KwaZulu-Natal, 4180","-30.23672, 30.38170",-32.92419,27.42365
 Mgayi Clinic,+27 39 977 2000,"Next to Mgayi Primary School, Mgayi Location, Scottburgh, KwaZulu-Natal, 4180","-30.38428, 30.47667",-32.92419,27.42365
 Mhlangana Clinic,+27 33 496 1652,"Next to Mhlangana School, Nhlalakahle Reserve, Tugela Ferry, KwaZulu-Natal, 3010","-28.74734, 30.44535",-32.92419,27.42365
 Mhlekazi Clinic,+27 35 595 8110,"Next to, Mhlekazi Trading Centre, Ubombo, Empangeni, KwaZulu-Natal, 3970","-27.70545, 32.14661",-32.92419,27.42365
 Miss Samantha Bhojraj - Social Worker in Private Practice,+27 73 577 4822,"423 Longbury Drive, Longcroft, Phoenix, KwaZulu-Natal, 4068","-29.70797, 31.01373",-32.92419,27.42365
 Mkhontokayise Clinic,+27 35 450 0981,"Opposite Molly's Shop, Port Dunford, KwaZulu-Natal, 3887","-28.91556, 31.82833",-32.92419,27.42365
 Mkhumbane Clinic,+27 31 261 4260,"25 Kalenden Road, Cato Manor, Durban, KwaZulu-Natal, 4091","-29.86187, 30.96845",-32.92419,27.42365
 Mkhuze Clinic,+27 35 573 1082,"Next to the Taxi Rank, Klebe Street, Mkuze, Empangeni, KwaZulu-Natal, 3965","-28.74471, 31.89099",-32.92419,27.42365
 Mnqobokazi Clinic,+27 35 562 8022,"Near to Giba High School, Mnqobokazi Area, Hluhluwe, KwaZulu-Natal, 3960","-27.70590, 32.45598",-32.92419,27.42365
 Mntungwana Clinic,+27 39 835 0322,"Near to the Magistrate's Court, Elandskop, Pietermaritzburg, KwaZulu-Natal, 3226","-30.14623, 30.30567",-32.92419,27.42365
 Mnyamana Clinic,+27 39 832 9409,"Near the Magistrates Court, Mnyamana, Bulwer, Howick, KwaZulu-Natal, 3244","-29.81562, 29.93367",-32.92419,27.42365
 Mondlo B Clinic,+27 34 933 1135,"Near to Fisokuhle Primary School and Biyela Street, Stand B1343, Mondlo B, Vryheid, KwaZulu-Natal, 3105","-27.97640, 30.70956",-32.92419,27.42365
 Montebello Gateway Clinic,+27 33 506 7090,"Situated within Montobello Hospital, 614 Noordsburg Road, Dalton, KwaZulu-Natal, 3236","-29.43948, 30.80716",-32.92419,27.42365
 Montebello Hospital,+27 33 506 7000,"Next to Our Lady of the Rosary Secondary School, Montebello Area, Dalton, Greytown, KwaZulu-Natal, 3236","-29.43948, 30.80716",-32.92419,27.42365
 Mooi River Clinic,+27 33 263 1439,"Next to the Post Office, Corner of Church and Claughton Roads, Pietermaritzburg, KwaZulu-Natal, 3201","-29.20739, 29.99611",-32.92419,27.42365
 Morrisons Post Clinic,+27 39 684 9210,"Near to Morrison Store, Kwandelu Location, Umzumbe, KwaZulu-Natal, 4225","-30.62506, 30.54201",-32.92419,27.42365
 Mosvold Hospital,+27 35 591 0122,"Ingwavuma Main Road, Ingwavuma, KwaZulu-Natal, 3968","-27.13837, 32.00475",-32.92419,27.42365
 Mount Royal Community Health Care Centre,+27 78 288 4387,"72 Laguma Place, Mount Royal Road, Phoenix, Durban, KwaZulu-Natal, 4068","-29.73753, 31.01227",-32.92419,27.42365
 Mountain View Hospital,+27 34 982 6014,"Near to the Police Station, D308 Road, Ngome, Vryheid, KwaZulu-Natal, 3111","-26.30947, 28.38035",-32.92419,27.42365
 Mountain View Mobile Clinic,+27 34 982 6014,"Near to the Police Station, D308 Road, Ngome, Vryheid, KwaZulu-Natal, 3111","-26.30947, 28.38035",-32.92419,27.42365
 Mpandeli Clinic,+27 35 833 0476,"120 Dlanguba Street, Nkandla, KwaZulu-Natal, 3855","-26.41282, 27.90024",-32.92419,27.42365
 Mpembeni Clinic,+27 35 838 8026,"Hlabisa Hospital, 6 Saunder Street, Hlabisa, KwaZulu-Natal, 3937","-28.14450, 31.88060",-32.92419,27.42365
 Mphise Clinic,+27 32 481 7514,"Next to Mphise Community Hall, Mphise Area, Kranskop, Greytown, KwaZulu-Natal, 3268","-29.06645, 30.57543",-32.92419,27.42365
 Mpola Clinic,+27 31 740 1019,"Milky Way, Mariannheights, Pinetown, KwaZulu-Natal, 3610","-29.86614, 30.83043",-32.92419,27.42365
 Mpophomeni Clinic,+27 33 238 0026,"2692 Mtholampilo Road, Mpophomeni, Merrivale, KwaZulu-Natal, 3290","-29.56525, 30.17552",-32.92419,27.42365
 Mpophomeni Gender Programme,+27 33 238 1676,"2691 Nelson Mandela Drive, Mphophomeni, Merrivale, KwaZulu-Natal, 3290","-30.74147, 30.44321",-32.92419,27.42365
 Mpukunyoni Clinic,+27 35 550 9142,"Near to Mpukunyoni Primary School, Enqupheni Location, Mtubatuba, KwaZulu-Natal, 3935","-28.36738, 32.17427",-32.92419,27.42365
 Mpumalanga Clinic,+27 31 772 1527,"Meyiwa Road, Mpumalanga, Hammarsdale, KwaZulu-Natal, 3699","-29.80684, 30.60271",-32.92419,27.42365
 Mpungamhlophe Clinic,+27 35 450 0915,"Near to Kujabulile Primary School, Denny Dalton, Melmoth, KwaZulu-Natal, 3835","-28.26602, 31.25377",-32.92419,27.42365
 Mseleni Hospital,+27 35 574 1004,"Next to Lake Sibhayi, Mseleni, Mbazwana, KwaZulu-Natal, 3974","-27.32566, 32.55664",-32.92419,27.42365
 Mseleni Mobile Clinic A,+27 35 574 1004,"Mseleni Hospital, Mseleni, Mbazwana, KwaZulu-Natal, 3974","-26.51398, 27.87451",-32.92419,27.42365
 Mseleni Mobile Clinic B,+27 35 574 1004,"Mseleni Hospital, Mseleni, Mbazwana, KwaZulu-Natal, 3974","-26.51398, 27.87451",-32.92419,27.42365
 Mseleni Mobile Clinic C,+27 83 293 7629,"Mseleni Hospital, Mseleni, Mbazwana, KwaZulu-Natal, 3974","-26.51398, 27.87451",-32.92419,27.42365
 Mshudu Clinic,+27 72 748 3306,"Next to Mshudu Primary School, Mshudu Location, Kwangwanase, KwaZulu-Natal, 3973","-26.93222, 32.71829",-32.92419,27.42365
 Msunduzi Clinic,+27 33 897 1000,"Magazine Road, Prestbury, Pietermaritzburg, KwaZulu-Natal, 3201","-29.61013, 30.34728",-32.92419,27.42365
 Mthandeni Clinic,+27 32 480 2042,"Next to Koshumi Store, Maphumulo, Stanger, KwaZulu-Natal, 4470","-29.25931, 31.07780",-32.92419,27.42365
 Mthimude Clinic,+27 39 543 0348,"Near to Gabangezwe High School, Nqabeni, Port Shepstone, KwaZulu-Natal, 4682","-30.79745, 30.04152",-32.92419,27.42365
 Mtubatuba Clinic,+27 35 550 0599,"Plot 379, 1 John Ross Highway, Mtubatuba, KwaZulu-Natal, 3935","-28.41123, 32.18528",-32.92419,27.42365
 Murchison Gateway Clinic,+27 39 687 7290,"Main Harding Road, Port Shepstone, KwaZulu-Natal, 4240","-30.72580, 30.34348",-32.92419,27.42365
 Murchison Hospital,+27 39 687 7311,"Harding Road, Port Shepstone, KwaZulu-Natal, 4240","-30.72804, 30.34402",-32.92419,27.42365
 Muslim AIDS Programme - KwaZulu-Natal,+27 31 209 7838,"222 Kenilworth Road, Overport, Durban, KwaZulu-Natal, 4091","-29.83885, 30.98698",-32.92419,27.42365
 Mvelabusha Clinic,+27 35 574 8162,"Manguzi Hospital, Manguzi Main Road, Kwangwanase, KwaZulu-Natal, 3973","-27.15918, 32.71321",-32.92419,27.42365
 Mvutshini Clinic - Gingindlovu,+27 35 337 4183,"Next to Mvutshini School, Gingindlovu, KwaZulu-Natal, 3800","-30.86013, 30.37167",-32.92419,27.42365
 Mvutshini Clinic - Margate,+27 39 314 4387,"Next to Mlonde High School, Mvutshini, Margate, KwaZulu-Natal, 4275","-28.95144, 31.56926",-32.92419,27.42365
 Mzamo Child Guidance Clinic and Training Initiative of KwaZulu-Natal,+27 31 907 2108,"Next to Prince Mshiyeni Memorial Hospital, 2 Mangosuthu Highway, Umlazi, KwaZulu-Natal, 4066","-28.77338, 31.85902",-32.92419,27.42365
 Mzamo Clinic,+27 31 706 3629,"St Wendolins Road, St Wendolins, Pinetown, KwaZulu-Natal, 3609","-29.87237, 30.82986",-32.92419,27.42365
 Naas Farm Clinic,+27 34 366 9166,"Mahlaba Stand, Osizweni, KwaZulu-Natal, 2952","-27.82766, 30.22588",-32.92419,27.42365
 National Association of Child Care Workers - Durban,+27 31 312 9484,"92 Lillian Ngoyi Road, Morningside, Durban, KwaZulu-Natal, 4001","-29.83532, 31.01973",-32.92419,27.42365
 Ncemaneni Clinic,+27 35 879 9017,"Ground Floor, Ministerial Suite, King Dinuzulu Highway, Ulundi, KwaZulu-Natal, 3838","-27.39877, 31.26791",-32.92419,27.42365
 Ncotshane Clinic,+27 34 316 1043,"Stand 164, Ncotshane, KwaZulu-Natal, 3151","-27.34082, 31.57863",-32.92419,27.42365
 Ndabaningi Clinic,+27 35 476 1004,"Next to Ngomankulu Store, Nkandla, KwaZulu-Natal, 3855","-28.62122, 31.09215",-32.92419,27.42365
 Ndelu Clinic,+27 39 699 1130,"Sipofu Road, Hibberdene, KwaZulu-Natal, 4220","-30.49914, 30.43265",-32.92419,27.42365
 Ndlangubo Clinic,+27 78 830 5420,"Near to Ngitshwa High School, Old Eshowe Road, Empangeni, KwaZulu-Natal, 3880","-26.50736, 27.86218",-32.92419,27.42365
 Ndulinde Clinic,+27 32 455 2040,"Next to the Tribal Counsel, Ndulinde, Gingindlovu, KwaZulu-Natal, 3803","-29.04438, 31.43180",-32.92419,27.42365
 Ndumo Clinic,+27 35 591 0150,"Next to Ndumo Spar, Ndumo, Jozini, KwaZulu-Natal, 3996","-26.92510, 32.25149",-32.92419,27.42365
 Ndumo Schools Orphan Project,+27 35 591 0508,"Situated within St Phillip's Roman Catholic Church, P435, Ndumo, KwaZulu-Natal, 3996","-26.93222, 32.24545",-32.92419,27.42365
 Ndundulu Clinic,+27 35 460 9000,"Near to Ndundulu Shop, Melmoth, KwaZulu-Natal, 3835","-28.67941, 31.51066",-32.92419,27.42365
 Ndwebu Clinic,+27 39 835 0259,"Next to Jika Shop, Ndwebu, Highflats, KwaZulu-Natal, 3306","-30.41789, 30.20240",-32.92419,27.42365
 Netcare Alberlito Hospital,+27 32 946 6700,"Kirsty Close, Ballito, Tongaat, KwaZulu-Natal, 4399","-29.53001, 31.20144",-32.92419,27.42365
 Netcare Kokstad Hospital,+27 39 797 8340,"52 Baker Street, Kokstad, KwaZulu-Natal, 4700","-29.89408, 30.91836",-32.92419,27.42365
 Netcare Parklands Hospital,+27 31 242 4138,"75 Hopelands Road, Overport, Durban, KwaZulu-Natal, 4091","-29.83404, 30.99871",-32.92419,27.42365
 Netcare St Augustine's Hospital,+27 31 268 5000,"107 JB Marks Road, Glenwood, Durban, KwaZulu-Natal, 4001","-29.85596, 30.99127",-32.92419,27.42365
 Netcare Umhlanga Hospital,+27 31 560 5500,"323 Umhlanga Rocks Drive, Umhlanga Rocks, KwaZulu-Natal, 4319","-29.72795, 31.06919",-32.92419,27.42365
 Network Action Group - Port Shepstone,+27 87 802 6360,"Office 21, Portston Centre, 44 Aiken Street, Port Shepstone, KwaZulu-Natal, 4240","-30.73778, 30.45182",-32.92419,27.42365
 New Germany Clinic,+27 31 311 6525,"9 Coventry Road, The Wolds, New Germany, KwaZulu-Natal, 3610","-29.79793, 30.87579",-32.92419,27.42365
 New Hope Community Care Centre,+27 76 166 0786,"Next to Ezulwini Bus Store, Main Road to Ngwanase, Jozini, KwaZulu-Natal, 3969","-27.42926, 32.06905",-32.92419,27.42365
 Newcastle Crisis Centre,+27 34 315 3389,"63 Sutherland Street, Newcastle, KwaZulu-Natal, 2940","-27.76878, 29.93974",-32.92419,27.42365
 Newcastle Provincial Hospital,+27 34 328 0000,"4 Hospital Street, Newcastle, KwaZulu-Natal, 2940","-27.76182, 29.93754",-32.92419,27.42365
 Newlands Park Centre,+27 31 578 3992,"1 Homedale Place, Briardale, Marble Ray, KwaZulu-Natal, 4037","-29.76534, 30.96519",-32.92419,27.42365
 Newlands West Clinic,+27 31 578 5756,"164 Loopwest Crescent, Corner of Loopwest Crescent and Newlands West Drive, Newlands West, KwaZulu-Natal, 0437","-29.77944, 30.95428",-32.92419,27.42365
 Newtown A Community Health Centre,+27 31 510 9800,"Corner of Bhekuzulu Road and Nhlwathi Crescent, Inanda, Durban, KwaZulu-Natal, 4309","-29.72161, 30.95753",-32.92419,27.42365
 Ngudwini Clinic,+27 32 456 9011,"Next to Mbongolwane Hospital, Kwa Pett, Eshowe, KwaZulu-Natal, 3820","-29.05460, 31.24977",-32.92419,27.42365
 Ngwelezana Hospital,+27 35 901 7000,"Next to Ngwelezana Police Station, Thanduyise Road, Ngwelezana, Empangeni, KwaZulu-Natal, 3880","-28.77871, 31.86536",-32.92419,27.42365
 Ngwelezane Clinic,+27 35 794 1051,"Tholimpilo Road, Empangeni, KwaZulu-Natal, 3880","-28.77333, 31.86201",-32.92419,27.42365
 Nhlungwana Clinic,+27 35 870 2101,"Next to the Community Centre, Nhlungwana, Mahlabatini, KwaZulu-Natal, 3865","-28.30692, 31.50194",-32.92419,27.42365
 Niemeyer Hospital,+27 34 331 3011,"28 Kantoor Street, Utrecht, KwaZulu-Natal, 2980","-27.66312, 30.31242",-32.92419,27.42365
 Nikithemba Project,+27 78 316 1360,"Next to Nongoma Magistrate's Court, SANCA Premises, Nongoma, KwaZulu-Natal, 3950","-27.89346, 31.64697",-32.92419,27.42365
 Njoko Clinic,+27 31 831 9012,"Main Road, Nongoma, KwaZulu-Natal, 3950","-27.90640, 31.64659",-32.92419,27.42365
 Nkanda Clinic,+27 34 933 9230,"Next to Leneha High School, Nkanda Location, Nquthu, KwaZulu-Natal, 3135","-27.99295, 30.62402",-32.92419,27.42365
 Nkandla Hospital,+27 35 833 5000,"Mbatha Lane, Mpandleni Village, Nkandla, KwaZulu-Natal, 3855","-29.94591, 30.89657",-32.92419,27.42365
 Nkandla Mobile 1 Clinic,+27 35 833 5000,"Corner of Hospital and Mbatha Lanes, Nkandla, KwaZulu-Natal, 3855","-26.22924, 28.01968",-32.92419,27.42365
 Nkandla Mobile 2 Clinic,+27 35 833 5000,"Corner of Hospital and Mbatha Lanes, Nkandla, KwaZulu-Natal, 3855","-26.22924, 28.01968",-32.92419,27.42365
 Nkandla Mobile 3 Clinic,+27 35 833 5000,"Corner of Hospital and Mbatha Lanes, Nkandla, KwaZulu-Natal, 3855","-26.22924, 28.01968",-32.92419,27.42365
 Nkonjeni Gateway Clinic,+27 35 873 0013,"Next to Vumabakushoyo Lower Primary School, Mahlabatini, KwaZulu-Natal, 3865","-28.22664, 31.41517",-32.92419,27.42365
 Nkonjeni Hospital,+27 35 873 0013,"Near to Vumabakushoyo Lower Primary School, Ekudubekeni Area, Mahlabatini, KwaZulu-Natal, 3865","-28.22663, 31.41477",-32.92419,27.42365
 Nkudusi Clinic,+27 35 562 2000,"Next to Qakwini High School, Gezubuso, Hlabisa, KwaZulu-Natal, 3937","-26.41282, 27.90024",-32.92419,27.42365
 Nkungwini Clinic,+27 35 591 0078,"Next to Zombizwe High School, Ingwavuma, KwaZulu-Natal, 3968","-27.00989, 32.00876",-32.92419,27.42365
 Nkunzana Clinic,+27 35 831 4099,"Near to the Main Road, Nkunzana Location, Nongoma, KwaZulu-Natal, 3950","-27.89346, 31.64697",-32.92419,27.42365
 Nocomboshe Clinic,+27 34 662 1122,"Church of Scotland Hospital, Dundee Road, Tugela Ferry, KwaZulu-Natal, 3010","-28.66808, 30.62227",-32.92419,27.42365
 Nokweja Clinic,+27 39 834 9210,"Next to Nokweja High School, Kwa-Nokweja Location, Ixopo, KwaZulu-Natal, 3276","-30.29719, 30.02071",-32.92419,27.42365
 Nomponjwana Clinic,+27 35 460 9004,"R66, Melmoth, KwaZulu-Natal, 3835","-28.63808, 31.57919",-32.92419,27.42365
 Nondabuya Clinic,+27 35 572 5591,"Near to Zamintuthuko High School, Nondabuya, Ingwavuma, KwaZulu-Natal, 3968","-27.34592, 32.15599",-32.92419,27.42365
 Nongamlana Clinic,+27 35 833 7004,"Next to Nongamlana School, Nongamlana Area, Nkandla, KwaZulu-Natal, 3855","-28.42880, 30.92333",-32.92419,27.42365
 Nongoma Clinic,+27 35 831 3243,"Near to the Police Station, Nongoma, KwaZulu-Natal, 3950","-27.89346, 31.64697",-32.92419,27.42365
 Northdale Provincial Hospital,+27 33 387 9000,"Chota Motola Road, Northdale, Pietermaritzburg, KwaZulu-Natal, 3201","-29.57778, 30.40302",-32.92419,27.42365
 Nqeku Clinic,+27 35 831 4053,"Near to Esisusweni Primary School, Mangomhlophe Area, Nongoma, KwaZulu-Natal, 3950","-27.87528, 31.59448",-32.92419,27.42365
 Nqutu AIDS Committee,+27 71 154 8326,"Vulamehlo Reserve, Nquthu, KwaZulu-Natal, 3135","-26.51398, 27.87451",-32.92419,27.42365
 Nseleni Community Health Clinic,+27 35 795 1124,"45 Ubhejane Street, Nseleni, Empangeni, KwaZulu-Natal, 3882","-28.66624, 32.02579",-32.92419,27.42365
 Nseleni Mobile 1 Clinic,+27 82 427 1995,"Next to Social Services Offices, Ngwelezani Complex, Empangeni, KwaZulu-Natal, 3880","-26.18552, 28.06454",-32.92419,27.42365
 Nseleni Mobile 2 Clinic,+27 35 795 1124,"Next to Social Services Development Offices, Ngwelezane Complex, Empangeni, KwaZulu-Natal, 3880","-26.18552, 28.06454",-32.92419,27.42365
 Nseleni Mondi Mobile 3 Clinic,+27 82 427 1995,"45 Ubhejane Street, Nseleni, Empangeni, KwaZulu-Natal, 3882","-28.66624, 32.02579",-32.92419,27.42365
 Nsimbini Clinic,+27 31 900 0088,"Umbumbulu Road, Nsimbini Area, Umbumbulu, KwaZulu-Natal, 4105","-30.00043, 30.85596",-32.92419,27.42365
 Nsingweni Clinic,+27 35 337 4324,"Next to Nsingweni Primary School, Nsingweni, Gingindlovu, KwaZulu-Natal, 3806","-29.02669, 31.58380",-32.92419,27.42365
 Ntabelende Development Project,+27 76 575 0827,"Next to Mdumezulu Primary School, Mdumezulu, Maphumulo, Umbumbulu, KwaZulu-Natal, 4105","-30.03227, 30.75139",-32.92419,27.42365
 Ntabeni Clinic,+27 39 319 2643,"Near to Mashosha High School, Ndzimakwe Location, Munster, Margate, KwaZulu-Natal, 4278","-30.97163, 30.23546",-32.92419,27.42365
 Ntambanana Clinic,+27 35 792 8388,"Next to Mningi High School, R34, Empangeni, KwaZulu-Natal, 3880","-28.73514, 31.87753",-32.92419,27.42365
 Ntembankulu Clinic,+27 39 695 9483,"Next to Dweshula Supermarket, Dweshula, Port Shepstone, KwaZulu-Natal, 4247","-30.55663, 30.27177",-32.92419,27.42365
 Ntembisweni Clinic,+27 33 445 9697,"Next to Candabuthule High School, Ntembisweni Location, Greytown, KwaZulu-Natal, 3250","-29.16540, 30.76059",-32.92419,27.42365
 Ntinini Clinic,+27 34 299 9100,"Next to Ntinini Primary School, Nquthu, KwaZulu-Natal, 3135","-28.26929, 30.89788",-32.92419,27.42365
 Ntshongweni Clinic,+27 31 775 9013,"Mbiza Road, Ntshongweni, Hammarsdale, KwaZulu-Natal, 3699","-29.85298, 30.68769",-32.92419,27.42365
 Ntumeni Clinic,+27 35 476 1007,"Next to Ntumeni Primary School, Ntumeni, Eshowe, KwaZulu-Natal, 3830","-28.85892, 31.32252",-32.92419,27.42365
 Ntuze Clinic,+27 35 340 4266,"Near to Demo Store, Ntuze, Mtunzini, KwaZulu-Natal, 3867","-28.89022, 31.74098",-32.92419,27.42365
 Ntuzuma Clinic,+27 31 509 1747,"Next to the Library, 63 Umthala Circle, Ntuzuma F, Ntuzuma, KwaZulu-Natal, 4360","-29.72764, 30.94705",-32.92419,27.42365
 Nu Shifa Hospital,+27 31 208 8111,"482 Randles Road, Sydenham, Durban, KwaZulu-Natal, 4091","-29.83084, 30.98503",-32.92419,27.42365
 Nurses at a Go,+27 76 381 0953,"A16648 Mango Drive, Luganda, Pinetown, KwaZulu-Natal, 3609","-29.89147, 30.79728",-32.92419,27.42365
 Nyangweni Clinic,+27 39 972 1631,"Cambushe Street, Hibberdene, KwaZulu-Natal, 4220","-26.50736, 27.86218",-32.92419,27.42365
 Nyhendi Matungela Clinic,+27 35 476 4425,"2 Lood Street, Empangeni, KwaZulu-Natal, 3800","-28.77502, 31.89755",-32.92419,27.42365
 Ocean View Place of Safety,+27 31 468 5415,"850 Marine Drive, Bluff, Durban, KwaZulu-Natal, 4052","-29.94815, 30.99179",-32.92419,27.42365
 Ocilwane Clinic,+27 35 580 7000,"Opposite Langeni High School, Ocilwane Area, Empangeni, KwaZulu-Natal, 3880","-28.74471, 31.89099",-32.92419,27.42365
 Odidini Clinic,+27 31 915 4300,"Near to the Police Station, Odidini, Umbumbulu, KwaZulu-Natal, 4105","-30.03523, 30.68094",-32.92419,27.42365
 Ohwebede Clinic,+27 32 458 9001,"Near to Skhuhele High School, Mangethe Reserve, Ohwebede, Mandeni, KwaZulu-Natal, 4490","-29.17757, 31.51290",-32.92419,27.42365
 Open Door Crisis Care Centre - Pinetown,+27 31 709 2679,"7 Windsor Road, Pinetown, KwaZulu-Natal, 3610","-29.81803, 30.86173",-32.92419,27.42365
 Operation Bobbi Bear,+27 31 903 2424,"48 Seadoone Road, Doonside, Amanzimtoti, KwaZulu-Natal, 4126","-30.06517, 30.86607",-32.92419,27.42365
 Ophansi Cezwana Clinic,+27 35 595 8398,"Next to Ophansi Primary School, Ophansi, Mkuze, KwaZulu-Natal, 3979","-27.59152, 32.31632",-32.92419,27.42365
 Ophondweni Clinic,+27 35 572 5592,"Near to Marela High School, Ophondweni Main Road, Ingwavuma, KwaZulu-Natal, 3968","-27.30026, 32.09982",-32.92419,27.42365
 Ophuzane Clinic,+27 34 996 0614,"Next to Ophuzane Primary School, Ophuzane Location, Paulpietersburg, KwaZulu-Natal, 3180","-27.47722, 30.94903",-32.92419,27.42365
 Ophuzane Mobile Clinic,+27 34 982 6016,"Next to Ophuzane Primary School, Ophuzane Location, Paulpietersburg, KwaZulu-Natal, 3180","-26.30947, 28.38035",-32.92419,27.42365
 Oqondweni Clinic,+27 35 571 7000,"Near to Mseleni Hospital, Sibhayi, Mkuze, KwaZulu-Natal, 3967","-27.57185, 32.44586",-32.92419,27.42365
 OR Mthonjaneni Clinic,+27 35 450 7341,"Stand 376A, Corner of Symmonds and Opposition Streets, Melmoth, KwaZulu-Natal, 3835","-28.58842, 31.38983",-32.92419,27.42365
 Oribi Clinic,+27 33 386 4947,"26 Oribi Road, Oribi, Pietermaritzburg, KwaZulu-Natal, 3201","-29.64440, 30.39239",-32.92419,27.42365
 Osindisweni Hospital,+27 32 541 9200,"Oakford Priory Road, Verulam, KwaZulu-Natal, 4339","-29.60740, 30.98380",-32.92419,27.42365
 Osungulweni Clinic,+27 35 476 1009,"Next to the Roman Catholic Church, Ntumeni, Eshowe, KwaZulu-Natal, 3830","-28.84398, 31.20414",-32.92419,27.42365
 Ottawa Clinic,+27 32 537 6934,"1 Kissoon Road, Riet River, Verulam, KwaZulu-Natal, 4339","-29.66862, 31.03392",-32.92419,27.42365
 Overport Clinic,+27 31 207 1213,"472 Peter Mokaba Ridge Road, Overport, Durban, KwaZulu-Natal, 4091","-29.83611, 30.99978",-32.92419,27.42365
 Paulpietersburg Clinic,+27 34 995 1650,"10 Hoog Street, Paulpietersburg, KwaZulu-Natal, 3180","-27.42194, 30.81716",-32.92419,27.42365
 Pennington Clinic,+27 39 975 1100,"42 Dolphin Drive, Pennington, Scottburgh, KwaZulu-Natal, 4184","-30.37076, 30.70339",-32.92419,27.42365
 People's Pharmacy and Health Care Clinic,+27 31 701 0457,"Shop 2-4, Knowles Centre, 2 Chancery Street, Pinetown, KwaZulu-Natal, 3610","-29.82017, 30.86299",-32.92419,27.42365
 Phaphamani Clinic,+27 35 796 0135,"Next to Hlanganani Hall, Stand 661, Esikhawini Section J, Esikhawini, KwaZulu-Natal, 3887","-28.86905, 31.91456",-32.92419,27.42365
 Phaphamani Luncheon Club,+27 78 650 7696,"Next to Cilo Store, Mkhonza, Vaalkop, KwaZulu-Natal, 2922","-28.46583, 30.19213",-32.92419,27.42365
 Phelandaba Clinic,+27 35 592 1040,"Next to Phelandaba Store, Phelandaba, KwaZulu-Natal, 3994","-27.08398, 32.55651",-32.92419,27.42365
 Philani Clinic,+27 39 974 0053,"Dududu Road, Kwacele Area, Scottburgh, KwaZulu-Natal, 4180","-30.25138, 30.68312",-32.92419,27.42365
" Phoenix Advice, Dawah and Care Centre",+27 31 500 1499,"44 Bridgevale Crescent, Rydalvale, Phoenix, KwaZulu-Natal, 4068","-29.71079, 30.99560",-32.92419,27.42365
 Phoenix Community Health Centre,+27 31 538 0800,"32 Brookstone Place, Whetstone, Phoenix, KwaZulu-Natal, 4302","-29.70678, 30.99240",-32.92419,27.42365
 Pholela Community Health Centre,+27 39 832 9491,"D1213 Hlanganani Road, Bulwer, KwaZulu-Natal, 3244","-29.76380, 29.85809",-32.92419,27.42365
 Phumelela Educational Training Project,+27 35 796 6629,"Next to Hlakaniphani High School, uThungulu Road, Obanjeni Reserve, Mthunzini, KwaZulu-Natal, 3887","-29.80430, 29.75990",-32.92419,27.42365
 Phungashe Clinic,+27 39 835 0315,"Near to Phungashe Shopping Centre, Elupepeni Area, Port Shepstone, KwaZulu-Natal, 4240","-30.42536, 30.15072",-32.92419,27.42365
 Pietermaritzburg Buxton Protective Workshop,+27 33 392 7240,"133 Loop Street, Pietermaritzburg, KwaZulu-Natal, 3200","-29.60755, 30.37633",-32.92419,27.42365
 Pinetown Clinic,+27 31 311 6838,"18 Chapel Street, Pinetown, KwaZulu-Natal, 3610","-29.81711, 30.85813",-32.92419,27.42365
 Pisgah Clinic,+27 39 433 0540,"Kwamachi, KwaZulu-Natal, 4682","-30.68447, 29.87857",-32.92419,27.42365
 Point Clinic,+27 31 305 5512,"360 Mahatma Gandhi Road, Durban, KwaZulu-Natal, 4001","-29.86393, 31.04011",-32.92419,27.42365
 Pongola Clinic,+27 34 413 2318,"Behind the Country Lodge, Jan Mielie Street, Pongola, KwaZulu-Natal, 3170","-27.34733, 31.60940",-32.92419,27.42365
 Pongola Hospital,+27 34 413 1372,"82 Hans Dons Street, Pongola, KwaZulu-Natal, 3170","-27.37675, 31.61994",-32.92419,27.42365
 Pongola Mobile 3 Clinic,+27 34 413 4000,"Behind the Country Lodge, Jan Mielie Street, Pongola, KwaZulu-Natal, 3170","-27.37601, 31.60787",-32.92419,27.42365
 Port Edward Clinic,+27 39 311 2304,"202 Albert Road, Port Edward, KwaZulu-Natal, 4295","-31.04673, 30.21089",-32.92419,27.42365
 Port Shepstone Clinic,+27 39 688 2170,"595 Andreasen Street, Port Shepstone, KwaZulu-Natal, 4240","-30.73705, 30.44327",-32.92419,27.42365
 Port Shepstone Primary Health Care Mobile 1 Clinic,+27 39 682 0967,"1498 Nelson Mandela Drive, Port Shepstone, KwaZulu-Natal, 4240","-30.73863, 30.44948",-32.92419,27.42365
 Port Shepstone Primary Health Care Mobile 3 Clinic,+27 39 682 0967,"1498 Nelson Mandela Drive, Port Shepstone, KwaZulu-Natal, 4240","-30.73863, 30.44948",-32.92419,27.42365
 Port Shepstone Primary Health Care Mobile 5 Clinic,+27 39 682 0967,"1498 Nelson Mandela Drive, Port Shepstone, KwaZulu-Natal, 4240","-30.73863, 30.44948",-32.92419,27.42365
 Port Shepstone Primary Health Care Mobile 6 Clinic,+27 39 682 0967,"1498 Nelson Mandela Drive, Port Shepstone, KwaZulu-Natal, 4240","-30.73863, 30.44948",-32.92419,27.42365
 Port Shepstone Primary Health Care Mobile 7 Clinic,+27 39 682 0967,"1498 Nelson Mandela Drive, Port Shepstone, KwaZulu-Natal, 4240","-30.73863, 30.44948",-32.92419,27.42365
 Port Shepstone Primary Health Care Mobile 8 Clinic,+27 39 682 0967,"1498 Nelson Mandela Drive, Port Shepstone, KwaZulu-Natal, 4240","-30.73863, 30.44948",-32.92419,27.42365
 Port Shepstone Primary Health Care Mobile 9 Clinic,+27 39 682 0967,"1498 Nelson Mandela Drive, Port Shepstone, KwaZulu-Natal, 4240","-30.73863, 30.44948",-32.92419,27.42365
 Port Shepstone Regional Hospital,+27 39 688 6000,"Corner of Connor and Bazley Streets, Port Shepstone, KwaZulu-Natal, 4240","-30.74343, 30.45051",-32.92419,27.42365
 Primary Health Care Services - Port Shepstone,+27 39 682 0967,"1498 Nelson Mandela Drive, Port Shepstone, KwaZulu-Natal, 4240","-30.73863, 30.44948",-32.92419,27.42365
 Primary Health Care Services - Vryheid,+27 34 989 7000,"Corner of Boeren and Van Riebeeck Streets, Vryheid, KwaZulu-Natal, 3100","-27.77131, 30.79300",-32.92419,27.42365
 Prince Cyril Zulu Communicable Disease Centre - Durban,+27 31 322 4250,"University Avenue, Durban, KwaZulu-Natal, 4001","-29.85918, 31.00979",-32.92419,27.42365
 Prince Mshiyeni Memorial Hospital,+27 31 907 8111,"Mangosuthu Highway, Umlazi, KwaZulu-Natal, 4066","-29.95482, 30.93658",-32.92419,27.42365
 Prince Mshiyeni Memorial Hospital - HIV and AIDS Clinic,+27 31 907 8506,"Situated within Prince Mshiyeni Memorial Hospital, Mangosuthu Highway, Umlazi, KwaZulu-Natal, 4066","-29.95486, 30.93653",-32.92419,27.42365
 Princess Mandisi Health Care Centre,+27 35 874 5500,"Ground Floor, Ministerial Suite, King Dinuzulu Highway, Ulundi, KwaZulu-Natal, 3838","-27.39877, 31.26791",-32.92419,27.42365
 Princess Mhlosheni Clinic,+27 34 996 8100,"Near to the Dlamini Tribal Court, Tholakele Area, Paulpietersburg, KwaZulu-Natal, 3180","-27.43628, 30.98869",-32.92419,27.42365
 Project Empower,+27 31 310 3565,"Room W218, Diakonia Centre, 20 Diakonia Avenue, Durban, KwaZulu-Natal, 4001","-29.86246, 31.01767",-32.92419,27.42365
 Qalukubheka Clinic,+27 34 907 5114,"Ground Floor, Ministerial Suite, King Dinuzulu Highway, Ulundi, KwaZulu-Natal, 3838","-27.39877, 31.26791",-32.92419,27.42365
 Queensburgh Clinic,+27 31 311 6732,"Corner of Knightsway and Coronation Road, Queensburgh, Durban, KwaZulu-Natal, 4093","-29.88302, 30.92004",-32.92419,27.42365
 Queensburgh Medical Centre,+27 31 464 0996,"233 Main Road, Queensburgh, Durban, KwaZulu-Natal, 4093","-29.88156, 30.92054",-32.92419,27.42365
 Rainbow Nation of South Africa Empowerment Trust,+27 82 366 7138,"Next to Isihlahla Senkosi Secondary School, Kwa Musi Area, Nongoma, KwaZulu-Natal, 3950","-27.89346, 31.64697",-32.92419,27.42365
 Red Light Anti-Human Trafficking Initiative,+27 31 562 1961,"1 Tamarind Close, Sunningdale, Durban North, KwaZulu-Natal, 43051","-29.74102, 31.05105",-32.92419,27.42365
 Redcliffe Clinic,+27 32 533 3431,"1 Redcliffe Drive, Redcliffe, Verulam, KwaZulu-Natal, 4339","-29.64340, 31.01949",-32.92419,27.42365
 Redemption Christian Fellowship Church,+27 31 906 3317,"Near to Ekuthuthukeni Special School, Q413 Mayibuye Road, Umlazi, KwaZulu-Natal, 4031","-29.96179, 30.85689",-32.92419,27.42365
 Redhill Clinic,+27 31 564 1211,"162 Effingham Road, Effingham Heights, Redhill, Durban North, KwaZulu-Natal, 4051","-29.78118, 31.02109",-32.92419,27.42365
 Religions for Peace - South Africa,+27 31 373 5404,"Room AC0202, 2nd Floor, Block AC, ML Sultan Campus, Durban University of Technology, 47 Ward Road, Durban, KwaZulu-Natal, 4001","-29.83780, 30.98886",-32.92419,27.42365
 Reservoir Hills Clinic,+27 31 262 4924,"1 Riddick Avenue, Reservoir Hills, Durban, KwaZulu-Natal, 4091","-29.80305, 30.95204",-32.92419,27.42365
 Richards Bay Clinic,+27 35 907 5303,"Municipal Building, 5 Mark Strasser Street, Richards Bay, KwaZulu-Natal, 3900","-28.75531, 32.05227",-32.92419,27.42365
 Rietvlei Hospital,+27 39 260 5000,"R56, Rietvlei Location, Stafford's Post, KwaZulu-Natal, 4686","-30.48762, 29.82659",-32.92419,27.42365
 RK Khan Hospital,+27 31 459 6000,"RK Khan Circle, Westcliff, Chatsworth, KwaZulu-Natal, 4092","-29.91537, 30.88662",-32.92419,27.42365
 Rosary Clinic,+27 34 366 7389,"Near to Blaauwbosch Sports Ground, Blaauwbosch, KwaZulu-Natal, 2952","-27.78046, 30.09613",-32.92419,27.42365
 Rydalvale Chest Clinic,+27 31 538 0800,"G1400 Bhejane Road, KwaMashu, Durban, KwaZulu-Natal, 4359","-29.72843, 30.98942",-32.92419,27.42365
 Sahara Shelter,+27 31 500 3671,"10 Featherstone, Whetstone, Phoenix, KwaZulu-Natal, 4068","-29.70695, 30.98904",-32.92419,27.42365
 Santombe Clinic,+27 39 433 9907,"Near to Gadamanzi Primary School, D121 Santombe Road, Harding, KwaZulu-Natal, 4680","-30.52972, 30.02556",-32.92419,27.42365
 Sappi Clinic,+27 35 580 1730,"Near to Sappi Offices, KwaMfolozi, KwaZulu-Natal, 3880","-26.51106, 27.86822",-32.92419,27.42365
 Savannah Park Clinic,+27 31 322 8362,"10 Grassland Road, Savannah Park, Chatsworth, KwaZulu-Natal, 4092","-29.88358, 30.84736",-32.92419,27.42365
 Scottburgh Clinic,+27 39 976 2765,"Corner of Airth and Williamson Streets, Scottburgh, KwaZulu-Natal, 4180","-30.28697, 30.75581",-32.92419,27.42365
 Seaview Mobile Clinic,+27 31 461 2496,"NGG Kerk Hall, Corner of Medway and Sarnia Roads, Durban, KwaZulu-Natal, 4094","-29.90146, 30.96294",-32.92419,27.42365
 Shallcross Clinic,+27 31 311 2571,"265 Shallcross Road, Shallcross, Chatsworth, KwaZulu-Natal, 4092","-29.89151, 30.87469",-32.92419,27.42365
 Shayazime Project Organisation,+27 71 440 0842,"N632, Umlazi, KwaZulu-Natal, 4066","-29.95835, 30.91631",-32.92419,27.42365
 Shelly Beach Clinic,+27 39 315 9232,"5 Umdoni Road, Shelly Beach, KwaZulu-Natal, 4265","-30.80002, 30.41185",-32.92419,27.42365
 Shemula Clinic,+27 35 591 1004,"Next to Shemula High School, Shemula, Mkuze, KwaZulu-Natal, 3965","-27.08200, 32.22862",-32.92419,27.42365
 Siduduzo Health Care Centre,+27 31 909 4914,"Stand U833, Umlazi, Ntokozweni, KwaZulu-Natal, 4066","-29.96762, 30.87563",-32.92419,27.42365
 Sifunulwazi Women's Organisation,+27 31 902 1177,"92 Old Main Road, Isipingo Rail, Isipingo, KwaZulu-Natal, 4133","-29.97885, 30.93079",-32.92419,27.42365
 Signing Safe Features SA,+27 31 201 2059,"24 Stephen Dlamini Road, Musgrave, Durban, KwaZulu-Natal, 4001","-29.85169, 30.99773",-32.92419,27.42365
 Sihleza Clinic,+27 39 259 7009,"Near to Mvolozana Primary School, Mvolozana Location, uMzimkhulu, KwaZulu-Natal, 3297","-30.45642, 29.73164",-32.92419,27.42365
 Silindokuhle Development Project,+27 72 725 3299,"Next to Induna Mpanza, Matholonjeni Reserve, Kwadlangezwa, KwaZulu-Natal, 3886","-26.51106, 27.86822",-32.92419,27.42365
 Silindokuhle Home-Based Care,+27 73 681 4722,"Next to Klienfontein Clinic, Ladysmith, KwaZulu-Natal, 3370","-28.56921, 29.80455",-32.92419,27.42365
 Siloah Lutheran TB Hospital,+27 34 907 5226,"Dlomodlomo Road, Bhekuzulu, Vryheid, KwaZulu-Natal, 3100","-27.77853, 30.83312",-32.92419,27.42365
 Sinethemba,+27 39 977 8220,"Next to Freeway, Kirkman Road, Ifafa Beach, Scottburgh, KwaZulu-Natal, 4185","-30.46765, 30.64835",-32.92419,27.42365
 Sinethemba HIV and AIDS Project,+27 73 646 9391,"Next to Bingoma Primary School, Mevamhlophe Reserve, Mevamhlophe, Empangeni, KwaZulu-Natal, 3880","-28.74471, 31.89099",-32.92419,27.42365
 Sinikithemba Care Centre,+27 35 795 1777,"462 Ingwenya Street, Nseleni, Empangeni, KwaZulu-Natal, 3882","-28.66898, 32.02332",-32.92419,27.42365
 Sinomhawu AIDS Project-Malenge,+27 71 235 4217,"Enyanisweni Location, Riverside, uMzimkhulu, KwaZulu-Natal, 3297","-30.08139, 29.70361",-32.92419,27.42365
 Sipho Zungu,+27 35 550 4250,"Next to Senzakahle High School, Empangeni, KwaZulu-Natal, 3880","-28.77502, 31.89755",-32.92419,27.42365
 Sivangnana Sabay,+27 31 500 2484,"388 Lenham Drive, Lenham, Phoenix, KwaZulu-Natal, 4068","-29.69152, 30.99611",-32.92419,27.42365
 Sivusithemba Home-Based Care,+27 73 453 2602,"Next to Zamani Tavern, Macekane Reserve, Ntambanani, Empangeni, KwaZulu-Natal, 3880","-28.74471, 31.89099",-32.92419,27.42365
 Siyabathanda Abantwana Orphans Organisation,+27 31 707 7469,"185 Wyebank Road, Wyebank, Kloof, KwaZulu-Natal, 3610","-29.77068, 30.87636",-32.92419,27.42365
 Siyabathanda Youth Group,+27 73 797 8108,"A2527 Nkehli Road, Ntuzuma, KwaMashu, KwaZulu-Natal, 4359","-29.75116, 30.93351",-32.92419,27.42365
 Siyabonelela,+27 76 957 2830,"Next to Gawozi High School, Eshowe, KwaZulu-Natal, 3815","-28.87410, 31.46568",-32.92419,27.42365
 Siyakhana - Ecumenical Community of the Paraclete,+27 72 011 7902,"12 Saville Row, 35 Alexander Road, Scottsville, Pietermaritzburg, KwaZulu-Natal, 3201","-29.61343, 30.38825",-32.92419,27.42365
 Siyakhathala Clinic,+27 34 933 5117,"Near to Qondisani School, Ezibomvu Area, Emondlo, Vryheid, KwaZulu-Natal, 3105","-27.97981, 30.71913",-32.92419,27.42365
 Siyakwamukela Home-Based Care,+27 32 454 3057,"831 Thokoza Road, Mandeni, KwaZulu-Natal, 4490","-29.13001, 31.39307",-32.92419,27.42365
 Siyaphambili Mtuba Support Group,+27 71 605 8910,"379 John Ross Highway, Mtubatuba, KwaZulu-Natal, 3935","-28.91093, 31.47882",-32.92419,27.42365
 Siyaphambili Ngxongwane Development Organisation,+27 82 817 7670,"Next to the Masusimpisi Tea Room, Ngxongane Area, Nongoma, KwaZulu-Natal, 3950","-27.89429, 31.64542",-32.92419,27.42365
 Siyaphambili Qondile Home-Based Care,+27 35 572 1093,"Near to the Cell C Container, Ward Location, Jozini, KwaZulu-Natal, 3969","-27.42926, 32.06905",-32.92419,27.42365
 Siyaphambili Women's Club - Ixopo,+27 78 345 0921,"Vukani Tribal Court, Sheshe Location, Ufafa, Ixopo, KwaZulu-Natal, 3276","-30.15450, 30.06536",-32.92419,27.42365
 Siyaphila Support Group,+27 73 646 3337,"Next to Dube Tribal Court, Mabuyeni Reserve, Esikawhini, KwaZulu-Natal, 3887","-28.86599, 31.90818",-32.92419,27.42365
 Siyasiza Project,+27 83 883 3645,"Next to Ntombazi Primary School, Bhuqwini Reserve, Nongoma, KwaZulu-Natal, 3950","-27.84867, 31.52650",-32.92419,27.42365
 Siza Nkosi Health and Welfare Organisation,+27 31 309 3234,"Valley Centre, 44 Ismail C Meer Street, Durban, KwaZulu-Natal, 4001","-29.85070, 31.01664",-32.92419,27.42365
 Sizana Clinic,+27 34 967 9003,"Near to Sizana Primary School, Ceza, Ulundi, KwaZulu-Natal, 3866","-27.89433, 31.45617",-32.92419,27.42365
 Sizanolwazi Welfare,+27 82 744 8762,"Next to Muziwesizwe High School, Ezibomvu Village, Paulpietersburg, KwaZulu-Natal, 3180","-27.42591, 30.81732",-32.92419,27.42365
 Sizisizile Skills Promotions - Nquthu,+27 73 812 8738,"Next to Thembelihle Store, Roman Catholic Church, Ngobothi Area, Nquthu, KwaZulu-Natal, 3135","-26.51398, 27.87451",-32.92419,27.42365
 Sokhulu Clinic,+27 35 550 8107,"Near to Kwabhengu Tuck Shop, Sokhulu Area, Empangeni, KwaZulu-Natal, 3935","-28.55347, 32.31399",-32.92419,27.42365
 Somkhele Clinic,+27 35 550 7913,"Opposite Somkhele Market, Somkhele, Mtubatuba, KwaZulu-Natal, 3935","-28.33076, 32.10105",-32.92419,27.42365
 Somungu Clinic,+27 32 455 9000,"Near to Mphezeni School, Somungu Area, Eshowe, KwaZulu-Natal, 3815","-28.87410, 31.46568",-32.92419,27.42365
 South African Police Service - Empangeni,+27 35 473 0022,"93 Main Street, Eshowe, KwaZulu-Natal, 3880","-28.74471, 31.89099",-32.92419,27.42365
 South African Police Service - Greenwood Park,+27 31 571 6517,"616 Buxton Road, Greenwood Park, Durban, KwaZulu-Natal, 4051","-29.78615, 31.02451",-32.92419,27.42365
 South African Police Service - KwaMfolozi,+27 35 580 1222,"Next to the Shell Garage, KwaMfolozi Centre, KwaMfolozi, Ubombo, KwaZulu-Natal, 3915","-26.41282, 27.90024",-32.92419,27.42365
 South African Police Service - Ntambanana,+27 35 792 8289,"Next to Ntambanana Municipality, Bhulhanana Area, Ntambanani, Empangeni, KwaZulu-Natal, 3880","-28.74471, 31.89099",-32.92419,27.42365
" South African Police Service Family Violence, Child Protection and Sexual Offences Unit - Durban Central and KwaZulu-Natal Provincial Office",+27 31 325 4111,"282 Stalwart Simelane Street, Durban, KwaZulu-Natal, 4001","-29.84865, 31.02981",-32.92419,27.42365
" South African Police Service Family Violence, Child Protection and Sexual Offences Unit - Port Shepstone",+27 39 688 7900,"10 Bazley Street, Port Shepstone, KwaZulu-Natal, 4240","-30.74348, 30.45216",-32.92419,27.42365
 South African Positive Women Ambassadors,+27 31 837 0073,"Next to Police Station, 11708 Illovu Township, Amanzimtoti, KwaZulu-Natal, 4126","-30.04584, 30.88023",-32.92419,27.42365
 South African Red Cross Society - Newcastle,+27 34 312 1736,"9 Vanderbijl Street, Newcastle, KwaZulu-Natal, 2940","-27.77231, 29.99584",-32.92419,27.42365
 Southport Clinic,+27 39 681 3257,"219 Porter Road, Southport, KwaZulu-Natal, 4230","-30.67819, 30.50544",-32.92419,27.42365
 Sovane Clinic,+27 35 595 8011,"Near Dlakuse Primary School, Sovane Reserve, Nongoma, KwaZulu-Natal, 3950","-27.65295, 31.79266",-32.92419,27.42365
 Sparkport Pharmacy and Clinic - Overport,+27 31 207 3946,"382 Randles Road, Overport, Durban, KwaZulu-Natal, 4091","-29.83405, 30.98506",-32.92419,27.42365
 St Aidan's Mission Hospital,+27 31 314 2200,"33 ML Sultan Road, Durban, KwaZulu-Natal, 4001","-29.85130, 31.01059",-32.92419,27.42365
 St Andrew's Gateway Clinic,+27 39 433 7955,"Situated within St Andrew's Hospital, 14 Moodie Street, Harding, KwaZulu-Natal, 4680","-30.57581, 29.88976",-32.92419,27.42365
 St Apollinaris Gateway Clinic,+27 39 833 8000,"St Apollinaris Hospital, Centocow Road, Emakholweni Village, Centecow, KwaZulu-Natal, 3326","-30.01646, 29.72559",-32.92419,27.42365
 St Apollinaris Hospital,+27 39 833 8000,"Centocow Mission, Centocow, Umzinto, KwaZulu-Natal, 3266","-30.01653, 29.72575",-32.92419,27.42365
 St Christopher's School,+27 33 345 4686,"70 Pine Street, Pietermaritzburg, KwaZulu-Natal, 3201","-29.60727, 30.36582",-32.92419,27.42365
 St Faiths Clinic,+27 39 835 7672,"Near to St Faith's Police Station, Port Shepstone, KwaZulu-Natal, 4240","-30.52961, 30.20199",-32.92419,27.42365
 St Francis Gateway Clinic,+27 35 873 0203,"Next to the Police Station, Mahlabatini Main Road, Mahlabatini, KwaZulu-Natal, 3865","-30.03431, 30.80992",-32.92419,27.42365
 St Francis Hospital,+27 35 873 0203,"Next to Mpumelelo High School, Mahlabatini Main Road, Mahlabatini, KwaZulu-Natal, 3865","-30.03431, 30.80992",-32.92419,27.42365
 St Joseph's Children's Home,+27 72 757 2246,"Mbongolwani Reserve, District 1542, Ntumeni, Eshowe, KwaZulu-Natal, 3830","-28.87410, 31.46568",-32.92419,27.42365
 St Mary's Hospital - Mariannhill,+27 31 717 1000,"1 Hospital Road, Mariannhill, Pinetown, KwaZulu-Natal, 3610","-29.84776, 30.82584",-32.92419,27.42365
 St Nivard's HIV and AIDS Centre,+27 78 079 5380,"Ward 9, Siza Umndeni Store, Umzinto, KwaZulu-Natal, 4200","-30.30900, 30.66920",-32.92419,27.42365
 St Philomena's Children's Home,+27 61 086 5943,"92 Rippon Road, Sydenham, Durban, KwaZulu-Natal, 4091","-29.82702, 30.98170",-32.92419,27.42365
 St Theresa's Children's Home,+27 31 209 2166,"7 St Theresa Road, Mayville, Durban, KwaZulu-Natal, 4091","-29.83569, 30.98095",-32.92419,27.42365
 St Thomas Home for Children,+27 31 207 3223,"5 Williamson Place, Sparks Estate, Durban, KwaZulu-Natal, 4091","-29.83536, 30.97791",-32.92419,27.42365
 Stanger Provincial Hospital,+27 32 437 6000,"Corner of King Shaka and Patterson Streets, Stanger, KwaZulu-Natal, 4449","-29.33555, 31.28468",-32.92419,27.42365
 Stedham Clinic,+27 35 873 9000,"Near to Mpithimpithini Traditional Court, Mahlabatini, KwaZulu-Natal, 3865","-28.22424, 31.46276",-32.92419,27.42365
 Stonebridge Clinic - Phoenix,+27 31 539 1552,"40 Tower Road, Stone Bridge, Phoenix, KwaZulu-Natal, 4068","-29.72134, 31.01714",-32.92419,27.42365
 Suid-Afrikaanse Vrouefederasie Service Centre - Durban,+27 31 205 5692,"31 James Henderson Crescent, Glenwood, Durban, KwaZulu-Natal, 4001","-29.86485, 30.99203",-32.92419,27.42365
 Sukumani Clinic,+27 34 329 6400,"Near to Mbaimbane Primary School, Cash Farm, Mbabane, Dannhauser, KwaZulu-Natal, 3080","-27.78077, 30.09603",-32.92419,27.42365
 Sundumbili Community Health Centre,+27 32 454 7500,"Msomuhle Road, Mandeni, Stanger, KwaZulu-Natal, 4490","-29.13376, 31.40110",-32.92419,27.42365
 Sunnydale Clinic,+27 35 474 1141,"1 Hutson Street, Eshowe, KwaZulu-Natal, 3815","-26.41282, 27.90024",-32.92419,27.42365
 Swart Mfolozi Clinic,+27 34 942 1696,"Next to Vungu High School, Ceza, Nongoma, KwaZulu-Natal, 3866","-27.91007, 31.66702",-32.92419,27.42365
 Sydenham Community Association,+27 31 262 1317,"10 Mary Thiphe Street, Cato Manor, Durban, KwaZulu-Natal, 4061","-29.85376, 30.98067",-32.92419,27.42365
 Sydenham Heights Clinic,+27 31 209 8663,"Sydenham Heights Flats, 13 Rippon Road, Sydenham, Durban, KwaZulu-Natal, 4091","-29.82739, 30.98140",-32.92419,27.42365
 Tauss Clinic,+27 31 240 5300,"NBS Centre, 39 Hill Street, New Germany, Pinetown, KwaZulu-Natal, 3610","-29.81633, 30.86016",-32.92419,27.42365
 Taylor Clinic,+27 33 505 0102,"Next to Taylors SAPS, Taylor Reserve, Pietermaritzburg, KwaZulu-Natal, 3201","-29.60384, 30.37961",-32.92419,27.42365
 TB/HIV Care Association - Pietermaritzburg,+27 33 342 0098,"169 Peter Kerchoff Street, Pietermaritzburg, KwaZulu-Natal, 3200","-29.60268, 30.37251",-32.92419,27.42365
 Tender Loving Care,+27 39 727 4078,"Ithembalabantu Centre, 8664 Nelson Mandela Drive, Kokstad, KwaZulu-Natal, 4700","-30.74099, 30.44522",-32.92419,27.42365
 Thaba Jabula,+27 78 529 6216,"Green Point Community Hall, next to Malotha's Kraal Primary School, Bergville, KwaZulu-Natal, 3550","-28.73007, 29.35255",-32.92419,27.42365
 Thalaneni Clinic,+27 35 833 1043,"Near to Nkandla Hospital, Nkandla, KwaZulu-Natal, 3855","-28.62122, 31.09215",-32.92419,27.42365
 The Association for the Aged - Wentworth,+27 31 468 1387,"224 Austerville Drive, Wentworth, Durban, KwaZulu-Natal, 4052","-29.93666, 30.98585",-32.92419,27.42365
 The Bride of the Christ,+27 72 604 9379,"A1492. Ndimande Road, Mpumalanga Township, Hammarsdale, KwaZulu-Natal, 3699","-29.81615, 30.61592",-32.92419,27.42365
 The Haven,+27 33 394 0228,"80 Pietermaritz Street, Pietermaritzburg, KwaZulu-Natal, 3201","-29.59994, 30.37849",-32.92419,27.42365
 The Holy Spirit Emseni Mission Church,+27 72 219 9433,"Next to Hluma High School, Ward 5, Mathunzi Reserve, Empangeni, KwaZulu-Natal, 3380","-28.74471, 31.89099",-32.92419,27.42365
 The Jes Foord Foundation,+27 31 700 1590,"93/9 Abbot Francis Road, Mariannhill, Pinetown, KwaZulu-Natal, 3610","-29.84193, 30.82609",-32.92419,27.42365
 The Natal Settlers Memorial Homes,+27 31 205 1351,"17 Hutchinson Road, Umbilo, Durban, KwaZulu-Natal, 4001","-29.88167, 30.97775",-32.92419,27.42365
 The New Christian Health Apostolic Church in Zion of South Africa - Dannhauser,+27 82 839 6055,"670 Thirst Farm, Dannhauser, KwaZulu-Natal, 3080","-28.01398, 30.05672",-32.92419,27.42365
 The Rainbow Circle,+27 35 473 4203,"Situated within Eshowe SAP Friendly Centre, 73/79 Main Street, Eshowe, KwaZulu-Natal, 3815","-29.98545, 30.76087",-32.92419,27.42365
 The Right to Live Campaign,+27 31 201 1288,"210 Musgrave Road, Musgrave Road, Durban, KwaZulu-Natal, 4062","-29.83756, 31.00520",-32.92419,27.42365
 The Salvation Army - Mid KwaZulu-Natal,+27 33 386 3881,"54 College Road, Pelham, Pietermaritzburg, KwaZulu-Natal, 3201","-29.62281, 30.38642",-32.92419,27.42365
 The Upper Room Communion,+27 31 462 8164,"271 Umbilo Road, Umbilo, Durban, KwaZulu-Natal, 4001","-29.86648, 30.99962",-32.92419,27.42365
 The Valley Trust,+27 31 716 6800,"100 Zulu Reserve Road, Bothas Hill, Hillcrest, KwaZulu-Natal, 3660","-29.74718, 30.73980",-32.92419,27.42365
 Thembalesizwe Clinic,+27 39 313 9419,"Near Nodalane Taxi Rank, Izingolweni, KwaZulu-Natal, 4260","-30.86096, 30.15106",-32.92419,27.42365
 Thembalihle Clinic,+27 34 366 9318,"Next to Okhalweni Primary School, Newcastle, KwaZulu-Natal, 2940","-27.92883, 30.24747",-32.92419,27.42365
 Thembumusa Clinic,+27 34 933 1011,"Near to Khethelihle Primary School, Emondlo, Vryheid, KwaZulu-Natal, 3105","-27.98956, 30.72538",-32.92419,27.42365
 Thengane Clinic,+27 35 592 9444,"Opposite Hlanganani Lower Primary School, Kwangwanase, KwaZulu-Natal, 3973","-27.01977, 32.69127",-32.92419,27.42365
 Thokozani Clinic,+27 35 796 0109,"Next to the Old Post Office, Empangeni, KwaZulu-Natal, 3880","-28.86797, 31.91020",-32.92419,27.42365
 Tholakele Clinic,+27 83 362 3718,"Tholakele Location, Vryheid, KwaZulu-Natal, 3100","-27.77206, 30.79999",-32.92419,27.42365
 Tholusizo Clinic,+27 36 422 2315,"159 Nelson Mandela Street, Colenso, KwaZulu-Natal, 3360","-28.73677, 29.83833",-32.92419,27.42365
 Thonjeni Clinic,+27 39 433 9900,"Next to Thonjeni Primary School, Kwanyuswa, Ezinqoleni, Port Shepstone, KwaZulu-Natal, 4260","-30.64673, 30.12131",-32.92419,27.42365
 Thubalethu Clinic,+27 35 450 0974,"Thubalethu Location, Dimbane Street, Melmoth, KwaZulu-Natal, 3835","-28.58428, 31.39522",-32.92419,27.42365
 Thulasizwe Hospital,+27 35 832 6007,"Next to Indlu Yamandla Primary School, King Dinuzulu Highway, Thulasizwe, Ceza, KwaZulu-Natal, 3866","-28.33308, 31.40727",-32.92419,27.42365
" Thuthuzela Care Centre - Edendale Hospital, Edendale",+27 33 395 4325,"Edendale Hospital, 89 Selby Msimang Road, Plessislaer, Edendale, Pietermaritzburg, KwaZulu-Natal, 3201","-29.64791, 30.33178",-32.92419,27.42365
" Thuthuzela Care Centre - Madadeni Hospital, Madadeni",+27 34 328 8508,"Madadeni Hospital, Corner of Madadeni 3 and Madadeni 7 Roads, Madadeni Section 5, Madadeni, Newcastle, KwaZulu-Natal, 2951","-27.76440, 30.05086",-32.92419,27.42365
" Thuthuzela Care Centre - Mahatma Ghandi Memorial Hospital, Phoenix",+27 31 502 2338,"Mahatma Ghandi Memorial Hospital, 100 Phoenix Highway, Phoenix, Durban, KwaZulu-Natal, 4080","-29.71781, 31.02888",-32.92419,27.42365
" Thuthuzela Care Centre - Ngwelezana Hospital, Empangeni",+27 35 901 7148,"Ngwelezana Hospital, Next to Ngwelezana Police Station, Corner of Thanduyise and Ngwelezana Roads, Ngwelezana, Empangeni, KwaZulu-Natal, 3880","-28.77896, 31.86547",-32.92419,27.42365
" Thuthuzela Care Centre - Port Shepstone Hospital, Port Shepstone",+27 39 688 6000,"Port Shepstone Hospital, Corner of Connor and Bazley Streets, Port Shepstone, KwaZulu-Natal, 4240","-30.74343, 30.45051",-32.92419,27.42365
" Thuthuzela Care Centre - Prince Mshiyeni Memorial Hospital, Umlazi",+27 31 907 8061,"Prince Mshiyeni Memorial Hospital, Mangosuthu Highway, Umlazi, KwaZulu-Natal, 4066","-29.95482, 30.93658",-32.92419,27.42365
" Thuthuzela Care Centre - RK Khan Hospital, Chatsworth",+27 31 401 0394,"RK Khan Hospital, RK Khan Circle, Westcliffe, Chatsworth, KwaZulu-Natal, 4092","-29.91537, 30.88662",-32.92419,27.42365
" Thuthuzela Care Centre - Stanger Provincial Hospital, Stanger",+27 32 437 6000,"Stanger Hospital, Corner of King Shaka and Patterson Streets, Stanger, KwaZulu-Natal, 4449","-29.33555, 31.28468",-32.92419,27.42365
 Thwasana Clinic,+27 72 200 0888,"Goodluck Farm, Nhlazatshe, Vryheid, KwaZulu-Natal, 3116","-27.77206, 30.79999",-32.92419,27.42365
 TLC Home Services (Hospice),+27 39 727 4078,"8664 Nelson Mandela Road, Shayamoya, Kokstad, KwaZulu-Natal, 4700","-30.54279, 29.42732",-32.92419,27.42365
 TLC Hospice,+27 39 727 4078,"iThembalethu Centre, 8664 Nelson Mandela Drive, Shayamoya Township, Kokstad, KwaZulu-Natal, 4700","-30.52827, 29.44376",-32.92419,27.42365
 Tobolsk Clinic,+27 34 413 2080,"Next to the Tribal Court, Khiphunyawo Area, Pongola, KwaZulu-Natal, 3170","-27.30378, 31.22592",-32.92419,27.42365
 Todah Youth Life Empowerment,+27 81 401 7492,"92 Maasbanker Avenue, Newlands East, Durban, KwaZulu-Natal, 4037","-29.76873, 30.97069",-32.92419,27.42365
 Tongaat Community Health Centre,+27 32 944 5054,"Sanele Nxumalo Street, Tongaat, KwaZulu-Natal, 4399","-29.56875, 31.11684",-32.92419,27.42365
" Treatment Action Campaign - Empangeni Office, KwaZulu-Natal",+27 73 242 0440,"Oshwahweni Hall, Kwamthwethwa Location, Empangeni, KwaZulu-Natal, 3880","-28.75689, 31.89951",-32.92419,27.42365
" Treatment Action Campaign - Provincial Office, KwaZulu-Natal",+27 33 326 0700,"1st Floor, Idube Building, 249 Burger Street, Pietermaritzburg, KwaZulu-Natal, 3201","-29.60499, 30.38179",-32.92419,27.42365
 Trenance Park Clinic,+27 32 535 7115,"Cottonwood Drive, Trenance Park, Verulam, KwaZulu-Natal, 4339","-29.65305, 31.00144",-32.92419,27.42365
 Tshelimnyama Clinic,+27 31 700 0641,"Umhlatuzana Road, Tshelimnyama, Pinetown, KwaZulu-Natal, 3610","-29.83817, 30.81124",-32.92419,27.42365
 Tshongwe Clinic,+27 35 571 9105,"Next to Tshongwe Primary School, Ntshongwe Village, Sibayi, Mkuze, KwaZulu-Natal, 3965","-26.41282, 27.90024",-32.92419,27.42365
 Turton Community Health Centre,+27 39 972 6000,"Next to Umzumbe Magistrate's Office, Hibberdene, KwaZulu-Natal, 4220","-30.50311, 30.59327",-32.92419,27.42365
 Ubombo Community-Care and Drop-In Centre,+27 72 509 4075,"Stand B8595, 58 Third Street, Jozini, KwaZulu-Natal, 3969","-30.30865, 30.74097",-32.92419,27.42365
 Ubumbano Drop-in Centre,+27 76 053 9053,"Near to Mogajuka Clinic, Ekuthuleni Area, Melmoth, KwaZulu-Natal, 3835","-28.58428, 31.39522",-32.92419,27.42365
 Ubuntu Community Network Systems,+27 31 305 1429,"18 Doncaster Flat, 29 Park Street, Durban, KwaZulu-Natal, 4001","-29.86325, 31.01399",-32.92419,27.42365
 Ukuzakha Nokuzenzela Women's Association,+27 72 767 2348,"Stand 139 eDumbe Location, Paulpietersburg, KwaZulu-Natal, 3180","-28.96940, 31.49772",-32.92419,27.42365
 Ulundi A Clinic,+27 35 879 1544,"Near to Ulundi A Sports Ground, Umfolozi Street, Ulundi A, Ulundi, KwaZulu-Natal, 3838","-28.33683, 31.41626",-32.92419,27.42365
 Ulundi C Clinic,+27 35 870 1026,"Plot 3838, Uphonsolwendlovu Street, Ulundi, KwaZulu-Natal, 3838","-26.30947, 28.38035",-32.92419,27.42365
 Um'bele Community Upliftment,+27 72 651 0114,"37 Namutha Road, Pinetown, KwaZulu-Natal, 3610","-29.83450, 30.83841",-32.92419,27.42365
 Umbimbini Clinic,+27 35 831 9003,"Next to Emkhombe High School, Ceza, Ulundi, KwaZulu-Natal, 3866","-27.89433, 31.45617",-32.92419,27.42365
 Umdloti Clinic,+27 31 568 1746,"Umdloti Library Building, 4 Main Road, Umdloti Beach, Umhlanga Rocks, KwaZulu-Natal, 4319","-29.66993, 31.11596",-32.92419,27.42365
 UMfolozi Clinic,+27 35 773 0455,"Near to Richards Bay Mineral Crossroads, Nzalabantu Reserve, Richards Bay, KwaZulu-Natal, 3880","-28.75203, 32.04902",-32.92419,27.42365
 Umgeni Community Empowerment Centre,+27 31 824 7951,"16 Mona Road, Durban, KwaZulu-Natal, 4001","-29.86075, 31.02959",-32.92419,27.42365
 Umkomaas Clinic,+27 31 311 5437,"72 Barrow Street, Umkomaas, KwaZulu-Natal, 4170","-30.20594, 30.79771",-32.92419,27.42365
 Umlazi D Clinic,+27 31 907 4777,"D1438, Umlazi D Section, Umlazi, KwaZulu-Natal, 4031","-29.96893, 30.90450",-32.92419,27.42365
 Umlazi G Dorothy Nyembe Clinic,+27 31 907 6298,"G739 Nyala Street, Umlazi G Section, Umlazi, KwaZulu-Natal, 4031","-29.94258, 30.86004",-32.92419,27.42365
 Umlazi K Clinic,+27 31 908 5942,"1326 Mgaga Road, Umlazi K Section, Umlazi, KwaZulu-Natal, 4066","-29.96573, 30.85461",-32.92419,27.42365
 Umlazi N Clinic,+27 31 906 6073,"Near to Menzi High School, N253 Maponya Street, Umlazi N Section, Umlazi, KwaZulu-Natal, 4066","-29.95978, 30.87279",-32.92419,27.42365
 Umlazi Place of Safety,+27 31 907 5129,"Mangosuthu Highway, Umlazi, KwaZulu-Natal, 4066","-28.77247, 31.85520",-32.92419,27.42365
 Umlazi Q Osizweni Clinic,+27 31 907 1150,"Q1219 Street, Umlazi Q Section, Umlazi, KwaZulu-Natal, 4066","-29.97957, 30.89754",-32.92419,27.42365
 Umlazi U Clinic,+27 31 909 1017,"Road 1672, Umlazi U Section, Umlazi, KwaZulu-Natal, 4066","-29.99222, 30.89048",-32.92419,27.42365
 Umlazi V Clinic,+27 31 907 2610,"1054 Malamba Road, Umlazi V Section, Umlazi, KwaZulu-Natal, 4089","-29.96003, 30.93003",-32.92419,27.42365
 uMnini Clinic,+27 31 976 9202,"Next to Inkanyezi Store, Umgababa, Amanzimtoti, KwaZulu-Natal, 4126","-30.14291, 30.81922",-32.92419,27.42365
 Umtentweni Clinic,+27 39 695 0030,"Stand 281, Ambleside Road, Umtentweni, KwaZulu-Natal, 4235","-30.71964, 30.47349",-32.92419,27.42365
 UMuziwabantu Clinic,+27 39 433 1628,"1 Field Street, Harding, KwaZulu-Natal, 4680","-30.57250, 29.88392",-32.92419,27.42365
 Umzinto Clinic,+27 39 974 2094,"Near to the Taxi Rank and Library, Old Main Road, Umzinto, KwaZulu-Natal, 4200","-30.30439, 30.66762",-32.92419,27.42365
 Umzinto Mobile 1 Clinic,+27 39 976 1670,"Convent Road, Park Rynie, Scottburgh, KwaZulu-Natal, 4182","-30.32830, 30.73538",-32.92419,27.42365
 Umzinto Mobile 2 Clinic,+27 39 976 1670,"Convent Road, Park Rynie, Scottburgh, KwaZulu-Natal, 4182","-30.32830, 30.73538",-32.92419,27.42365
 Umzinto Mobile 3 Clinic,+27 39 976 1670,"Convent Road, Park Rynie, Scottburgh, KwaZulu-Natal, 4182","-30.32830, 30.73538",-32.92419,27.42365
 Umzinto Mobile 4 Clinic,+27 39 976 1670,"Convent Road, Park Rynie, Scottburgh, KwaZulu-Natal, 4182","-30.32830, 30.73538",-32.92419,27.42365
 Umzomuhle H Clinic,+27 31 908 1115,"1432 Mhlabunzima Street, Umlazi H Section, Umlazi, KwaZulu-Natal, 4148","-29.94907, 30.86549",-32.92419,27.42365
 Underberg Clinic,+27 33 701 1086,"Near to the Nestle Factory, Main Road, Underberg, KwaZulu-Natal, 3257","-29.79466, 29.49850",-32.92419,27.42365
 University of KwaZulu-Natal Student Support Services - Edgewood Campus,+27 31 260 3653,"Dining Hall, Corner of Henry Pennington and Mariannhill Roads, Ashwood, Pinetown, KwaZulu-Natal, 3605","-29.82286, 30.80972",-32.92419,27.42365
 University of Zululand Campus Clinic - Kwadlangezwa,+27 35 902 6661,"Kwadlangezwa Campus, University of Zululand, Empangeni, KwaZulu-Natal, 3880","-28.74471, 31.89099",-32.92419,27.42365
 Untunjambili Hospital,+27 33 444 0818,"Main Street, Kranskop, Greytown, KwaZulu-Natal, 3268","-28.94202, 30.94846",-32.92419,27.42365
 Untunjambili Mobile Clinic,+27 33 444 0818,"Near to Untunjambili Hospital, Kranskop, Greytown, KwaZulu-Natal, 3268","-28.94202, 30.94846",-32.92419,27.42365
 Unyezi Community-Based Organisation,+27 72 233 6399,"Opposite the Post Office, Hlabisa Mission, Hlabisa, KwaZulu-Natal, 3937","-28.14532, 31.87633",-32.92419,27.42365
 Usuthi Clinic,+27 35 831 9020,"Ezidwadweni, Ceza, Nongoma, KwaZulu-Natal, 3866","-27.89346, 31.64697",-32.92419,27.42365
 Verulam Clinic,+27 31 322 1722,"8 Wick Street, Lotusville, Verulam, KwaZulu-Natal, 4339","-29.64735, 31.04647",-32.92419,27.42365
 Verulam Islamic School,+27 32 533 1256,"38 Ireland Street, Verulam, KwaZulu-Natal, 4339","-29.64102, 31.04637",-32.92419,27.42365
 Victory Family Church International,+27 72 326 4144,"3937 Chief Owen Street, Ulundi, KwaZulu-Natal, 3838","-28.28280, 31.42868",-32.92419,27.42365
 Vryheid Hospital,+27 34 982 2111,"Coswold Brown Street, Bhekuzulu, Vryheid, KwaZulu-Natal, 3100","-27.75867, 30.79921",-32.92419,27.42365
 Vryheid Primary Health Care Mobile 1 Clinic,+27 34 989 7000,"Corner of Boeren and Van Riebeeck Streets, Vryheid, KwaZulu-Natal, 3100","-27.75850, 30.79666",-32.92419,27.42365
 Vryheid Primary Health Care Mobile 2 Clinic,+27 34 989 7000,"Corner of Boeren and Van Riebeeck Streets, Vryheid, KwaZulu-Natal, 3100","-27.75850, 30.79666",-32.92419,27.42365
 Vryheid Primary Health Care Mobile 3 Clinic,+27 34 989 7000,"Corner of Boeren and Van Riebeeck Streets, Vryheid, KwaZulu-Natal, 3100","-27.77131, 30.79300",-32.92419,27.42365
 Vulamehlo Health Resource Organisation,+27 32 559 6271,"2 Melville West Road, Melville, Stanger, KwaZulu-Natal, 4449","-29.34817, 31.29366",-32.92419,27.42365
 Vumanhlamvu Clinic,+27 35 833 7001,"Near to Vumanhlamvu Primary School, Eshowe Road, Nkandla, KwaZulu-Natal, 3855","-28.68540, 31.11638",-32.92419,27.42365
 Wasbank Clinic,+27 34 651 1139,"Near to the Police Station, Rademeyer Road, Wasbank, KwaZulu-Natal, 2920","-28.30043, 30.08303",-32.92419,27.42365
 Waterfall Clinic,+27 31 762 1510,"5 Link Road, Waterfall, Pinetown, KwaZulu-Natal, 3610","-29.74894, 30.81823",-32.92419,27.42365
 Waterloo Clinic,+27 32 533 3861,"29 Aloe Road, Waterloo, Verulam, KwaZulu-Natal, 4319","-29.65997, 31.04448",-32.92419,27.42365
 Wela Clinic,+27 78 260 0972,"Near to Zungu Enduneni Store, Okhukho Rural Area, Mahlabatini, KwaZulu-Natal, 3865","-28.22610, 31.56834",-32.92419,27.42365
 Welbedacht Clinic,+27 31 406 3796,"46 Graceland Road, Welbedacht, Chatsworth, KwaZulu-Natal, 4092","-29.92702, 30.88434",-32.92419,27.42365
 Wentworth AIDS Action Group,+27 31 461 2799,"137 Austerville Drive, Austerville, Wentworth, Durban, KwaZulu-Natal, 4052","-29.94270, 30.97563",-32.92419,27.42365
 Wentworth Gateway Clinic,+27 31 460 5329,"Wentworth Hospital, 1 Boston Road, Jacobs, KwaZulu-Natal, 4052","-29.93291, 30.98916",-32.92419,27.42365
 Wentworth Hospital,+27 31 460 5000,"1 Boston Road, Jacobs, Durban, KwaZulu-Natal, 4052","-29.93340, 30.98794",-32.92419,27.42365
 Weza Clinic,+27 39 553 0272,"Weza Road, Harding, KwaZulu-Natal, 4680","-30.59111, 29.74543",-32.92419,27.42365
 Woodhurst Clinic,+27 31 403 1565,"58 Uranus Road, Woodhurst, Chatsworth, KwaZulu-Natal, 4092","-29.90564, 30.90303",-32.92419,27.42365
 World Hands of Life,+27 31 825 4115,"462 Mahatma Ghandi, Durban, KwaZulu-Natal, 4001","-29.86068, 31.03806",-32.92419,27.42365
 Woza Moya Community Development Project,+27 39 834 0023,"Next to Snevuso High School, Chibini Location, Ixopo, KwaZulu-Natal, 3276","-29.47645, 30.21838",-32.92419,27.42365
 Wyebank Clinic,+27 31 711 0989,"181 Wyebank Road, New Germany, Pinetown, KwaZulu-Natal, 3610","-29.77056, 30.87749",-32.92419,27.42365
 Xhamini Clinic,+27 39 433 0400,"Next to Phuthumala Primary School, KwaMachi, KwaZulu-Natal, 4682","-30.68447, 29.87857",-32.92419,27.42365
 Youth for Christ - Durban,+27 31 303 1058,"1280 Umgeni Road, Durban, KwaZulu-Natal, 4001","-29.81203, 31.01938",-32.92419,27.42365
 Zilulwane Clinic,+27 35 879 9010,"Near to Zilulwane Primary School, Nhlungwane Area, Mahlabatini, KwaZulu-Natal, 3865","-28.33705, 31.60549",-32.92419,27.42365
 Ziphakamise,+27 39 682 1834,"27 Mitchell Drive, Port Shepstone, KwaZulu-Natal, 4240","-30.74646, 30.44696",-32.92419,27.42365
 Zitholeleni Community Development,+27 82 843 9981,"Next to Emandosi Primary School, KwaNdaya Reserve, Esikhawini, KwaZulu-Natal, 3887","-28.86905, 31.91456",-32.92419,27.42365
 Zulelisha Apostolic Church in Christ,+27 73 579 5076,"D583 Illovo, Amanzimtoti, KwaZulu-Natal, 4126","-30.11150, 30.84930",-32.92419,27.42365
 Zululand Hospice - Richards Bay,+27 35 789 0625,"Phusnancia Street, Richards Bay, KwaZulu-Natal, 3900","-28.75148, 32.07655",-32.92419,27.42365
 Zuzimpilo Community Project,+27 73 144 1945,"D637 Road, Roosboom, Ladysmith, KwaZulu-Natal, 3370","-28.46121, 29.68207",-32.92419,27.42365
 Zwelibomvu Clinic,+27 31 703 1697,"42019 Zwelinjani Road, Zwelibomvu, KwaZulu-Natal, 3610","-29.88582, 30.70926",-32.92419,27.42365
 Zwelisha Clinic - KwaZulu-Natal,+27 36 353 9333,"Next to Sisosethu Primary School, Zwelisha, Estcourt, KwaZulu-Natal, 3310","-29.00386, 29.87712",-32.92419,27.42365
