name,telephone,adress,gps,lattitude,longitude
 Abba Family Counselling Centre,+27 21 859 1480,"Lampie Fick Street, Grabouw, Western Cape, 7160","-34.15758, 18.99263",-32.92419,27.42365
 Abigail Women's Movement,+27 21 388 5552,"33 Galaxy Crescent, Ikwezi Park, Khayelitsha, Western Cape, 7784","-34.00941, 18.63629",-32.92419,27.42365
 Afrikaanse Christelike Vroue Vereeniging - Azaleahof Bewaarskool,+27 21 887 0136,"11 Van Riebeek Street, Stellenbosch, Western Cape, 7600","-33.92921, 18.42721",-32.92419,27.42365
 Afrikaanse Christelike Vroue Vereeniging - Bredasdorp,+27 28 424 1450,"12 Hopley Street, Bredasdorp, Western Cape, 7280","-34.53459, 20.03651",-32.92419,27.42365
 Afrikaanse Christelike Vroue Vereeniging - Cape Town,+27 21 462 1060,"61 Caledon Street, Cape Town, Western Cape, 8001","-33.92669, 18.42380",-32.92419,27.42365
 Afrikaanse Christelike Vroue Vereeniging - Noorde-Paarl,+27 21 872 3487,"5 Gymnasium Street, Paarl, Western Cape, 7646","-33.73245, 18.96172",-32.92419,27.42365
 Age-in-Action - Western Cape Provincial Office,+27 21 423 0204,"3rd Floor, Boland Bank Building, Lower Burg Street, Cape Town, Western Cape, 8001","-33.92011, 18.42297",-32.92419,27.42365
 Alan Blyth Hospital,+27 28 551 1010,"Upper Church Street, Ladismith, Western Cape, 6655","-33.49295, 21.26552",-32.92419,27.42365
 Albertinia Clinic,+27 28 735 1045,"Station Road, Albertinia, Western Cape, 6695","-34.20472, 21.58444",-32.92419,27.42365
 Albertinia Mobile Clinic,+27 28 735 1045,"Station Road, Albertinia, Western Cape, 6695","-34.00506, 18.73090",-32.92419,27.42365
 Annie Brown Clinic,+27 23 316 1142,"Lylle Street, Witzenberg, Ceres, Western Cape, 6835","-33.37694, 19.31250",-32.92419,27.42365
 Arisen Women Foundation,+27 21 372 6839,"4 Hugo Naude Road, New Woodlands, Mitchells Plain, Western Cape, 7785","-34.02747, 18.60152",-32.92419,27.42365
 Baphumelele Respite Care Centre,+27 21 361 8632,"Z114 Dabula Street, Khayelitsha, Cape Town, Western Cape, 7784","-34.02946, 18.65468",-32.92419,27.42365
 Barrydale Clinic,+27 28 572 1459,"22 Tinley Street, Barrydale, Western Cape, 6750","-33.90401, 20.72558",-32.92419,27.42365
 Barrydale Mobile Clinic,+27 28 572 1459,"22 Tinley Street, Barrydale, Western Cape, 6750","-33.90401, 20.72558",-32.92419,27.42365
 Beaufort West Community Day-Care Centre,+27 23 414 8200,"29 David Street, Beaufort West, Western Cape, 6970","-32.36457, 22.57693",-32.92419,27.42365
 Bella Vista Clinic,+27 23 315 5980,"1 Krisante Street, Bella Vista, Ceres, Western Cape, 6835","-33.33268, 19.32031",-32.92419,27.42365
 Bellville Reproductive Health Clinic,+27 21 946 2306,"Shop 9, Tygerberg Centre, 16 Voortrekker Road, Bellville, Cape Town, Western Cape, 7530","-33.91772, 18.55955",-32.92419,27.42365
 Bethesda Medical Service and Relief,+27 44 875 8088,"22 Beer Street, Rosemoor, George, Western Cape, 6529","-33.97451, 22.48074",-32.92419,27.42365
 Blue Downs Clinic,+27 21 909 9900,"Bentley Road, Blue Downs, Eerste River, Western Cape, 7100","-33.98069, 18.68624",-32.92419,27.42365
 Breede River Hospice - Robertson,+27 23 626 5710,"62 Paul Kruger Street, Robertson, Western Cape, 6705","-33.80222, 19.88334",-32.92419,27.42365
 Brewelskloof Hospital,+27 23 348 1305,"Haarlem Street, Worcester, Western Cape, 6850","-33.62165, 19.45474",-32.92419,27.42365
 Browns Farm Community Health Centre,+27 21 374 6063,"2495 Msingizane Street, Philippi Phase 4, Gugulethu, Western Cape, 7750","-34.00990, 18.57800",-32.92419,27.42365
 Buffeljags River Clinic,+27 28 512 3453,"Corner of Stout and Olivedale Avenues, Buffeljags River, Swellendam, Western Cape, 6742","-33.94321, 18.57043",-32.92419,27.42365
 Caledon Mobile 2,+27 28 212 1849,"Main Road, Caledon, Western Cape, 7230","-34.06288, 18.80970",-32.92419,27.42365
 Cape Peninsula University of Technology Campus Health Clinic - Bellville Campus,+27 21 959 6403,"Ground Floor, New Library Extension, Symphony Way, Bellville, Western Cape, 7530","-33.92746, 18.63218",-32.92419,27.42365
 Catholic Welfare and Development - Cape Town,+27 21 425 2095,"37A Somerset Road, Cape Town, Western Cape, 8001","-33.91494, 18.41801",-32.92419,27.42365
 Cheshire Homes South Africa - Eric Miles,+27 21 552 2120,"18 Corsair Close, Milnerton, Cape Town, Western Cape, 7441","-33.88335, 18.50364",-32.92419,27.42365
 Child and Adolescence Psychiatry Unit,+27 21 685 4103,"46 Sawkins Road, Rondebosch, Western Cape, 7700","-33.95255, 18.48243",-32.92419,27.42365
 Child Welfare South Africa - Bredasdorp,+27 28 424 1580,"82 Brand Street, Bredasdorp, Western Cape, 7280","-34.53112, 20.04809",-32.92419,27.42365
 Child Welfare South Africa - Heidelberg,+27 28 722 2396,"Geldenhuys Road, Heidelberg, Western Cape, 6665","-34.10363, 20.96127",-32.92419,27.42365
 Child Welfare South Africa - Hermanus,+27 28 313 0830,"10 Malva Street, Hermanus, Western Cape, 7200","-34.42059, 19.21492",-32.92419,27.42365
 Child Welfare South Africa - Kleinmond,+27 28 271 4044,"Protea Road, Kleinmond, Western Cape, 7195","-34.33933, 19.01630",-32.92419,27.42365
 Child Welfare South Africa - Lamberts Bay,+27 27 432 2639,"5 Pietersen Street, Lamberts Bay, Western Cape, 8130","-32.09801, 18.30649",-32.92419,27.42365
 Child Welfare South Africa - Oudtshoorn,+27 44 279 2837,"144 High Street, Bridgton, Oudtshoorn, Western Cape, 6625","-34.47234, 19.89732",-32.92419,27.42365
 Child Welfare South Africa - Paarl,+27 21 862 6182,"2 Mackier Street, Paarl East, Paarl, Western Cape, 7646","-33.73336, 18.99997",-32.92419,27.42365
 Christine Revell Children's Home,+27 21 697 1748,"Huntley Street, Athlone, Cape Town, Western Cape, 7764","-33.96608, 18.50002",-32.92419,27.42365
 Citrusdal Hospital,+27 22 921 2153,"Vrede Street, Citrusdal, Western Cape, 7340","-32.59889, 19.01703",-32.92419,27.42365
 City of Cape Town HIV and AIDS Workplace Programme,+27 21 400 2630,"Ground Floor, Podium Block, Civic Centre, 12 Hertzog Boulevard, Cape Town, Western Cape, 8001","-33.92109, 18.43047",-32.92419,27.42365
 Clanwilliam Clinic,+27 27 482 1692,"1 Sipres Avenue, Clanwilliam, Western Cape, 8135","-32.18839, 18.89318",-32.92419,27.42365
 Clanwilliam Hospital,+27 27 482 2166,"Ou Kaapse Way, Clanwilliam, Western Cape, 8135","-32.18281, 18.89074",-32.92419,27.42365
 Cloetesville Community Health Centre,+27 21 883 2676,"Corner of Tennant and Bell Street, Tennantville, Stellenbosch, Western Cape, 7600","-33.92197, 18.85546",-32.92419,27.42365
 Community Builders,+27 73 264 9689,"16 Hamerkop Street, Murraysburg, Western Cape, 6995","-33.66681, 19.43926",-32.92419,27.42365
 Community Survivors Outreach Forum,+27 21 697 4756,"22 Fourteenth Avenue, Hazendal, Athlone, Western Cape, 7764","-33.95663, 18.50553",-32.92419,27.42365
 Community Workers for the People,+27 21 692 3811,"11 Athry Walk, Hanover Park, Cape Town, Western Cape, 7780","-33.99166, 18.52783",-32.92419,27.42365
 Constantiaberg Medi-Clinic,+27 21 799 2911,"Burnham Road, Plumstead, Western Cape, 7800","-34.02368, 18.46348",-32.92419,27.42365
 Cotlands - Western Cape,+27 21 857 3758,"5 Ray Street, Macassar, Somerset West, Western Cape, 7130","-34.06419, 18.76878",-32.92419,27.42365
 Creating Effective Families - Mossel Bay,+27 44 693 1092,"Basement, Municipal Clinic Building, 9 George Road, Mossel Bay, Western Cape, 6506","-34.18111, 22.14096",-32.92419,27.42365
 D'Almeida Clinic,+27 44 693 0003,"Strand Street, D'Almeida, Mossel Bay, Western Cape, 6506","-34.17589, 22.11670",-32.92419,27.42365
 Delft Day Hospital,+27 21 954 2237,"Corner of Delft Main Road and Leiden Main Road, Voorbrug, Eerste River, Western Cape, 7100","-26.13188, 27.84070",-32.92419,27.42365
" Department of Justice and Constitutional Development, Office of the Family Advocate - Cape Town",+27 21 426 1216,"10th Floor, 55 Union Castle Building, Corner of House Street and St George's Mall, Cape Town, Western Cape, 8001","-33.92249, 18.42150",-32.92419,27.42365
" Department of Justice and Constitutional Development, Office of the Family Advocate - Worcester",+27 23 347 1238,"67 High Street, Worcester, Western Cape, 6850","-33.64358, 19.44680",-32.92419,27.42365
 Diep River Community Health Clinic,+27 21 712 9850,"17 Schaay Road, Diep River, Cape Town, Western Cape, 7800","-34.03400, 18.46674",-32.92419,27.42365
 Dirkie Uys Community Health Centre,+27 21 590 1655,"Corner of Church Street and Dingle Road, Goodwood, Western Cape, 7460","-33.91045, 18.54997",-32.92419,27.42365
 Dirkie Uys Satellite Clinic - Franschhoek,+27 21 876 2172,"Dirkie Uys Street, Franschhoek, Western Cape, 7690","-33.90976, 19.12001",-32.92419,27.42365
 Dr Abdurahman Community Health Centre,+27 21 637 9071,"Corner of Ebbehout and Eland Streets, Kewtown, Athlone, Cape Town, Western Cape, 7764","-34.05676, 18.44625",-32.92419,27.42365
 Dr Rhoda Private Practice,+27 21 387 2551,"Close to Merrydale Shopping Centre, Ryan Mendelin Street, Mitchells Plain, Cape Town, Western Cape, 7785","-33.91821, 18.42982",-32.92419,27.42365
 Durbanville Medi-Clinic,+27 21 980 2100,"45 Wellington Road, Durbanville, Cape Town, Western Cape, 7550","-34.00930, 18.46760",-32.92419,27.42365
 Eerste River Hospital,+27 21 902 8000,"Perm Gardens, 1 Humbolt Street, Eerste River, Western Cape, 7100","-33.99729, 18.71907",-32.92419,27.42365
 Elandsbaai Clinic,+27 22 972 1680,"School Street, Elands Bay, Piketberg, Western Cape, 8110","-32.31509, 18.33181",-32.92419,27.42365
 Eljada Mission Station,+27 83 655 7988,"Sandheuwel Farm, Vredenburg, Western Cape, 7380","-34.03289, 18.52656",-32.92419,27.42365
 Elsies River Community Health Centre,+27 21 931 0211,"Corner of Twenty Ninth Avenue and Halt Road, Elsies River, Matroosfontein, Western Cape, 7490","-33.93167, 18.57756",-32.92419,27.42365
 False Bay Hospital,+27 21 782 1121,"Seventeenth Avenue, Valleyland, Fish Hoek, Western Cape, 7975","-34.13179, 18.41606",-32.92419,27.42365
 False Bay Hospital Antiretroviral (ARV) Clinic,+27 21 782 1121,"Seventeenth Avenue, Fish Hoek, Cape Town, Western Cape, 7975","-34.13253, 18.41612",-32.92419,27.42365
 Families South Africa - Karoo,+27 44 272 7020,"57 Church Street, Oudtshoorn, Western Cape, 6625","-33.58622, 22.18767",-32.92419,27.42365
 Families South Africa - Outeniqua,+27 44 874 5811,"68 Meade Street, George, Western Cape, 6529","-33.95851, 22.45915",-32.92419,27.42365
 FASMA Karoo,+27 44 272 7020,"57 Church Street, Oudtshoorn, Western Cape, 6625","-33.58622, 22.18767",-32.92419,27.42365
 Fikelela,+27 21 367 0089,"23069 Christmas Tinto Street, Mandela Park, Khayelitsha, Western Cape, 7784","-34.04691, 18.69210",-32.92419,27.42365
 Franschhoek Hospice,+27 21 876 3085,"23A La Rochelle Street, Franschhoek, Western Cape, 7690","-33.91014, 19.12036",-32.92419,27.42365
 Free Gender - Cape Town,+27 21 362 9491,"44873 Sunzu Crescent, Makhaza, Khayelitsha, Western Cape, 7784","-34.03961, 18.67218",-32.92419,27.42365
 Friemersheim Clinic,+27 44 696 6819,"Kretzen Street, Friemersheim, Great Brak River, Western Cape, 6526","-33.95306, 22.14417",-32.92419,27.42365
 Gansbaai Clinic,+27 28 384 1917,"Main Street, Gansbaai, Western Cape, 7220","-34.58983, 19.35128",-32.92419,27.42365
 GF Jooste Provincial Hospital,+27 21 690 1000,"Duinefontein Road, Manenberg, Gatesville, Western Cape, 7764","-33.98461, 18.55817",-32.92419,27.42365
 Global Vision of Hope,+27 21 904 0800,"Shop 7, Teen Challenge Building, Melton Rose, Eerste River, Western Cape, 7100","-33.94313, 18.58855",-32.92419,27.42365
 God Cares International,+27 44 878 0980,"37 Lynx Crescent, Delville Park, Pacaltsdorp, Western Cape, 6529","-34.00720, 22.44178",-32.92419,27.42365
 Graafwater Clinic,+27 27 422 1309,"Cedar Street, Graafwater, Clanwilliam, Western Cape, 8120","-32.16111, 18.60588",-32.92419,27.42365
 Grabouw Community Health Clinic,+27 21 859 1301,"Old Cape Road, Grabouw, Western Cape, 7160","-34.10555, 18.38791",-32.92419,27.42365
 Grandmothers against Poverty and AIDS,+27 21 361 8326,"House J415, Qabake Crescent, Khayelitsha, Western Cape, 7784","-34.03711, 18.65392",-32.92419,27.42365
 Greyton Clinic,+27 28 254 9887,"Park Street, Greyton, Western Cape, 7233","-34.04211, 19.61370",-32.92419,27.42365
 Groote Schuur Hospital,+27 21 404 9111,"Corner of Main Road and Hospital Drive, Observatory, Cape Town, Western Cape, 7925","-33.94104, 18.46172",-32.92419,27.42365
 Gugulethu Community Health Centre - Cape Town,+27 21 637 1280,"Corner NY3 and NY78, Gugulethu, Cape Town, Western Cape, 7750","-33.98937, 18.57216",-32.92419,27.42365
 Hanover Park Day Hospital,+27 21 691 6648,"Corner of Surran and Hamlyn Streets, Hanover Park, Cape Town, Western Cape, 7780","-33.99408, 18.52745",-32.92419,27.42365
 Hawston Clinic,+27 28 315 2063,"79 George Viljoen Street, Hawston, Hermanus, Western Cape, 7202","-34.38591, 19.13542",-32.92419,27.42365
 Heaven's Nest Child Care and Recreation Centre,+27 21 703 9781,"16 Edward Road, Ottery, Cape Town, Western Cape, 7800","-34.02241, 18.52242",-32.92419,27.42365
 Heideveld Clinic,+27 21 637 8033,"Heideveld Road, Heideveld, Athlone, Western Cape, 7764","-33.96565, 18.55302",-32.92419,27.42365
 Heideveld Community Health Care Centre,+27 21 637 8056,"Heideveld Road, Heideveld, Athlone, Western Cape, 7764","-33.96565, 18.55302",-32.92419,27.42365
 Helderberg Hospital,+27 21 852 1334,"Helderberg, Western Cape, 8000","-34.07472, 18.86583",-32.92419,27.42365
 Helderberg Society for the Aged,+27 21 852 5130,"121 Lourensford Road, Somerset West, Western Cape, 7130","-34.07829, 18.86708",-32.92419,27.42365
 Hermanus Hospital,+27 28 312 1166,"Hospital Road, Hermanus, Western Cape, 7200","-34.42267, 19.22833",-32.92419,27.42365
 Home from Home,+27 21 761 7251,"73 Main Road, Plumstead, Cape Town, Western Cape, 7806","-34.02371, 18.46663",-32.92419,27.42365
 Homes for Kids in South Africa,+27 21 785 7317,"1576 Skina Road, Masiphumelele, Fish Hoek, Western Cape, 7975","-34.12919, 18.37873",-32.92419,27.42365
 Hope House Counselling Centre,+27 21 715 0424,"14 Silver Hurst Way, Bergvliet, Cape Town, Western Cape, 7945","-34.05034, 18.45856",-32.92419,27.42365
 Hottentots Holland Hospital,+27 21 850 4700,"Corner Lourensford and Hospital Roads, Somerset West, Western Cape, 7130","-34.07585, 18.85783",-32.92419,27.42365
 Ichibi Single Mothers,+27 72 949 9979,"19820 Ruth First Crescent, Mandela Park, Khayelitsha, Western Cape, 7784","-34.05262, 18.67790",-32.92419,27.42365
 ILitha Labantu - Provincial Head Office,+27 21 633 2383,"26A NY22, Gugulethu, Cape Town, Western Cape, 7750","-33.98039, 18.56814",-32.92419,27.42365
 James House Child and Youth Care Centre,+27 21 790 5616,"6 Riverside Terrace, Hout Bay, Cape Town, Western Cape, 7806","-34.02049, 18.36575",-32.92419,27.42365
 Kannaland Municipality - Ladismith,+27 28 551 1023,"32 Church Street, Ladismith, Western Cape, 6655","-33.49295, 21.26552",-32.92419,27.42365
 Karl Bremer Hospital,+27 21 918 1911,"Corner of Mike Pienaar Boulevard and Frans Conradie Avenue, Bellville South, Bellville, Western Cape, 7530","-33.89183, 18.60803",-32.92419,27.42365
 Kensington Day Hospital,+27 21 593 1150,"85 Sixth Avenue, Kensington, Maitland, Western Cape, 7405","-33.91309, 18.50442",-32.92419,27.42365
 Kibwe Kids,+27 21 889 8160,"Oude Molen, Distillery Road, Onderpapegaaiberg, Stellenbosch, Western Cape, 7600","-33.93885, 18.83757",-32.92419,27.42365
 Klein Karoo Medi-Clinic,+27 44 272 0111,"185 Church Street, Oudtshoorn, Western Cape, 6625","-33.66837, 22.08227",-32.92419,27.42365
 Kleinmond Clinic,+27 28 271 5807,"Protea Road, Kleinmond, Western Cape, 7195","-34.33933, 19.01630",-32.92419,27.42365
 Knysna Hospital,+27 44 302 8400,"Main Street, Knysna, Western Cape, 6571","-34.03680, 23.05857",-32.92419,27.42365
 Knysna Municipality,+27 44 302 6300,"5 Clyde Street, Knysna, Western Cape, 6571","-34.03744, 23.05072",-32.92419,27.42365
 Kogmanskloof Clinic,+27 23 615 2252,"Corner of Jacaranda and Coronation Avenue, Ashton, Western Cape, 6715","-33.83345, 20.04404",-32.92419,27.42365
 Koinonia Welfare and Development Programme,+27 21 906 0800,"Dahlia Street, Sarepta, Kuils River, Western Cape, 7580","-33.93998, 18.66381",-32.92419,27.42365
 Ladismith Hospital (Alan Blyth),+27 28 551 1010,"Ladismith, Western Cape, 8000","-33.48722, 21.26889",-32.92419,27.42365
 Laingsburg Clinic,+27 23 551 1390,"Voortrekker Road, Laingsburg, Western Cape, 6900","-33.19444, 20.85028",-32.92419,27.42365
 Laingsburg Mobile Clinic,+27 23 551 1390,"Voortrekker Road, Laingsburg, Western Cape, 6900","-33.48672, 19.66048",-32.92419,27.42365
 Langebaan Clinic,+27 22 772 0017,"Antonio Sieni Road, Langebaan, Western Cape, 7357","-33.08249, 18.03871",-32.92419,27.42365
 Lapa Munnik Hospital,+27 22 931 2140,"6 Voortrekker Street, Porterville, Western Cape, 6810","-33.01821, 18.99422",-32.92419,27.42365
 Leeu Gamka Clinic,+27 23 521 2124,"Corner of Duiker and Gousblom Streets, Leeu-Gamka, Beaufort West, Western Cape, 6950","-32.76722, 21.96778",-32.92419,27.42365
 LifeLine Centre - Garden Route,+27 44 343 2769,"12 Hertzog Street, Sedgefield, Western Cape, 6573","-34.01766, 22.77774",-32.92419,27.42365
 LifeLine/Childline - Western Cape,+27 21 461 1113,"66 Roeland Street, Cape Town, Western Cape, 8001","-33.92944, 18.42172",-32.92419,27.42365
 LifeLine/Childline Counselling Centre - Wynberg,+27 21 762 8198,"38 Fleming Road, Wynberg, Cape Town, Western Cape, 7800","-34.01237, 18.46791",-32.92419,27.42365
 Linawo Children's Home,+27 21 531 2301,"21 Rhone Road, Pinelands, Cape Town, Western Cape, 7405","-33.93470, 18.51789",-32.92419,27.42365
 Lorraine Joja and the Sive Nathi Home - Blackheath,+27 21 905 6048,"59 Robert Street, Gaylee, Blackheath, Western Cape, 7580","-33.97380, 18.70713",-32.92419,27.42365
 Malmesbury Community Day Centre,+27 22 482 2996,"1 Disa Street, Heidelberg, Western Cape, 6665","-34.42074, 19.19103",-32.92419,27.42365
 Margaret's House,+27 21 797 0233,"61 Rouxton Road, Lansdowne, Cape Town, Western Cape, 7780","-33.99371, 18.50348",-32.92419,27.42365
 Masiphumelele Sport and Rehabilitation Club,+27 21 785 2442,"Ukhanyo Sport Building, Scarborough, Fish Hoek, Western Cape, 7975","-34.13450, 18.42803",-32.92419,27.42365
 Masithandane,+27 44 343 2110,"Graceland, Milkwood Road, Sedgefield, Western Cape, 6573","-34.02559, 22.81286",-32.92419,27.42365
 Masizame Children's Shelter,+27 44 533 6640,"Xipula Street, Kwa-Nokothula, Plettenberg Bay, Western Cape, 6600","-34.05696, 23.37206",-32.92419,27.42365
 Matthew Goniwe Clinic,+27 21 362 6101,"29 Kwahlana Road, Macassar, Khayelitsha, Western Cape, 7784","-34.05589, 18.78356",-32.92419,27.42365
 Melkbosstrand Clinic,+27 21 553 2499,"Robben Road, Melkbosstrand, Cape Town, Western Cape, 7441","-33.71731, 18.44732",-32.92419,27.42365
 Merweville Clinic,+27 23 501 4026,"151 Huguenot Street, Merweville, Beaufort West, Western Cape, 6940","-32.66172, 21.51594",-32.92419,27.42365
 Merweville Mobile Clinic,+27 23 501 4026,"151 Huguenot Street, Merweville, Beaufort West, Western Cape, 6940","-32.66172, 21.51594",-32.92419,27.42365
 Mitchells Plain Community Advice and Development Project,+27 21 392 2000,"Room 13, 1st Floor, OGS Building, Town Centre, Corner of First and Fourth Avenues, Eastridge, Mitchells Plain, Western Cape, 7785","-29.04305, 23.76361",-32.92419,27.42365
 Mitchells Plain Community Health Centre,+27 21 392 5161,"First Avenue, Eastridge, Mitchells Plain, Western Cape, 7785","-34.05004, 18.62418",-32.92419,27.42365
 Mitchells Plain Crisis Line,+27 21 391 2594,"Room 8, Foshini Building, Minute Lane, Mitchells Plain, Western Cape, 7785","-33.91821, 18.42982",-32.92419,27.42365
 Mitchells Plain Hospital,,"Mitchells Plain, Cape Town, Western Cape, 8000","-34.02665, 18.61584",-32.92419,27.42365
 Montagu Hospital,+27 23 614 8100,"Hospital Street, Montagu, Western Cape, 6720","-33.79756, 20.12292",-32.92419,27.42365
 Montana Clinic,+27 23 231 1320,"Church Street, Wolseley, Western Cape, 6830","-33.42208, 19.20418",-32.92419,27.42365
 Monte Vista Clinic,+27 21 558 1030,"16 Diaz Street, Monte Vista, Cape Town, Western Cape, 7460","-33.87719, 18.55858",-32.92419,27.42365
 Moorreesburg Municipality,+27 22 433 1666,"Corner of Loop and Hoof Streets, Moorreesburg, Western Cape, 7310","-33.77653, 25.37844",-32.92419,27.42365
 Mosaic Training and Service Healing Centre for Women,+27 21 761 7585,"66 Ottery Road, Wynberg, Cape Town, Western Cape, 7800","-34.01265, 18.47948",-32.92419,27.42365
 Mossel Bay Hospital,+27 44 691 2011,"Twelfth Avenue, Mossel Bay, Western Cape, 6506","-34.18698, 22.12825",-32.92419,27.42365
 Mossel Bay Municipality,+27 44 606 5000,"101 Marsh Street, Mossel Bay, Western Cape, 6506","-34.18271, 22.14703",-32.92419,27.42365
 Mount Pleasant Clinic,+27 28 312 1536,"50 Heide Street, Hermanus, Western Cape, 7200","-34.41517, 19.21293",-32.92419,27.42365
 Murraysburg Clinic,+27 49 844 0021,"Corner of Pienaar and Leeb Streets, Murraysburg, Western Cape, 6995","-31.96250, 23.76917",-32.92419,27.42365
 Murraysburg Hospital,+27 49 844 0053,"Leeb Street, Murraysburg, Western Cape, 6995","-31.96278, 23.76850",-32.92419,27.42365
 National Association of Child Care Workers - Mfesane,+27 22 713 2793,"16 Voortrekker Street, Vredenburg, Western Cape, 7380","-32.91269, 17.99137",-32.92419,27.42365
 Nelson Mandela Metropolitan University Campus Health Services - Saasveld Campus,+27 44 801 5062,"Saasveld Road, Eden, George, Western Cape, 6529","-33.96770, 22.48997",-32.92419,27.42365
 Netcare Christiaan Barnard Memorial Hospital,+27 21 441 0000,"25 DF Malan Street, Foreshore, Cape Town, Western Cape, 8001","-33.91801, 18.43032",-32.92419,27.42365
 Netcare N1 City Hospital,+27 21 590 4444,"Louwtjie Rothman Street, Goodwood, Western Cape, 7460","-33.89263, 18.56265",-32.92419,27.42365
 Netreg Clinic,+27 21 694 1733,"Corner of Bonteheuwel Street and Jakkelsvlei Lane, Langa, Cape Town, Western Cape, 7455","-33.94863, 18.56034",-32.92419,27.42365
 New Birth Community Outreach Centre,+27 21 905 6014,"44 Amstelveen Street, Austinville, Blackheath, Western Cape, 7580","-33.96154, 18.50762",-32.92419,27.42365
 New Dawn,+27 21 637 3070,"3 Disa Court, Cape Town, Western Cape, 8000","-32.89568, 18.76074",-32.92419,27.42365
 New Somerset Hospital,+27 21 402 6911,"Corner of Portswood and Beach Roads, Green Point, Western Cape, 8005","-33.90499, 18.41709",-32.92419,27.42365
 Nkqaba House and Cultural Centre,+27 82 957 6524,"31379 Cekeca Road, Makhaza, Khayelitsha, Western Cape, 7784","-34.04840, 18.70235",-32.92419,27.42365
 Nolungile Community Health Centre,+27 21 387 1107,"Solomon Tshuku Street, Khayelitsha Site C, Khayelitsha, Western Cape, 7784","-34.01495, 18.64990",-32.92419,27.42365
 Nonceba Family Counselling Centre,+27 21 364 0135,"29 Tanga Street, Eyethu, Khayelitsha, Western Cape, 7784","-34.03646, 18.67013",-32.92419,27.42365
 Northpine Clinic,+27 21 981 4319,"Northpine Road, Brackenfell, Cape Town, Western Cape, 7560","-33.87100, 18.71079",-32.92419,27.42365
 Op die Berg Clinic,+27 23 317 0380,"Symphony Avenue, Groenheuwel, Paarl, Western Cape, 7646","-33.69746, 18.99281",-32.92419,27.42365
 Otto du Plessis Hospital,+27 28 424 1167,"Corner of Dorpsig and Riebeeck Streets, Bredasdorp, Western Cape, 7820","-34.53633, 20.03367",-32.92419,27.42365
 Oudtshoorn Hospital,+27 44 203 7200,"Park Road, Oudtshoorn, Western Cape, 6625","-33.85900, 18.63929",-32.92419,27.42365
 P Section Children's Network,+27 21 361 1504,"P98 Bonga Drive, Macassar, Khayelitsha, Western Cape, 7784","-34.02466, 18.66518",-32.92419,27.42365
 Paarl Hospital,+27 21 860 2500,"Corner of Hospital Street and Bergrivier Boulevard, Paarl, Western Cape, 7646","-29.66279, 17.88310",-32.92419,27.42365
 Pacaltsdorp Clinic,+27 44 878 0427,"Mission Street, Pacaltsdorp, George, Western Cape, 6529","-34.01683, 22.46106",-32.92419,27.42365
 Patch Helderberg Child Abuse Centre,+27 21 852 6110,"Corner of Dummer Street and Dorhill Close, Somerset West, Western Cape, 7130","-34.07454, 18.84531",-32.92419,27.42365
 Paternoster Satellite Clinic,+27 22 752 2195,"60 St Augustine Street, Paternoster, Vredenburg, Western Cape, 7381","-32.80948, 17.88979",-32.92419,27.42365
 Pentech Clinic,+27 21 959 6403,"Symphony Way, Bellville, Cape Town, Western Cape, 7530","-33.94210, 18.63527",-32.92419,27.42365
 Porterville Clinic,+27 22 931 2711,"Voortrekker Road, Malmesbury, Western Cape, 7300","-33.46548, 18.72896",-32.92419,27.42365
 Porterville Mobile Clinic,+27 22 931 2711,"Voortrekker Road, Porterville, Western Cape, 6810","-33.90541, 18.58898",-32.92419,27.42365
 Prince Albert Advice Office,+27 23 541 1340,"4 Loop Street, Prince Albert, Western Cape, 6930","-33.20927, 22.02366",-32.92419,27.42365
 Prince Albert Mobile Clinic,+27 23 541 1730,"Adderley Street, Prince Albert, Western Cape, 6930","-33.22614, 22.03140",-32.92419,27.42365
 Protea Psycho-social Support,+27 73 636 7470,"1192 Calcrete Street, Lutville, Western Cape, 8165","-31.54817, 18.34669",-32.92419,27.42365
 Radie Kotze Hospital,+27 22 913 1175,"Main Road, Piketberg, Western Cape, 7320","-32.90244, 18.76525",-32.92419,27.42365
 Rainbow of Hope Place of Safety,+27 21 591 6610,"49 Alice Street, Goodwood, Western Cape, 7460","-33.90071, 18.54643",-32.92419,27.42365
 Rape Crisis - Helderberg,+27 21 852 5620,"Corner of Hospital and Batavia Streets, Somerset West, Western Cape, 7130","-34.09188, 18.85361",-32.92419,27.42365
 Rape Crisis Cape Town Trust - Khayelitsha,+27 21 361 9085,"89 Msobomvu Drive, Elitha Park, Khayelitsha, Western Cape, 7784","-34.04763, 18.66442",-32.92419,27.42365
 Rape Crisis Cape Town Trust - Observatory,+27 21 447 1467,"23 Trill Road, Observatory, Cape Town, Western Cape, 7925","-33.93919, 18.46910",-32.92419,27.42365
 Ravensmead Community Health Centre,+27 21 936 8758,"Florida Street, Ravensmead, Belhar, Western Cape, 7943","-33.92476, 18.59670",-32.92419,27.42365
 Rawsonville Clinic,+27 23 349 1410,"1 Uit Street, De Nova, Rawsonville, Worcester, Western Cape, 6845","-33.69056, 19.31833",-32.92419,27.42365
 Retreat Clinic,+27 21 712 0310,"138 Eleventh Avenue, Retreat, Cape Town, Western Cape, 7945","-34.05854, 18.48043",-32.92419,27.42365
 RFF Clinic,+27 21 874 1112,"1 Jakaranda Avenue, Groot-Drakenstein, Stellenbosch, Western Cape, 7600","-33.90685, 19.03365",-32.92419,27.42365
 Riversdale Clinic,+27 28 713 8600,"Hospital Street, Riversdale, Western Cape, 6670","-34.09389, 21.25361",-32.92419,27.42365
 Riversdale Hospital,+27 28 713 2445,"Hospital Street, Riversdale, Western Cape, 6670","-34.09361, 21.25472",-32.92419,27.42365
 Robertson Hospital,+27 23 626 8500,"Van Oudtshoorn Street, Robertson, Western Cape, 6705","-33.80180, 19.89060",-32.92419,27.42365
 Rosemoor Clinic,+27 44 875 0469,"Canary Street, Rosemoor, George, Western Cape, 6529","-33.82140, 18.72030",-32.92419,27.42365
 Saldanha Clinic,+27 22 714 4669,"Saldanha Road, Saldanha, Western Cape, 7395","-33.87054, 18.66150",-32.92419,27.42365
 Sandy Point Clinic,+27 22 736 1026,"Municipal Office, Main Road, St Helena Bay, Vredenburg, Western Cape, 7390","-32.76280, 18.02824",-32.92419,27.42365
 Sedgefield Mobile Clinic,+27 44 343 1117,"Pelican Lane, Sedgefield, Western Cape, 6573","-34.01970, 22.80843",-32.92419,27.42365
 Sex Workers Education and Advocacy Taskforce - Cape Town,+27 21 448 7875,"19 Anson Street, Observatory, Cape Town, Western Cape, 7935","-33.93819, 18.46936",-32.92419,27.42365
 Shammah Ministries,+27 21 953 0128,"Shammah Ministries Church, 20 Organ Street, Belhar, Cape Town, Western Cape, 7493","-34.09659, 18.83570",-32.92419,27.42365
 Shekinah Glory Ministries,+27 21 393 1325,"20 Dageraad Road, Strandfontein, Mitchells Plain, Western Cape, 7798","-34.07044, 18.55526",-32.92419,27.42365
 Simelela Rape Clinic,+27 21 361 0543,"Lwandle Road, Khayelitsha Site B, Khayelitsha, Western Cape, 7784","-34.02892, 18.66633",-32.92419,27.42365
 Sisters Incorporated,+27 21 797 4190,"PO Box 2330, Clareinch, Claremont, Western Cape, 7740","-33.98257, 18.47147",-32.92419,27.42365
 Site C Youth Centre,+27 21 387 1200,"Situated within Nolungile Community Health Centre, Solomon Tshuku Street, Khayelitsha Site C, Khayeliltsha, Western Cape, 7784","-34.01495, 18.64990",-32.92419,27.42365
 Sizakuyenza Centre and Shelter,+27 21 374 0800,"Corner of New Eisleben and Mpumelelo Roads, Philippi, Ottery, Western Cape, 7750","-27.54689, 28.51890",-32.92419,27.42365
 Sobambisana Community Development Programme,+27 81 550 9377,"5 Old Klipfontein Road, Cross Roads, Gugulethu, Western Cape, 7750","-33.96110, 18.50674",-32.92419,27.42365
" South African Police Service Family Violence, Child Protection and Sexual Offences Unit - Athlone",+27 21 376 9850,"1 Alpha Avenue, Mitchells Plain, Cape Town, Western Cape, 7785","-33.91821, 18.42982",-32.92419,27.42365
" South African Police Service Family Violence, Child Protection and Sexual Offences Unit - George",+27 44 803 4616,"Plantation Road, George, Western Cape, 6529","-33.94721, 22.45197",-32.92419,27.42365
" South African Police Service Family Violence, Child Protection and Sexual Offences Unit - Oudtshoorn",+27 44 272 6486,"Corner of Silver and Jacobson Streets, Oudtshoorn, Western Cape, 6625","-33.59800, 22.21214",-32.92419,27.42365
" South African Police Service Family Violence, Child Protection and Sexual Offences Unit - Steenberg",+27 21 799 1315,"5 Church Street, Wynberg, Cape Town, Western Cape, 7800","-34.00419, 18.46820",-32.92419,27.42365
" South African Police Service Family Violence, Child Protection and Sexual Offences Unit - Vredendal",+27 27 201 3200,"1 Rivier Street, Vredendal, Western Cape, 8160","-31.66136, 18.51012",-32.92419,27.42365
" South African Police Service Family Violence, Child Protection and Sexual Offences Unit - Worcester",+27 23 348 6100,"112 High Street, Worcester, Western Cape, 6850","-34.04224, 22.99855",-32.92419,27.42365
 St Anne's Home and Shelter,+27 21 448 8513,"48 Balfour Street, Woodstock, Cape Town, Western Cape, 7925","-33.93454, 18.45168",-32.92419,27.42365
 St John Ambulance Foundation - Cape Town Centre,+27 21 461 8420,"St John Gate, 183 Sir Lowry Road, Woodstock, Western Cape, 7925","-33.92800, 18.44258",-32.92419,27.42365
 St Michaelâ€™s Child and Youth Care Center,+27 21 797 4186,"5 Hemyock Road, Plumstead, Cape Town, Western Cape, 7800","-34.01667, 18.46905",-32.92419,27.42365
 Standard Mobile Clinic,+27 78 605 4652,"Corner of Bezuidenhout and Dreyers Streets, Stanford, Western Cape, 7210","-33.29016, 27.47264",-32.92419,27.42365
 Stanford Clinic,+27 28 341 0933,"Daneel Street, Stanford, Hermanus, Western Cape, 7210","-34.08426, 20.95835",-32.92419,27.42365
 Strand Miracle Kidz Place of Safety and Soup Kitchen,+27 72 761 9301,"53 Soetvlei Avenue, Constantia Hill Estate, Constantia, Western Cape, 7806","-34.04977, 18.44144",-32.92419,27.42365
 Struis Bay Clinic,+27 28 435 7548,"Duining Street, Struis Bay, Bredasdorp, Western Cape, 7285","-34.80517, 20.04654",-32.92419,27.42365
 Swartland Hospital,+27 22 487 9203,"PG Nelson Street, Malmesbury, Western Cape, 7300","-33.45471, 18.72369",-32.92419,27.42365
 Swellendam Hospital,+27 28 514 1142,"18 Drostdy Street, Swellendam, Western Cape, 6740","-34.02412, 20.44818",-32.92419,27.42365
 Swellendam Mobile Clinic,+27 28 514 8540,"18 Drostdy Street, Swellendam, Western Cape, 6740","-34.02412, 20.44818",-32.92419,27.42365
 TB/HIV Care Association - Cape Town,+27 21 425 0050,"25 St George's Mall, 8th Floor, ABSA House, Thibault Square, Long Street, Cape Town, Western Cape, 8001","-33.91869, 18.42336",-32.92419,27.42365
 TB/HIV Care Association - Hout Bay,+27 21 790 7709,"Shop 4, Pam Arlene Place, Main Road, Hout Bay, Cape Town, Western Cape, 7806","-34.03803, 18.35794",-32.92419,27.42365
 TB/HIV Care Association - Khayelitsha,+27 21 425 0050,"30 Msombomvu Drive, Ilitha Park, Khayelitsha, Western Cape, 7784","-34.04661, 18.66320",-32.92419,27.42365
 TB/HIV Care Association - Malmesbury,+27 22 486 5057,"5 Acacia Avenue, Malmesbury, Western Cape, 7300","-33.58018, 18.50051",-32.92419,27.42365
 TB/HIV Care Association - Vredenburg,+27 22 719 1221,"25 Plein Street, Vredenburg, Western Cape, 7380","-32.91710, 18.00989",-32.92419,27.42365
 TB/HIV Care Association - Wynberg,+27 21 762 8419,"1st Floor, 155 Grand Central, Main Road, Wynberg, Cape Town, Western Cape, 7800","-33.94857, 18.47128",-32.92419,27.42365
 Tehillah Community Collaborative,+27 21 931 9073,"196 Sixteenth Avenue, Leonsdale, Elsies River, Western Cape, 7490","-33.92075, 18.57690",-32.92419,27.42365
 Testimony Dienste,+27 78 392 8644,"16 Edinburgh Place, Atlantis, Dassenberg, Western Cape, 7349","-33.55977, 18.49510",-32.92419,27.42365
 The Ark City of Refuge,+27 21 843 3927,"5 Old National Road, Faure, Somerset West, Western Cape, 7131","-34.03612, 18.75798",-32.92419,27.42365
 The Deaf Community of Cape Town,+27 21 712 7904,"12 Gordon Road, Heathfield, Retreat, Western Cape, 7945","-34.04715, 18.46779",-32.92419,27.42365
 The Holy Cross Child and Youth Care Centre,+27 21 934 6435,"Corner of De la Rey Street and Modderdam Road, Parow Valley, Parow, Western Cape, 7500","-33.93224, 18.60271",-32.92419,27.42365
 The League of Friends of the Blind,+27 21 705 3753,"94 Klip Road, Grassy Park, Cape Town, Western Cape, 7941","-34.04569, 18.48753",-32.92419,27.42365
 The Saartjie Baartman Centre for Women and Children,+27 21 633 5287,"Klipfontein Road, Manenberg, Gatesville, Western Cape, 7764","-33.96863, 18.53425",-32.92419,27.42365
 The Salvation Army - Carehaven Family Centre,+27 21 638 5511,"PO Box 38166, Gatesville, Cape Town, Western Cape, 7766","-33.97256, 18.53634",-32.92419,27.42365
 The Somerset West Night Shelter,+27 21 851 4984,"71 Church Street, Somerset West, Western Cape, 7130","-34.08654, 18.84756",-32.92419,27.42365
 The Trauma Centre,+27 21 465 7373,"Cowley House, 126 Chapel Street, Woodstock, Cape Town, Western Cape,7925","-33.92915, 18.44075",-32.92419,27.42365
 The Valleys and Mountains Development Foundation,+27 23 616 2724,"Corner of Almera Avenue and New Cross Street, Bonnievale, Western Cape, 6730","-33.93257, 20.07255",-32.92419,27.42365
" Thuthuzela Care Centre - George Provincial Hospital, George",+27 44 873 4858,"George Provincial Hospital, Corner of Davidson and Langenhoven Streets, Glenbarrie, George, Western Cape, 6529","-33.95175, 22.44961",-32.92419,27.42365
" Thuthuzela Care Centre - GF Jooste Hospital, Manenberg",+27 21 699 0474,"GF Jooste Hospital, Duinefontein Road, Manenberg, Gatesville, Western Cape, 7764","-33.98461, 18.55817",-32.92419,27.42365
" Thuthuzela Care Centre - Karl Bremer Hospital, Bellville",+27 21 948 0861,"Karl Bremer Hospital, Corner of Mike Pienaar Boulevard and Frans Conradie Avenue, Bellville South, Bellville, Cape Town, Western Cape, 7530","-33.89183, 18.60803",-32.92419,27.42365
" Thuthuzela Care Centre - Khayelitsha District Hospital, Khayelitsha",+27 21 360 4570,"Khayelitsha District Hospital, Khayelitsha Community Health Centre, Corner of Walter Sisulu and Steve Biko Roads, Khayelitsha, Cape Town, Western Cape, 7784","-34.05058, 18.67478",-32.92419,27.42365
" Thuthuzela Care Centre - Wesfleur Hospital, Wesfleur",+27 21 010 0421,"Wesfleur Hospital, Wesfleur Circle, Atlantis, Dassenberg, Western Cape, 7349","-33.56472, 18.49525",-32.92419,27.42365
" Thuthuzela Care Centre - Worcester Hospital, Worcester",+27 23 348 1294,"Worcester Hospital, Murray Street, Worcester, Western Cape, 6850","-33.64453, 19.45828",-32.92419,27.42365
 Tongues of Fire Assembly of God,+27 21 712 4284,"16 Victoria Road, Retreat, Cape Town, Western Cape, 7945","-34.05520, 18.47703",-32.92419,27.42365
 Town 2 Clinic,+27 21 360 4000,"Corner of Landsdown and Basel Zondi Streets, Khayelitsha, Cape Town, Western Cape, 7784","-34.04006, 18.68357",-32.92419,27.42365
 Trauma Clinic,+27 21 762 7377,"7 Summerley Road, Kenilworth, Cape Town, Western Cape, 7708","-33.99571, 18.47060",-32.92419,27.42365
 Triangle Project,+27 21 422 0255,"2nd Floor, Leadership House, Corner of Burg and Shortmarket Streets, Greenmarket Square, Cape Town, Western Cape, 8001","-33.92247, 18.42028",-32.92419,27.42365
 Tulbagh Mobile Clinic,+27 23 230 8020,"Steindal Road, Tulbagh, Western Cape, 6820","-33.28494, 19.14632",-32.92419,27.42365
 Uniondale Hospital,+27 44 752 1068,"1 Hospital Street, Uniondale, Western Cape, 6460","-33.65931, 23.12566",-32.92419,27.42365
 Uniondale Mobile Clinic,+27 79 501 3240,"Long Street, Uniondale, Western Cape, 6460","-34.22374, 19.46409",-32.92419,27.42365
 University of Cape Town School of Public Health and Family Medicine - Medical Campus,+27 21 406 6306,"School of Public Health and Family Medicine, Falmouth Building, Medical Campus, University of Cape Town, Observatory, Cape Town, Western Cape, 7925","-33.93616, 18.47746",-32.92419,27.42365
 University of Stellenbosch Division of Medical Virology - Parow,+27 21 938 9354,"Room 8080, Faculty of Health Science, University of Stellenbosch, Francie van Zijl Avenue, Parow, Cape Town, Western Cape, 7500","-33.91592, 18.60912",-32.92419,27.42365
 University of the Western Cape Campus Clinic - Bellville Campus,+27 21 959 2876,"1st Floor, Community Health Sciences Building, Modderdam Road, Bellville, Western Cape, 7530","-33.91393, 18.63333",-32.92419,27.42365
 Vanguard Community Health Centre,+27 21 694 5540,"Corner of Candlewood and Citrus Streets, Bontheuwel, Vanguard Estate, Western Cape, 7764","-33.94802, 18.54352",-32.92419,27.42365
 Victoria Hospital,+27 21 799 1111,"Alphen Hill Road, Wynberg, Cape Town, Western Cape, 7800","-34.01200, 18.45972",-32.92419,27.42365
 Villiersdorp Mobile 1 Clinic,+27 28 840 1460,"1A Protea Street, Villiersdorp, Western Cape, 6848","-33.99318, 19.28629",-32.92419,27.42365
 Vredendal Hospital,+27 27 213 2039,"Hospital Street, Vredendal, Western Cape, 8160","-31.67422, 18.50127",-32.92419,27.42365
 Vredendal North Clinic,+27 27 213 5063,"Hoorskool Weg, Vredendal North, Vredendal, Western Cape, 8160","-31.65697, 18.51354",-32.92419,27.42365
 Wellington Mobile Clinic,+27 21 864 1182,"Hermon Road, Wellington, Western Cape, 7655","-33.38209, 18.90071",-32.92419,27.42365
 Wesfleur Hospital,+27 21 572 3071,"Wesfleur Circle, Atlantis, Dassenberg, Western Cape, 7349","-33.56472, 18.49525",-32.92419,27.42365
 Western Cape Provincial Library Service,+27 21 483 2234,"Corner of Hospital and Chiappini Streets, Cape Town, Western Cape, 8001","-34.00393, 18.45465",-32.92419,27.42365
 Woodside Special Care Centre,+27 21 696 2811,"29 Lawson Road, Rondebosch East, Lansdowne, Western Cape, 7780","-33.98077, 18.49630",-32.92419,27.42365
 Wupperthal Mobile Clinic,+27 27 492 3010,"Skool Street, Wuppertal, Clanwilliam, Western Cape, 8138","-32.17905, 18.88782",-32.92419,27.42365
 Wynberg Clinic,+27 21 797 5190,"Lower Maynard Road, Wynberg, Cape Town, Western Cape, 7800","-34.00482, 18.46827",-32.92419,27.42365
 Yabonga Children's Project,+27 21 761 2940,"2 Main Road, Wynberg, Cape Town, Western Cape, 7800","-34.00259, 18.46915",-32.92419,27.42365
 Zonwabele LGBTI Organisation,+27 79 282 5248,"1695 Celiwe Street, Silver Town, Mbekweni, Western Cape, 7626","-33.67110, 18.99026",-32.92419,27.42365
